ProviderName,PID,ProviderPracticeAddress1,ProviderPracticeAddress2,ProviderPracticeCity,ProviderPracticeStateCode,ProviderPracticeZipCode,County
648 Medical Squadron,1,8006 CHENNAULT RD,STE 1,BROOKS CITY BASE,TX,78235,Bexar
Abilene Nursing and Rehabilitation Center,2,2630 OLD ANSON RD,,ABILENE,TX,79603,Taylor
Abilene Regional Medical Center,3,6250 US HIGHWAY 83,,ABILENE,TX,79606,Taylor
Abilene Regional Medical Center Skilled Nursing Unit,4,6250 HIGHWAY 83 84 AT ANTILLEY RD,,ABILENE,TX,79606,Taylor
"Absolutely Angels, Inc",5,936 E PRODUCTION DR,,PILOT POINT,TX,76258,Denton
Accel at College Station,6,1500 MEDICAL AVE,,COLLEGE STATION,TX,77845,
ACCEL AT HERMANN PARK,7,5600 CHENEVERT STREET,,HOUSTON,TX,77004,
Accel at Willow Bend,8,2620 COMMUNICATIONS PKWY,,PLANO,TX,75093,Collin
Adora Midtown Park,9,8130 MEADOW RD,,DALLAS,TX,75231,
Advance Healthcare Solutions,10,4863 KEMP BLVD,,WICHITA FALLS,TX,76308,Wichita
Advanced Health and Rehabilitation Center of Garland,11,1201 COLONEL DR,,GARLAND,TX,75043,Dallas
Advanced Rehab and Healthcare,12,8221 PALISADES DR,,LIVE OAK,TX,78233,Bexar
Advanced Rehab and Healthcare of Athens,13,121 COMMONS DR,,ATHENS,TX,75751,Henderson
Advanced Rehab of Wichita Falls,14,4810 KEMP BLVD,,WICHITA FALLS,TX,76308,Wichita
Advanced Rehabilitation and Healthcare of Bowie,15,700 W US HIGHWAY 287 S,,BOWIE,TX,76230,Montague
ADVANCED REHABILITATION AND HEALTHCARE OF LIVE OAK,16,8221 PALISADES DR,,LIVE OAK,TX,78233,
Adventhealth Care Center Burleson,17,301 HUGULEY BLVD,,BURLESON,TX,76028,Johnson
Afton Oaks Healthcare And Rehabilitation Center,18,7514 KINGSLEY ST,,HOUSTON,TX,77087,Harris
Alameda Oaks Nursing Center,19,1101 S ALAMEDA ST,,CORPUS CHRISTI,TX,78404,Nueces
Alamo Heights Health and Rehabilitation Center,20,8223 BROADWAY ST,,SAN ANTONIO,TX,78209,Bexar
Alfredo Gonzalez Texas State Veterans Home,21,301 E YUMA AVE,,MCALLEN,TX,78503,Hidalgo
ALLEGIANT WELLNESS AND REHAB,22,724 W RENDON CROWLEY RD,,FORT WORTH,TX,76036,
Alpine Terrace,23,746 ALPINE DR,,KERRVILLE,TX,78028,Kerr
Alpine Valley Care Center,24,1003 LOOP RD,,ALPINE,TX,79830,Brewster
Alta Vista Rehabilitation and Healthcare,25,510 PAREDES LINE RD,,BROWNSVILLE,TX,78521,Cameron
"Alto Nursing Center, Inc",26,305 MAGGIE SESSIONS ST,,ALTO,TX,75925,Cherokee
Alvarado Meadows Nursing and Rehabilitation Center,27,101 N PARKWAY DR,,ALVARADO,TX,76009,Johnson
Amarillo Center for Skilled Care,28,6641 W AMARILLO BLVD,,AMARILLO,TX,79106,Potter
Ambrosio Guillen Texas State Veterans Home,29,9650 KENWORTHY ST,,EL PASO,TX,79924,El Paso
Amerisa Court,30,315 MUSTANG DR,,DENVER CITY,TX,79323,Yoakum
"Amistad Nursing Home and Rehabilitation Center, LLC",31,200 RIVERSIDE DR,,UVALDE,TX,78801,Uvalde
Anahuac Healthcare Center,32,300 HOSPITAL DR,,ANAHUAC,TX,77514,Chambers
Anderson Nursing Center,33,520 BRADBURN RD,,GRAND SALINE,TX,75140,Van Zandt
Andrews Healthcare Center,34,620 HOSPITAL DR,,ANDREWS,TX,79714,Andrews
Anson General Hospital,35,101 AVENUE J,,ANSON,TX,79501,Jones
Anson Healthcare Center,36,125 AVENUE J,,ANSON,TX,79501,Jones
Apex Secure Care Brownfield,37,1101 E LAKE ST,,BROWNFIELD,TX,79316,Terry
Arbor Grace Of Kilgore,38,2700 S HENDERSON BLVD,,KILGORE,TX,75662,Gregg
Arbor Grace Skilled Nursing And Rehabilitation Center,39,144 FM 1252 W,,KILGORE,TX,75662,Gregg
ARBOR GRACE SKILLED NURSING AND REHABILITATION LLC,40,144 FM 1252 WEST,,KILGORE,TX,75662,
Arbor Grace Wellness Center,41,1241 E MARSHALL HOWARD BLVD,,LITTLEFIELD,TX,79339,Lamb
Arbor Terrace Healthcare Center,42,609 RIO CONCHO DR,,SAN ANGELO,TX,76903,Tom Green
Arboretum Nursing and Rehabilitation Center of Winnie,43,1215 STATE HIGHWAY 124,,WINNIE,TX,77665,Chambers
Arboretum of New Braunfels,44,1310 S IH 35,,NEW BRAUNFELS,TX,78130,Comal
Arbrook Plaza,45,401 W ARBROOK BLVD,,ARLINGTON,TX,76014,Tarrant
Archer City Nursing Center,46,201 E CHESTNUT ST,,ARCHER CITY,TX,76351,Archer
Arlington Heights Health and Rehabilitation Center,47,4825 WELLESLEY AVE,,FORT WORTH,TX,76107,Tarrant
Arlington Residence and Rehabilitation Center,48,405 DUNCAN PERRY RD,,ARLINGTON,TX,76011,Tarrant
Arlington Villa Nursing Retirement Center,49,2601 W RANDOL MILL RD,,ARLINGTON,TX,76012,Tarrant
Army Residence Community Health Care Center,50,7400 CRESTWAY RD,,SAN ANTONIO,TX,78239,Bexar
Ascension Providence Health Center,51,6901 MEDICAL PKWY,,WACO,TX,76712,McLennan
Ashford Gardens,52,7210 NORTHLINE DR,,HOUSTON,TX,77076,Harris
Ashford Hall,53,2021 SHOAF DR,,IRVING,TX,75061,Dallas
Ashton Medical Lodge,54,801 S LOOP 250 W,,MIDLAND,TX,79703,
Ashton Park Care Center,55,210 GULF FWY,,TEXAS CITY,TX,77591,Galveston
Athens Healthcare and Rehabilitation,56,305 S PALESTINE ST,,ATHENS,TX,75751,Henderson
Atrium Medical Center,57,11929 W AIRPORT BLVD,STE 110,STAFFORD,TX,77477,Fort Bend
August Healthcare Bridgeport,58,102 W CATES ST,,BRIDGEPORT,TX,76426,Wise
Austin Healthcare And Rehabilitation,59,3509 ROGGE LN,,AUSTIN,TX,78723,Travis
Austin Retirement and Nursing Center,60,6909 BURNET LN,,AUSTIN,TX,78757,Travis
AUSTIN WELLNESS AND REHABILITATION,61,11406 RUSTIC ROCK DR,,AUSTIN,TX,78750,Travis
Autumn Care Retirement Center,62,1111 SAN ANTONIO ST,,HEMPSTEAD,TX,77445,Waller
Autumn Hills Convalescent Center Houston,63,617 JANISCH RD,,HOUSTON,TX,77018,Harris
Autumn Leaves,64,1010 EMERALD ISLE DR,,DALLAS,TX,75218,Dallas
Autumn Leaves Nursing and Rehabilitation,65,321 KILGORE DR,,HENDERSON,TX,75652,Rusk
Autumn Winds,66,3301 FARM RD 3009,,SCHERTZ,TX,78154,Guadalupe
Avalon Place Kirbyville,67,700 N HERNDON AVE,,KIRBYVILLE,TX,75956,Jasper
Avalon Place Trinity,68,808 S ROBB ST,,TRINITY,TX,75862,Trinity
Avalon Place Wharton,69,1405 VALHALLA DR,,WHARTON,TX,77488,Wharton
Avante Rehabilitation and Care Center,70,225 N SOWERS RD,,IRVING,TX,75061,Dallas
Azalea Place Healthcare and Rehabilitation,71,810 S PORTER AVE,,TYLER,TX,75701,Smith
Azalea Trail Nursing and Rehabilitation Center,72,411 SPRINGCREEK RD,,GRAND SALINE,TX,75140,Van Zandt
Azle Manor Health Care and Rehabilitation,73,721 DUNAWAY LN,,AZLE,TX,76020,Tarrant
Balch Springs Health and Rehabilitation,74,4200 SHEPHERD LN,,MESQUITE,TX,75180,Dallas
Ballinger Healthcare and Rehabilitation Center,75,2001 N 6TH ST,,BALLINGER,TX,76821,Runnels
Ballinger Memorial Hospital,76,608 AVENUE B,,BALLINGER,TX,76821,Runnels
Bandera Nursing and Rehabilitation Center,77,222 FM 1077,,BANDERA,TX,78003,Bandera
Bangs Nursing and Rehabilitation Center,78,1105 E FITZGERALD ST,,BANGS,TX,76823,Brown
Baptist Retirement Community,79,902 N MAIN ST,,SAN ANGELO,TX,76903,Tom Green
Bastrop Lost Pines Nursing and Rehabilitation Center,80,430 OLD AUSTIN HWY,,BASTROP,TX,78602,Bastrop
Bastrop Nursing Center,81,400 OLD AUSTIN HWY,,BASTROP,TX,78602,Bastrop
Bay Villa Healthcare Center,82,1800 13TH ST,,BAY CITY,TX,77414,Matagorda
Baybrooke Village Care and Rehabilitation Center,83,8300 ELDORADO PKWY,,MCKINNEY,TX,75070,Collin
Baylor Scott And White Continuing Care Hospital,84,546 N KEGLEY RD,,TEMPLE,TX,76502,Bell
Baylor Scott And White Hospital Taylor,85,305 MALLARD LN,,TAYLOR,TX,76574,Williamson
Baylor Scott And White Medical Center Brenham,86,700 MEDICAL PKWY,,BRENHAM,TX,77833,Washington
Baylor Scott And White Medical Center Hillcrest,87,100 HILLCREST MEDICAL BLVD,,WACO,TX,76712,McLennan
Baylor Scott And White Medical Center Lake Pointe,88,6800 SCENIC DR,,ROWLETT,TX,75088,Dallas
Baylor Scott And White Medical Center Llano,89,200 W OLLIE ST,,LLANO,TX,78643,Llano
Bayou Pines Care Center,90,4905 FLEMING ST,,LA MARQUE,TX,77568,Galveston
Bayside Community Hospital,91,200 HOSPITAL DR,,ANAHUAC,TX,77514,Chambers
Baywind Village Skilled Nursing and Rehabilitation,92,411 ALABAMA AVE,,LEAGUE CITY,TX,77573,Galveston
Baywood Crossing Rehabilitation and Healthcare Center,93,5020 SPACE CENTER BLVD,,PASADENA,TX,77505,Harris
Beacon Harbor Healthcare and Rehabilitation,94,6700 HERITAGE PKWY,,ROCKWALL,TX,75087,Rockwall
Beacon Hill,95,3515 S PARK AVE,,DENISON,TX,75020,Grayson
Beaumont Health Care Center,96,795 LINDBERGH DR,,BEAUMONT,TX,77707,Jefferson
Beaumont Nursing and Rehabilitation,97,1175 DENTON ST,,BEAUMONT,TX,77707,Jefferson
Bedford Wellness And Rehabilitation,98,2001 FOREST RIDGE DR,,BEDFORD,TX,76021,Tarrant
Beechnut Manor,99,12777 BEECHNUT ST,,HOUSTON,TX,77072,Harris
Bel Air at Teravista,100,4105 TERAVISTA CLUB DR,,ROUND ROCK,TX,78665,Williamson
Bell County Nursing and Rehabilitation,101,2222 S 5TH ST,,TEMPLE,TX,76504,Bell
Bell Haven Convalescent and Nursing Center,102,1002 MEDICAL DR,,KILLEEN,TX,76543,Bell
Bellmead Rehabilitation Center,103,4601 WISCONSIN ST,,WACO,TX,76705,McLennan
Bellville Medical Center,104,44 N CUMMINGS ST,,BELLVILLE,TX,77418,Austin
Belterra Health And Rehabilitation Center,105,2170 N LAKE FOREST DR,,MCKINNEY,TX,75071,Collin
Ben Taub General Hospital,106,1504 TAUB LOOP,,HOUSTON,TX,77030,Harris
Benbrook Nursing and Rehabilitation Center,107,1000 MCKINLEY ST,,BENBROOK,TX,76126,Tarrant
Bertram Nursing and Rehab Center,108,540 E STATE HIGHWAY 29,,BERTRAM,TX,78605,Burnet
Big Bend Regional Medical Center,109,2600 N STATE HIGHWAY 118,,ALPINE,TX,79830,Brewster
Big Spring Care Center,110,901 GOLIAD ST,,BIG SPRING,TX,79720,Howard
Big Spring Center For Skilled Care,111,3701 WASSON RD,,BIG SPRING,TX,79720,Howard
"Birchwood Nursing and Rehabilitation, LP",112,110 HIGHWAY 64 W,,COOPER,TX,75432,Delta
Birmingham Health Care Center,113,2205 E JOHNSON ST,,RUSK,TX,75785,Cherokee
Bishop Davies Nursing Center,114,2712 HURSTVIEW DR,,HURST,TX,76054,Tarrant
Bivins Pointe,115,6600 KILLGORE DR,,AMARILLO,TX,79106,Potter
Blanco Villa Nursing and Rehabilitation,116,8020 BLANCO RD,,SAN ANTONIO,TX,78216,Bexar
Blue Skies of Texas East,117,4917 RAVENSWOOD DR,,SAN ANTONIO,TX,78227,Bexar
Blue Skies of Texas West,118,5100 JOHN D RYAN BLVD,,SAN ANTONIO,TX,78245,Bexar
Bluebonnet Nursing And Rehabilitation,119,696 FM 99,,KARNES CITY,TX,78118,Karnes
Bluebonnet Nursing Home,120,724 US HIGHWAY SOUTH,# 283,ALBANY,TX,76430,Shackelford
"Bonham Nursing and Rehabilitation, LP",121,709 W 5TH ST,,BONHAM,TX,75418,Fannin
BONNE VIE,122,8595 MEDICAL CENTER BLVD,,PORT ARTHUR,TX,77640,
Bonner Street Plaza Healthcare and Rehabilitation,123,421 S BONNER ST,,JACKSONVILLE,TX,75766,Cherokee
Borger Healthcare Center,124,1316 S FLORIDA ST,,BORGER,TX,79007,Hutchinson
Bowie Nursing Center,125,601 CENTRAL AVE,,BOWIE,TX,76230,Montague
Brady West Rehabilitation and Nursing Center,126,2201 MENARD HWY,,BRADY,TX,76825,McCulloch
Brazos at Waco,127,2430 MARKET PLACE DR,,WACO,TX,76711,
Brazos Towers At Bayou Manor,128,4141 S BRAESWOOD BLVD,,HOUSTON,TX,77025,Harris
Brazos Valley Care Homebrazos Valley Nursing And Rehabilitation Center,129,605 S AVENUE F,,KNOX CITY,TX,79529,Knox
Brazosport Transitional Care Center,130,100 MEDICAL DR,,LAKE JACKSON,TX,77566,Brazoria
Brazosview Healthcare Center,131,2127 PRESTON ST,,RICHMOND,TX,77469,Fort Bend
Bremond Nursing and Rehabilitation Center,132,211 N MAIN ST,,BREMOND,TX,76629,Robertson
Brenham Nursing and Rehabilitation Center,133,400 E SAYLES ST,,BRENHAM,TX,77833,Washington
Brenham Rest Home,134,406 COTTONWOOD ST,,BRENHAM,TX,77833,Washington
Brentwood Four,135,3505 S BUCKNER BLVD,,DALLAS,TX,75227,Dallas
Brentwood Place I,136,35052 S BUCKNER BLVD,,DALLAS,TX,75227,Dallas
Brentwood Place II,137,8059 SCYENE CIR,,DALLAS,TX,75227,Dallas
Brentwood Place III,138,3505 S BUCKNER BLVD,,DALLAS,TX,75227,Dallas
Brentwood Terrace Healthcare And Rehabilitation Center,139,2885 STILLHOUSE RD,,PARIS,TX,75462,Lamar
Briarcliff Health Center,140,3403 S VINE AVE,,TYLER,TX,75701,Smith
"Briarcliff Health Center of Greenville, Inc",141,4400 WALNUT ST,,GREENVILLE,TX,75401,Hunt
Briarcliff Nursing and Rehabilitation Center,142,3201 N WARE RD,,MCALLEN,TX,78501,Hidalgo
Briarcliff Skilled Nursing Center,143,4054 NW LOOP,,CARTHAGE,TX,75633,Panola
Briarwood Manor Care Center,144,1515 W MAIN ST,,BELLVILLE,TX,77418,Austin
Briarwood Nursing And Rehabilitation,145,7633 BELLFORT ST,,HOUSTON,TX,77061,Harris
"Bridgecrest Rehabiliation Suites, LLC",146,14100 KARISSA CT,,HOUSTON,TX,77049,Harris
BRIDGECREST REHABILITATION SUITES,147,14100 KARISSA CT,,HOUSTON,TX,77049,
Bridgemoor Transitional Care of Round Rock,148,16219 RANCH ROAD 620 N,,AUSTIN,TX,78717,
Bridgemoor Transitional Care San Antonio,149,6035 ECKHERT RD,,SAN ANTONIO,TX,78229,
BRIDGEMOOR TRANSITIONAL CARE WEBSTER,150,16130 GALVESTON RD,,WEBSTER,TX,77598,
Brightpointe At Lytle Lake,151,1201 CLARKS DR,,ABILENE,TX,79602,Taylor
BrightPointe at Rivershire,152,604 CONROE MEDICAL DR,,CONROE,TX,77304,Montgomery
BrightPointe at Rivershire,153,604 CONROE MEDICAL DR,,CONROE,TX,77304,
BROADMOOR AT CREEKSIDE,154,5665 CREEKSIDE FOREST DR,,THE WOODLANDS,TX,77389,
Broadmoor Medical Lodge,155,5242 MEDICAL DR,,ROCKWALL,TX,75032,Rockwall
Brodie Ranch Nursing And Rehabilitation Center,156,2101 FRATE BARKER RD,,AUSTIN,TX,78748,Travis
Bronte Health and Rehabilitation Center,157,900 S STATE ST,,BRONTE,TX,76933,Coke
Brookdale Alamo Heights,158,855 E BASSE RD,,SAN ANTONIO,TX,78209,Bexar
BROOKDALE BROADWAY CITYVIEW,159,5301 BRYANT IRVIN RD,,FORT WORTH,TX,76132,Tarrant
Brookdale Galleria,160,2929 POST OAK BLVD,,HOUSTON,TX,77056,Harris
Brookdale Guadalupe River Plaza,161,808 GUADALUPE ST,,KERRVILLE,TX,78028,Kerr
Brookdale Guadalupe River Plaza,162,135 PLAZA DR,,KERRVILLE,TX,78028,
Brookdale Lakeway Healthcare Center,163,1917 LOHMANS CROSSING RD,,LAKEWAY,TX,78734,Travis
Brookdale Spicewood Springs,164,4401 SPICEWOOD SPRINGS RD,,AUSTIN,TX,78759,Travis
Brookdale Trinity Towers,165,101 N UPPER BROADWAY ST,,CORPUS CHRISTI,TX,78401,Nueces
Brookdale Westlake Hills,166,1034 LIBERTY PARK DR,,AUSTIN,TX,78746,Travis
Brookdale Willowbrook Place,167,7450 WILLOWCHASE BLVD,,HOUSTON,TX,77070,
Brookdale Willowbrook Place Skilled Nursing,168,13500 BRETON RIDGE ST,,HOUSTON,TX,77070,Harris
Brookhaven Nursing and Rehabilitation Center,169,1855 CHEYENNE DR,,CARROLLTON,TX,75010,Denton
Brookhollow Heights Transitional Care Center,170,1737 NORTH LOOP W,,HOUSTON,TX,77008,Harris
Brookwoods Care Center,171,814 WEILER BLVD,,FORT WORTH,TX,76112,Tarrant
Brownfield Regional Medical Center,172,705 E FELT ST,,BROWNFIELD,TX,79316,Terry
Brownfield Rehabilitation and Care Center,173,510 S 1ST ST,,BROWNFIELD,TX,79316,Terry
Brownsville Nursing and Rehabilitation Center,174,320 LORENALY DR,,BROWNSVILLE,TX,78526,Cameron
"Brownwood Nursing and Rehabilitation, LP",175,101 MILLER DR,,BROWNWOOD,TX,76801,Brown
Brownwood Regional Medical Center,176,1501 BURNET RD,,BROWNWOOD,TX,76801,Brown
Brownwood Regional Medical Center Skilled Nursing Unit,177,1501 BURNET RD,,BROWNWOOD,TX,76801,Brown
Brush Country Nursing And Rehabilitation,178,6500 BRUSH COUNTRY RD,,AUSTIN,TX,78749,Travis
Bryton Inn Health Center,179,1105 ROCK PRAIRIE RD,,COLLEGE STATION,TX,77845,Brazos
BSA Hospital,180,1600 WALLACE BLVD,,AMARILLO,TX,79106,Potter
BT Health Care,181,4510 27TH ST,,LUBBOCK,TX,79410,Lubbock
Buckner Ryburn Nursing Center,182,4810 SAMUELL BLVD,,DALLAS,TX,75228,Dallas
Buckner Villas,183,11110 TOM ADAMS DR,,AUSTIN,TX,78753,Travis
Buckner Westminister Place,184,2201 HORSESHOE LN,,LONGVIEW,TX,75605,Gregg
Buena Vida Nursing And Rehabilitation Center,185,5027 PECAN GROVE BLVD,,SAN ANTONIO,TX,78222,Bexar
Buena Vida Nursing and Rehabilitation Center at Odessa,186,3800 ENGLEWOOD LN,,ODESSA,TX,79762,Ector
Buna Nursing Home,187,34692 US HIGHWAY 96 S,,BUNA,TX,77612,Jasper
Burleson Saint Joseph Manor,188,1022 STATE HIGHWAY 21 E,,CALDWELL,TX,77836,Burleson
Burmont Nursing Center,189,612 INDUSTRIAL BLVD,,TEMPLE,TX,76501,Bell
Calder Woods,190,7080 CALDER AVE,,BEAUMONT,TX,77706,Jefferson
Calvert Nursing Home,191,701 E BROWNING ST,,CALVERT,TX,77837,Robertson
Cambridge Health and Rehabilitation Center,192,1106 GOLFVIEW DR,,RICHMOND,TX,77469,Fort Bend
Cameron Nursing and Rehabilitation Center,193,2202 N TRAVIS AVE,,CAMERON,TX,76520,Milam
Canton Healthcare Center,194,1661 S BUFFALO ST,,CANTON,TX,75103,Van Zandt
Canton Oaks,195,1901 S TRADE DAYS BLVD,,CANTON,TX,75103,Van Zandt
Canyon Healthcare Center,196,15 HOSPITAL DR,,CANYON,TX,79015,Randall
Capitol City Health and Rehabilitation,197,9052 GALEWOOD DR,,AUSTIN,TX,78758,Travis
CAPROCK NURSING & REHABILITATION,198,900 COLLEGE AVE,,BORGER,TX,79007,
Caprock Nursing and Rehabilitation Center,199,900 COLLEGE AVE,,BORGER,TX,79007,Hutchinson
Capstone Healthcare Estates At Veterans Memorial,200,1424 FALLBROOK DR,,HOUSTON,TX,77038,Harris
Capstone Healthcare Estates on Orem,201,3730 W OREM DR,,HOUSTON,TX,77045,Harris
CARADAY WESTERN HILLS,202,512 DRAPER DR,,TEMPLE,TX,76504,Bell
"Cardinal Health Services, Inc",203,9100 SOUTHWEST FWY,STE 102,HOUSTON,TX,77074,Harris
Care Choice Of Boerne,204,200 RYAN ST,,BOERNE,TX,78006,Kendall
Care Inn of Edna,205,1204 N WELLS ST,,EDNA,TX,77957,Jackson
Care Inn of La Grange,206,457 N MAIN ST,,LA GRANGE,TX,78945,Fayette
Care Inn of Sanger,207,600 N STEMMONS ST,,SANGER,TX,76266,Denton
Care Inn of Shamrock,208,HIGHWAY 83 S,,SHAMROCK,TX,79079,Wheeler
Care Nursing and Rehabilitation Center,209,200 COUNTY ROAD 616,,EARLY,TX,76802,Brown
Care Regional Medical Center,210,1711 W WHEELER AVE,,ARANSAS PASS,TX,78336,San Patricio
Carillon House,211,1717 NORFOLK AVE,,LUBBOCK,TX,79416,Lubbock
Carousel Care Center,212,114 CHERRY AVE,,LUBBOCK,TX,79403,Lubbock
Carrara,213,4501 TRADITION TRL,,PLANO,TX,75093,Collin
Carriage House Manor,214,210 PIPELINE RD,,SULPHUR SPRINGS,TX,75482,Hopkins
"Carrizo Springs Nursing and Rehabilitation, LP",215,506 S 7TH ST,,CARRIZO SPRINGS,TX,78834,Dimmit
Carrollton Health And Rehabilitation Center,216,1618 KIRBY RD,,CARROLLTON,TX,75006,Dallas
Carrus Specialty Hospital,217,1810 W US HIGHWAY 82,,SHERMAN,TX,75092,Grayson
Carthage Healthcare Center,218,701 S MARKET ST,,CARTHAGE,TX,75633,Panola
Cartwheel Lodge of Gonzales,219,1800 CARTWHEEL DR,,GONZALES,TX,78629,Gonzales
Castle Pines Health and Rehabilitation Center,220,2414 W FRANK AVE,,LUFKIN,TX,75904,Angelina
CASTLEVIEW NURSING AND REHAB OF STEPHENVILLE,221,2309 W WASHINGTON ST,,STEPHENVILLE,TX,76401,
Castleview Nursing and Rehabilitation of Stephenville,222,2309 W WASHINGTON ST,,STEPHENVILLE,TX,76401,Erath
Castro County Nursing And Rehabilitation,223,1621 BUTLER DR,,DIMMITT,TX,79027,Castro
Castro County Nursing and Rehabilitation,224,1621 BUTLER DR,,DIMMITT,TX,79027,Castro
CC Young Retirement Community,225,4829 W LAWTHER DR,,DALLAS,TX,75214,Dallas
Cedar Creek Nursing and Rehabilitation Center,226,159 MONTAGUE AVE,,BANDERA,TX,78003,Bandera
Cedar Crest Care Center,227,1901 W ELLIOTT ST,,BRECKENRIDGE,TX,76424,Stephens
Cedar Falls Care Center,228,1908 6TH ST,,WICHITA FALLS,TX,76301,Wichita
Cedar Hill Healthcare Center,229,230 S CLARK RD,,CEDAR HILL,TX,75104,Dallas
Cedar Hills Geriatric Center,230,710 HIGHWAY 55,,CAMP WOOD,TX,78833,Real
Cedar Lake Nursing Home,231,1611 W ROYALL BLVD,,MALAKOFF,TX,75148,Henderson
Cedar Manor Nursing and Rehabilitation,232,1915 GREENWOOD ST,,SAN ANGELO,TX,76901,Tom Green
Cedar Pointe Health and Wellness Suites,233,1301 COTTONWOOD CREEK TRL,,CEDAR PARK,TX,78613,
Centerville Healthcare Center,234,103 TEAKWOOD,,CENTERVILLE,TX,75833,Leon
Central Hospital Of Bowie,235,705 E GREENWOOD AVE,,BOWIE,TX,76230,Montague
Central Texas Medical Center,236,1301 WONDER WORLD DR,,SAN MARCOS,TX,78666,Hays
Central Texas Nursing and Rehabilitation,237,1800 N BROADWAY ST,,BALLINGER,TX,76821,Runnels
Centre For Neuro Skills,238,3915 PORTLAND ST,,IRVING,TX,75038,
Chandler Nursing Center,239,300 CHERRY ST,,CHANDLER,TX,75758,Henderson
Chavaneaux Health and Rehabilitation Center,240,1339 W CHAVANEAUX RD,,SAN ANTONIO,TX,78224,Bexar
Chelsea Gardens,241,4422 RIVERSTONE BLVD,,MISSOURI CITY,TX,77459,Fort Bend
Cherokee Rose Nursing and Rehabilitation,242,203 E GIBBS BLVD,,GLEN ROSE,TX,76043,Somervell
Cherokee Trails Rehab and Healthcare,243,330 BAGLEY RD,,RUSK,TX,75785,Cherokee
Cheyenne Medical Lodge,244,750 HIGHWAY 352,,MESQUITE,TX,75149,
Chi Saint Joseph Health Burleson Hospital,245,1101 WOODSON DR,,CALDWELL,TX,77836,Burleson
Chi Saint Joseph Health Grimes Hospital,246,210 S JUDSON ST,,NAVASOTA,TX,77868,Grimes
CHI Saint Joseph Skilled and Rehabilitation Center,247,2333 MANOR DR,,BRYAN,TX,77802,Brazos
CHI Saint Lukes Health Memorial San Augustine,248,511 E HOSPITAL ST,,SAN AUGUSTINE,TX,75972,San Augustine
Childress Healthcare Center,249,1200 7TH ST NW,,CHILDRESS,TX,79201,Childress
Childress Regional Medical Center,250,901 US HIGHWAY 83 N,,CHILDRESS,TX,79201,Childress
Chillicothe Hospital,251,303 AVENUE I,,CHILLICOTHE,TX,79225,Hardeman
Chisolm Trail Nursing And Rehabilitation Center,252,107 N MEDINA ST,,LOCKHART,TX,78644,Caldwell
Christian Care Center,253,1008 CITIZENS TRL,,TEXARKANA,TX,75501,Bowie
Christian Care Nursing And Rehabilitation,254,1000 WIGGINS PKWY,,MESQUITE,TX,75150,Dallas
CHRISTUS Jasper Memorial Hospital,255,1275 MARVIN HANCOCK DR,,JASPER,TX,75951,Jasper
Christus Mother Frances Hospital - Winnsboro,256,719 W COKE RD,,WINNSBORO,TX,75494,Wood
Christus Mother Frances Hospital Jacksonville,257,2026 S JACKSON ST,,JACKSONVILLE,TX,75766,Cherokee
Christus Mother Frances Hospital Sulphur Springs,258,115 AIRPORT RD,,SULPHUR SPRINGS,TX,75482,Hopkins
CHRISTUS Saint Elizabeth Hospital Skilled Nursing,259,2830 CALDER ST,,BEAUMONT,TX,77702,Jefferson
CHRISTUS Saint Mary Hospital Extended Care Unit,260,3600 GATES BLVD,FL 4,PORT ARTHUR,TX,77642,Jefferson
Christus Saint Michael Hospital Atlanta,261,1007 S WILLIAM ST,,ATLANTA,TX,75551,Cass
CHRISTUS Spohn Hospital Corpus Christi Memorial,262,2606 HOSPITAL BLVD,,CORPUS CHRISTI,TX,78405,Nueces
CHRISTUS Spohn Hospital Corpus Christi Shoreline,263,600 ELIZABETH ST,,CORPUS CHRISTI,TX,78404,Nueces
CHRISTUS Spohn Hospital Corpus Christi South,264,5950 SARATOGA BLVD,,CORPUS CHRISTI,TX,78414,Nueces
CHRISTUS Spohn Hospital Kleberg Skilled Nursing Unit,265,1311 GENERAL CAVAZOS BLVD,,KINGSVILLE,TX,78363,Kleberg
CHRISTUS Spohn Hospital Skill Nursing Unit,266,2500 E MAIN ST,,ALICE,TX,78332,Jim Wells
Cibolo Creek,267,1440 RIVER RD,,BOERNE,TX,78006,Kendall
CIMARRON PARK NURSING AND REHABILITATION CENTER,268,7441 PASEO DEL NORTE,,EL PASO,TX,79911,
Cimarron Place Health and Rehabilitation Center,269,3801 CIMARRON BLVD,,CORPUS CHRISTI,TX,78414,Nueces
Cisco Nursing And Rehabilitation,270,1404 FRONT ST,,CISCO,TX,76437,Eastland
Citizens Medical Center Skilled Nursing Unit,271,2701 HOSPITAL DR,,VICTORIA,TX,77901,Victoria
Cityview Nursing And Rehabilitation Center,272,5801 BRYANT IRVIN RD,,FORT WORTH,TX,76132,Tarrant
Clairmont of Beaumont,273,1020 S 23RD ST,,BEAUMONT,TX,77707,Jefferson
Clarewood House,274,7400 CLAREWOOD DR,,HOUSTON,TX,77036,Harris
Clarksville Nursing Center,275,300 E BAKER ST,,CLARKSVILLE,TX,75426,Red River
Clay County Memorial Hospital,276,310 W SOUTH ST,,HENRIETTA,TX,76365,Clay
Claystone Health Care Center,277,1107 S CLAY ST,,ENNIS,TX,75119,Ellis
Clear Brook Crossing Rehabilitation and Healthcare Center,278,10800 FLORA MAE MEADOWS RD,,HOUSTON,TX,77089,Harris
Cleburne Rehabilitation and Health Care Center,279,1108 W KILPATRICK ST,,CLEBURNE,TX,76033,Johnson
Cleveland Health Care Center,280,903 E HOUSTON ST,,CLEVELAND,TX,77327,Liberty
"Clifton Nursing and Rehabilitation Center, LP",281,1000 FM 3220,,CLIFTON,TX,76634,Bosque
Clyde Nursing Center,282,806 STEPHENS ST,,CLYDE,TX,79510,Callahan
Clyde W Cosper Texas State Veterans Home,283,1300 SEVEN OAKS RD,,BONHAM,TX,75418,Fannin
Coastal Palms Nursing And Rehabilitation,284,221 CEDAR DR,,PORTLAND,TX,78374,San Patricio
Cogdell Memorial Hospital,285,1700 COGDELL BLVD,,SNYDER,TX,79549,Scurry
Coldwater Manor,286,1111 BEAVER RD,,STRATFORD,TX,79084,Sherman
Coleman Care Center Holiday Hill Inc,287,WINTERS HIGHWAY 153 WEST,,COLEMAN,TX,76834,Coleman
Coleman County Medical Center,288,310 S PECOS ST,,COLEMAN,TX,76834,Coleman
Coleman Healthcare Center,289,2713 S COMMERCIAL AVE,,COLEMAN,TX,76834,Coleman
College Park Rehabilitation and Care Center,290,1715 MARTIN DR,,WEATHERFORD,TX,76086,Parker
College Street Nursing Center,291,4150 COLLEGE ST,,BEAUMONT,TX,77707,Jefferson
Collingsworth General Hospital,292,1013 15TH ST,,WELLINGTON,TX,79095,Collingsworth
Collinwood Nursing And Rehabilitation,293,3100 S RIGSBEE DR,,PLANO,TX,75074,Collin
Colonial Belle Nursing Home,294,106 N BARON ST,,BELLVILLE,TX,77418,Austin
Colonial Belle Nursing Home Sealy,295,1401 EAGLE LAKE RD,,SEALY,TX,77474,Austin
Colonial Care Center,296,507 WEST AVE,,SCHULENBURG,TX,78956,Fayette
Colonial Convalescent and Nursing Home,297,406 S PARKER AVE,,NIXON,TX,78140,Gonzales
Colonial Manor Advanced Rehab and Healthcare,298,1100 W MINNESOTA RD,,PHARR,TX,78577,Hidalgo
Colonial Manor Nursing And Rehabilitation Center,299,821 US HWY 81,,NEW BRAUNFELS,TX,78130,Comal
Colonial Manor Nursing Center,300,2035 GRANBURY ST,,CLEBURNE,TX,76033,Johnson
Colonial Nursing and Rehabilitation Center,301,508 PIERCE ST,,LINDALE,TX,75771,Smith
Colonial Nursing Home,302,507 WEST AVE,,SCHULENBURG,TX,78956,Fayette
Colonial Nursing Home,303,1002 E 10TH ST,,CAMERON,TX,76520,Milam
Colonial Oaks Nursing Home,304,1431 E 14TH,,CROSS PLAINS,TX,76443,Callahan
Colonial Park Nursing Home,305,509 S GROVE ST,,MARSHALL,TX,75670,Harrison
Colonial Pines Healthcare Center,306,1203 FARM RD 1277,,SAN AUGUSTINE,TX,75972,San Augustine
Colorado Fayette Medical Center Long Term Care Unit,307,400 YOUENS DR,,WEIMAR,TX,78962,Colorado
Columbia Plaza Medical Center of Fort Worth Long Term Care,308,900 8TH AVE,,FORT WORTH,TX,76104,Tarrant
Columbus Community Hospital,309,110 SHULT DR,,COLUMBUS,TX,78934,Colorado
"Columbus Nursing and Rehabilitation, LP",310,103 SWEETBRIAR DR,,COLUMBUS,TX,78934,Colorado
Columbus Oaks Healthcare Community,311,300 NORTH ST,,COLUMBUS,TX,78934,Colorado
Comanche County Medical Center,312,10201 HIGHWAY 16,,COMANCHE,TX,76442,Comanche
Community Care Center,313,1150 E LOOP 304,,CROCKETT,TX,75835,Houston
Community Care Center of Clarendon,314,10 MEDICAL CENTER DR,,CLARENDON,TX,79226,Donley
Community Care Center Of Hondo,315,2001 AVENUE E,,HONDO,TX,78861,Medina
Community Specialty Hospital,316,1111 GALLAGHER DR,,SHERMAN,TX,75090,Grayson
Concho County Hospital,317,614 EAKER ST,,EDEN,TX,76837,Concho
Concho Health and Rehabilitation Center,318,613 EAKER ST,,EDEN,TX,76837,Concho
Connally Memorial Medical Center,319,499 10TH ST,,FLORESVILLE,TX,78114,Wilson
Conroe Healthcare Center,320,2019 N FRAZIER ST,,CONROE,TX,77301,Montgomery
Continuing Care At Highland Springs,321,7910 FRANKFORD RD,,DALLAS,TX,75252,Dallas
CONTINUUM REHABILITATION HOSPITAL OF NORTH TEXAS,322,3100 PETERS COLONY ROAD,,FLOWER MOUND,TX,75022,
Continuum Rehabilitation Hospital Skilled Nursing Facility,323,3100 PETERS COLONY RD,,FLOWER MOUND,TX,75022,Denton
Coon Memorial Hospital,324,1411 DENVER AVE,,DALHART,TX,79022,Dallam
Coon Memorial Nursing Home,325,210 E TEXAS BLVD,,DALHART,TX,79022,Dallam
Copper Creek Plaza,326,302 PEARLSTONE ST,,BUFFALO,TX,75831,Leon
COPPER CREEK PLAZA,327,302 PEARLSTONE ST,,BUFFALO,TX,75831,
Copperas Cove Nursing and Rehabilitation,328,607 W AVENUE B,,COPPERAS COVE,TX,76522,Coryell
Copperas Hollow Nursing and Rehabilitation Center,329,345 COUNTRY CLUB DR,,CALDWELL,TX,77836,Burleson
Copperfield Healthcare and Rehabilitation,330,7107 QUEENSTON BLVD,,HOUSTON,TX,77095,Harris
Corinth Rehabilitation Suites on the Parkway,331,3511 CORINTH PKWY,,DENTON,TX,76208,Denton
Cornerstone Gardens Healthcare and Rehabilitation,332,763 MARLANDWOOD RD,,TEMPLE,TX,76502,Bell
Cornerstone Retirement Community,333,4100 MOORES LN,,TEXARKANA,TX,75503,Bowie
Coronado at Stone Oak,334,19638 STONE OAK PKWY,,SAN ANTONIO,TX,78258,Bexar
Coronado Healthcare Center,335,1504 W KENTUCKY AVE,,PAMPA,TX,79065,Gray
Coronado Nursing And Rehab,336,1751 N 15TH ST,,ABILENE,TX,79603,Taylor
Corpus Christi Medical Center Bay Area,337,7101 S PADRE ISLAND DR,,CORPUS CHRISTI,TX,78412,Nueces
Corpus Christi Medical Center Doctors Regional Hospital,338,3315 S ALAMEDA ST,,CORPUS CHRISTI,TX,78411,Nueces
Corpus Christi Medical Center Doctors Regional Hospital Long Term Care Unit,339,3315 S ALAMEDA ST,,CORPUS CHRISTI,TX,78411,Nueces
Corpus Christi Medical Center Heart Hospital,340,7002 WILLIAMS DR,,CORPUS CHRISTI,TX,78412,Nueces
Corpus Christi Nursing and Rehabilitation Center,341,2735 AIRLINE RD,,CORPUS CHRISTI,TX,78414,Nueces
Corrigan LTC Nursing and Rehabilitation Center,342,300 HYDE ST,,CORRIGAN,TX,75939,Polk
Coryell Memorial Healthcare System,343,1507 W MAIN ST,,GATESVILLE,TX,76528,Coryell
Cottonwood Creek Healthcare Community,344,1111 W SHORE DR,,RICHARDSON,TX,75080,Dallas
COTTONWOOD CREEK NURSING AND REHABILITATION CENTER,345,1500 COTTONWOOD CREEK TRAIL,,CEDAR PARK,TX,78613,
"Cottonwood Nursing and Rehabilitation, LP",346,2224 N CARROLL BLVD,,DENTON,TX,76201,Denton
Country Care Manor,347,2736 FARM RD 775,,LA VERNIA,TX,78121,Wilson
"Country Club Nursing and Rehabilitation, LP",348,9 MEDICAL DR,,AMARILLO,TX,79106,Potter
Country Inn Healthcare Center,349,1085 E MAIN ST,,VAN,TX,75790,Van Zandt
Country Meadows Nursing and Rehabilitation Center,350,3301 W PARK ROW BLVD,,CORSICANA,TX,75110,Navarro
Country Trails Care Center,351,1638 VZ COUNTY ROAD 1803,,GRAND SALINE,TX,75140,Van Zandt
COUNTRY VIEW LIVING,352,701 BUTLER BLVD,,DIMMITT,TX,79027,
Country View Nursing And Rehabilitation,353,1900 N FRANCES ST,,TERRELL,TX,75160,Kaufman
Country Village Care,354,721 W MULBERRY ST,,ANGLETON,TX,77515,Brazoria
"Countryside Nursing and Rehabilitation, LP",355,1700 N WASHINGTON ST,,PILOT POINT,TX,76258,Denton
Courtyard Gardens,356,1501 7TH ST,,WICHITA FALLS,TX,76301,Wichita
Courtyard Nursing And Rehabilitation Center,357,7499 STANWICK DR,,HOUSTON,TX,77087,Harris
Covenant Health System,358,3615 19TH ST,,LUBBOCK,TX,79410,Lubbock
COVENANT HOSPITAL LEVELLAND,359,1900 COLLEGE AVE,,LEVELLAND,TX,79336,
Covenant Hospital Levelland,360,1900 COLLEGE AVE,,LEVELLAND,TX,79336,Hockley
Covenant Hospital Plainview,361,2601 DIMMITT RD,,PLAINVIEW,TX,79072,Hale
Covenant Medical Center Skilled Nursing Unit,362,3615 19TH ST,,LUBBOCK,TX,79410,Lubbock
Crane Memorial Hospital,363,1310 S ALFORD ST,,CRANE,TX,79731,Crane
Crane Nursing and Rehabilitation Center,364,699 W CAMPUS DR,,CRANE,TX,79731,Crane
Creekside Terrace Rehabilitation,365,1555 POWELL AVE,,BELTON,TX,76513,Bell
Creekside Village Healthcare,366,914 BRAZOSPORT BLVD N,,RICHWOOD,TX,77531,Brazoria
Crestview Court,367,224 W PLEASANT RUN RD,,CEDAR HILL,TX,75104,Dallas
"Crestview Healthcare Residence, Ltd",368,1400 LAKE SHORE DR,,WACO,TX,76708,McLennan
Crestview Manor Nursing and Rehabilitation Center,369,1103 MARY JANE ST,,BELTON,TX,76513,Bell
Crestview Retirement Community,370,2505 E VILLA MARIA RD,,BRYAN,TX,77802,Brazos
Crestwood Health and Rehab,371,1448 HOUSTON ST,,WILLS POINT,TX,75169,Van Zandt
CRIMSON HEIGHTS HEALTH and WELLNESS,372,19279 MCKAY DR,,HUMBLE,TX,77338,
Crockett County Care Center,373,103 N AVENUE H,,OZONA,TX,76943,Crockett
Crockett Medical Center,374,1100 E LOOP 304,,CROCKETT,TX,75835,Houston
Crosbyton Clinic Hospital,375,710 W MAIN ST,,CROSBYTON,TX,79322,Crosby
Crosbyton Nursing and Rehabilitation Center,376,222 N FARMER ST,,CROSBYTON,TX,79322,Crosby
Cross Country Healthcare Center,377,1514 INDIAN CREEK DR,,BROWNWOOD,TX,76801,Brown
Cross Timbers Rehabilitation and Healthcare Center,378,3315 CROSS TIMBERS RD,,FLOWER MOUND,TX,75028,Denton
Crossroad Evangelism,379,5000 E LANCASTER AVE,,FORT WORTH,TX,76103,Tarrant
Crossroads Nursing And Rehabilitation,380,611 ROSE MARIE BLVD,,HEARNE,TX,77859,Robertson
Crowell Nursing Center,381,200 S B AVE,,CROWELL,TX,79227,Foard
Crown Point Health Suites,382,6640 IOLA AVE,,LUBBOCK,TX,79424,Lubbock
Crystal Creek Preston Hollow,383,11409 N CENTRAL EXPY,,DALLAS,TX,75243,Dallas
Cuero Partners,384,1310 E BROADWAY ST,,CUERO,TX,77954,DeWitt
Culberson Hospital,385,2185 EISENHOWER RD,,VAN HORN,TX,79855,Culberson
Cypress Creek Rehabilitation and Healthcare Center,386,13600 BIRDCALL LN,,CYPRESS,TX,77429,
Cypress Glen,387,7200 9TH AVE,,PORT ARTHUR,TX,77642,Jefferson
CYPRESS POINTE HEALTH AND WELLNESS,388,8561 EASTON COMMONS DR,,HOUSTON,TX,77095,
Cypress Woods Care Center,389,135 1 2 E HOSPITAL DR,,ANGLETON,TX,77515,Brazoria
Cypresswood Health and Rehabilitation Center,390,10851 CRESCENT MOON DR,,HOUSTON,TX,77064,Harris
Dallas VA Medical Center,391,4500 S LANCASTER RD,,DALLAS,TX,75216,Dallas
Day Break Venture,392,2660 BRICKYARD RD,,BEAUMONT,TX,77703,Jefferson
De Leon Nursing Home,393,205 E AYERS AVE,,DE LEON,TX,76444,Comanche
Deer Creek of Wimberley Nursing Center,394,555 FM 3237,,WIMBERLEY,TX,78676,Hays
Deerbrook Skilled Nursing And Rehabilitation,395,9250 FM 1960 RD W,,HUMBLE,TX,77338,Harris
"Deerings Nursing and Rehabilitation, LP",396,1020 W COUNTY RD N,,ODESSA,TX,79763,Ector
Del Rio Nursing and Rehabilitation Center,397,301 W MARTIN ST,,DEL RIO,TX,78840,Val Verde
"DeLeon Nursing and Rehabilitation, LP",398,809 E NAVARRO AVE,,DE LEON,TX,76444,Comanche
"Denison Nursing and Rehabilitation, LP",399,601 E US HIGHWAY 69,,DENISON,TX,75021,Grayson
Denton Rehabilitation and Nursing Center,400,2229 N CARROLL BLVD,,DENTON,TX,76201,Denton
Denver Manor Nursing Home,401,608 DENVER ST,,WICHITA FALLS,TX,76301,Wichita
Deport Nursing Home,402,126 US HIGHWAY 271 S,,DEPORT,TX,75435,Lamar
Desoto Nursing And Rehabilitation,403,1101 N HAMPTON RD,,DESOTO,TX,75115,Dallas
DeTar Hospital Navarro,404,506 E SAN ANTONIO ST,,VICTORIA,TX,77901,Victoria
DeTar Hospital Navarro Skilled Nursing Unit,405,506 E SAN ANTONIO ST,,VICTORIA,TX,77901,Victoria
Devine Health and Rehabilitation,406,104 ENTERPRISE AVE,,DEVINE,TX,78016,Medina
Dfw Nursing And Rehabilitation,407,900 W LEUDA ST,,FORT WORTH,TX,76104,Tarrant
Dimmit Regional Hospital,408,704 HOSPITAL DR,,CARRIZO SPRINGS,TX,78834,Dimmit
Diversicare of Lake Highlands,409,9009 WHITE ROCK TRL,,DALLAS,TX,75238,Dallas
Diversicare of Luling,410,208 MAPLE ST,,LULING,TX,78648,Caldwell
Doctors Hospital of Laredo,411,10700 MCPHERSON RD,,LAREDO,TX,78045,Webb
Doctors Hospital of Laredo Skilled Nursing Unit,412,10700 MCPHERSON RD,,LAREDO,TX,78045,Webb
Doctors Hospital Skilled Nursing Facility Unit,413,5500 39TH ST,,GROVES,TX,77619,Jefferson
Doctors Hospital Transitional Care Unit,414,9440 POPPY DR,,DALLAS,TX,75218,Dallas
Dogwood Trails Manor,415,647 US HIGHWAY 190 W,,WOODVILLE,TX,75979,Tyler
Dovehill Healthcare Center and Villas,416,1315 E STATE HIGHWAY 22,,HAMILTON,TX,76531,Hamilton
Downtown Health and Rehabilitation Center,417,424 S ADAMS ST,,FORT WORTH,TX,76104,Tarrant
Duncanville Healthcare and Rehabilitation Center,418,419 S COCKRELL HILL RD,,DUNCANVILLE,TX,75116,Dallas
Eagle Lake Nursing And Rehabilitation,419,535 S AUSTIN RD,,EAGLE LAKE,TX,77434,Colorado
"EAGLE LAKE NURSING AND REHABILITATION, LP",420,535 S AUSTIN ROAD,,EAGLE LAKE,TX,77434,
Eagle Pass Nursing and Rehabilitation,421,2550 ZACATECAS DR,,EAGLE PASS,TX,78852,Maverick
Eagles Trace,422,14703 EAGLE VISTA DR,,HOUSTON,TX,77077,Harris
Eastland Memorial Hospital,423,304 S DAUGHERTY AVE,,EASTLAND,TX,76448,Eastland
Eastland Nursing and Rehabilitation,424,700 S OSTROM AVE,,EASTLAND,TX,76448,Eastland
Eastview Nursing Center,425,2902 STATE HIGHWAY 31 E,,TYLER,TX,75702,Smith
Ebony Lake Nursing and Rehabilitation Center,426,1001 CENTRAL BLVD,,BROWNSVILLE,TX,78520,Cameron
"Eden Home, Inc",427,631 LAKEVIEW BLVD,,NEW BRAUNFELS,TX,78130,Comal
Eden Specialty Care,428,1301 EDEN DR,,LONGVIEW,TX,75605,Gregg
Edgewater Care Center,429,1213 WATER ST,,KERRVILLE,TX,78028,Kerr
Edgewood Manor Nursing Home,430,4925 ELIZABETH ST,,TEXARKANA,TX,75503,Bowie
Edgewood Rehabilitation and Care Center,431,1101 WINDBELL ST,,MESQUITE,TX,75149,Dallas
Edinburg Nursing and Rehabilitation Center,432,5215 S SUGAR RD,,EDINBURG,TX,78539,Hidalgo
Edinburg Regional Medical Center,433,1102 W TRENTON RD,,EDINBURG,TX,78539,Hidalgo
"Edward Abraham Memorial Home, Inc",434,803 BIRCH ST,,CANADIAN,TX,79014,Hemphill
El Campo Memorial Hospital,435,303 SANDY CORNER RD,,EL CAMPO,TX,77437,Wharton
El Paso Health and Rehabilitation Center,436,11525 VISTA DEL SOL DR,,EL PASO,TX,79936,El Paso
Electra Healthcare Center,437,511 S BAILEY ST,,ELECTRA,TX,76360,Wichita
Electra Memorial Hospital,438,1207 S BAILEY ST,,ELECTRA,TX,76360,Wichita
Elgin Nursing and Rehabilitation Center,439,1373 N AVENUE C,,ELGIN,TX,78621,Bastrop
Elizabeth Jane Bivins Home,440,3115 TEE ANCHOR BLVD,,AMARILLO,TX,79104,Potter
Elkhart Oaks Care Center,441,214 JONES RD,,ELKHART,TX,75839,Anderson
Elmwood Nursing Center,442,221 VIRGINIA AVE,,MARLIN,TX,76661,Falls
Emerald Hills Rehabilitation and Healthcare Center,443,5600 DAVIS BLVD,,NORTH RICHLAND HILLS,TX,76180,Tarrant
Encompass Health Rehabilitation Hospital Of Dallas,444,7930 NORTHAVEN RD,,DALLAS,TX,75230,Dallas
Ennis Care Center,445,1200 S HALL ST,,ENNIS,TX,75119,Ellis
Ennis Regional Medical Center Skilled Nursing Unit,446,803 W LAMPASAS ST,,ENNIS,TX,75119,Ellis
Epic Nursing And Rehabilitation,447,3210 W STATE HIGHWAY 22,,CORSICANA,TX,75110,Navarro
Estates Healthcare and Rehabilitation Center,448,201 SYCAMORE SCHOOL RD,,FORT WORTH,TX,76134,Tarrant
ESTRELLA OAKS REHABILITATION & CARE CENTER,449,4011 WILLIAMS DR,,GEORGETOWN,TX,78628,
Estrella Oaks Rehabilitation And Care Center,450,4011 WILLIAMS DR,,GEORGETOWN,TX,78628,Williamson
Evergreen Healthcare Center,451,406 E 7TH ST,,BURKBURNETT,TX,76354,Wichita
Fair Park Healthcare and Rehabilitation Center,452,701 FAIR PARK DR,,HENDERSON,TX,75654,Rusk
Fairfield Nursing and Rehabilitation Center,453,420 MOODY ST,,FAIRFIELD,TX,75840,Freestone
"Fairview Healthcare Residence, Ltd",454,601 E REUNION ST,,FAIRFIELD,TX,75840,Freestone
"Fairview Nursing and Rehabilitation, LP",455,1601 KENNEDY ST,,BONHAM,TX,75418,Fannin
Faith Community Hospital,456,215 CHISHOLM TRL,,JACKSBORO,TX,76458,Jack
Faith Community Nursing And Rehabilitation,457,211 E JASPER ST,,JACKSBORO,TX,76458,Jack
Faith Memorial Nursing Home,458,811 GARNER RD,,PASADENA,TX,77502,Harris
Falcon Lake Nursing Home,459,200 CARLA ST,,ZAPATA,TX,78076,Zapata
Falcon Ridge Rehabilitation,460,149 KLATTENHOFF LN,,HUTTO,TX,78634,Williamson
Falfurrias Nursing And Rehabilitation,461,1301 S TERRELL ST,,FALFURRIAS,TX,78355,Brooks
Fall Brook Nursing and Rehabilitation,462,1424 FALLBROOK DR,,HOUSTON,TX,77038,Harris
Fall Creek Rehabilitation and Healthcare Center,463,14949 MESA DR,,HUMBLE,TX,77396,
Fall Creek Rehabilitation And Healthcare Center,464,14949 MESA DR,,HUMBLE,TX,77396,Harris
Falls Community Hospital and Clinic,465,322 COLEMAN ST,,MARLIN,TX,76661,Falls
Farmersville Health And Rehabilitation,466,205 BEECH ST,,FARMERSVILLE,TX,75442,Collin
Farwell Care and Rehabilitation Center,467,305 5TH ST,,FARWELL,TX,79325,Parmer
Fireside Lodge Healthcare Center,468,4800 WHITE SETTLEMENT RD,,FORT WORTH,TX,76114,Tarrant
Fisher County Hospital,469,774 STATE HIGHWAY 70 N,,ROTAN,TX,79546,Fisher
FIVE POINTS NURSING AND REHABILITATION,470,1625 POINT WEST PKWY,,AMARILLO,TX,79124,
Flatonia Oak Manor Rehabilitation and Nursing Center,471,624 N CONVERSE ST,,FLATONIA,TX,78941,Fayette
Floresville Nursing and Rehabilitation Center,472,1811 6TH ST,,FLORESVILLE,TX,78114,Wilson
Floydada Rehabilitation and Care Center,473,925 W CROCKETT ST,,FLOYDADA,TX,79235,Floyd
Focus Care at Baytown,474,2000 BEAUMONT RD,,BAYTOWN,TX,77520,
Focus Care at Linden,475,1201 W HOUSTON ST,,LINDEN,TX,75563,Cass
Focus Care Gilmer,476,623 STATE HIGHWAY 155 N,,GILMER,TX,75644,Upshur
Focused Care At Allenbrook,477,4109 ALLENBROOK DR,,BAYTOWN,TX,77521,Harris
Focused Care At Baytown,478,2000 BEAUMONT RD,,BAYTOWN,TX,77520,Harris
Focused Care at Burnet Bay,479,3921 N MAIN ST,,BAYTOWN,TX,77521,Harris
Focused Care at Cedar Bayou,480,2000 W BAKER RD,,BAYTOWN,TX,77521,Harris
Focused Care At Clarksville,481,2407 W MAIN ST,,CLARKSVILLE,TX,75426,Red River
Focused Care at Corpus,482,801 CANTWELL LN,,CORPUS CHRISTI,TX,78408,Nueces
Focused Care At Fort Stockton,483,501 N SYCAMORE ST,,FORT STOCKTON,TX,79735,Pecos
FOCUSED CARE AT HUNTSVILLE,484,1302 NOTTINGHAM ST,,HUNTSVILLE,TX,77340,
Focused Care At Huntsville,485,1302 NOTTINGHAM ST,,HUNTSVILLE,TX,77340,Walker
Focused Care At Lamesa,486,1201 N 15TH ST,,LAMESA,TX,79331,Dawson
Focused Care At Midland,487,2000 N MAIN ST,,MIDLAND,TX,79705,Midland
Focused Care at Mount Pleasant,488,1606 MEMORIAL AVE,,MOUNT PLEASANT,TX,75455,Titus
Focused Care At Odessa,489,2443 W 16TH ST,,ODESSA,TX,79763,Ector
Focused Care at Orange,490,4201 FM 105,,ORANGE,TX,77630,Orange
Focused Care at Pasadena,491,3434 WATTERS RD,,PASADENA,TX,77504,Harris
Focused Care At Pecos,492,1819 S MEMORIAL DR,,PECOS,TX,79772,Reeves
Focused Care at Sherman,493,817 W CENTER ST,,SHERMAN,TX,75092,Grayson
Focused Care at Summer Place,494,2485 S MAJOR DR,,BEAUMONT,TX,77707,Jefferson
Focused Care At Waxahachie,495,1413 W MAIN ST,,WAXAHACHIE,TX,75165,Ellis
Focused Care at Webster,496,17231 MILL FOREST RD,,WEBSTER,TX,77598,Harris
Focused Care at Westwood,497,8702 S COURSE DR,,HOUSTON,TX,77099,Harris
Focused Care Of Center,498,501 TIMPSON ST,,CENTER,TX,75935,Shelby
Forest Hill Nursing Center,499,4607 E CALIFORNIA PKWY,,FOREST HILL,TX,76119,Tarrant
Forest Oaks Nursing Home,500,726 E COKE ST,,HAMILTON,TX,76531,Hamilton
Fort Bend Healthcare Center,501,3010 BAMORE RD,,ROSENBERG,TX,77471,Fort Bend
Fort Duncan Regional Medical Center,502,3333 N FOSTER MALDONADO BLVD,,EAGLE PASS,TX,78852,Maverick
Fort Worth Manor,503,4900 E BERRY ST,,FORT WORTH,TX,76105,Tarrant
Fort Worth Nursing and Rehabilitation Center,504,1000 6TH AVE,,FORT WORTH,TX,76104,Tarrant
Fort Worth Transitional Care Center,505,850 12TH AVE,,FORT WORTH,TX,76104,Tarrant
Fort Worth Wellness And Rehabilitation,506,2129 SKYLINE DR,,FORT WORTH,TX,76114,Tarrant
"Fortress Health and Rehab of Rock Prairie, LLC",507,1105 ROCK PRAIRIE RD,,COLLEGE STATION,TX,77845,Brazos
Forum Parkway Health and Rehabilitation,508,2112 FORUM PKWY,,BEDFORD,TX,76021,Tarrant
Founders Plaza Nursing and Rehabilitation,509,721 S HIGHWAY 78,,WYLIE,TX,75098,Dallas
FOX HOLLOW POST ACUTE,510,310 AMERICA DR,,BROWNSVILLE,TX,78526,
Frank M Tejeda Texas State Veterans Home,511,200 VETERANS DR,,FLORESVILLE,TX,78114,Wilson
Franklin Heights Nursing and Rehabilitation Center,512,223 S RESLER DR,,EL PASO,TX,79912,El Paso
Franklin Nursing Home,513,700 N HEARNE ST,,FRANKLIN,TX,77856,Robertson
Frankston Nursing and Rehabilitation,514,303 E MURCHISON ST,,FRANKSTON,TX,75763,Anderson
Fredericksburg Nursing And Rehabilitation,515,1117 S ADAMS ST,,FREDERICKSBURG,TX,78624,Gillespie
Friendship Haven Healthcare and Rehabilitation Center,516,1500 SUNSET DR,,FRIENDSWOOD,TX,77546,Galveston
Friendswood Healthcare Center,517,213 E HERITAGE DR,,FRIENDSWOOD,TX,77546,Galveston
Frio Regional Hospital,518,200 S INTERSTATE 35,,PEARSALL,TX,78061,Frio
Gainesville Health and Rehabilitation Center,519,1900 ONEAL ST,,GAINESVILLE,TX,76240,Cooke
Galleria Residence and Rehabilitation Center,520,2808 STONEY BROOK DR,,HOUSTON,TX,77063,Harris
Ganado Nursing And Rehabilitation Center,521,107 E ROGERS ST,,GANADO,TX,77962,Jackson
Garden Terrace At Fort Worth,522,7500 OAKMONT BLVD,,FORT WORTH,TX,76132,Tarrant
Garden Terrace At Houston,523,7887 CAMBRIDGE ST,,HOUSTON,TX,77054,Harris
Garden Terrace Healthcare Center,524,1224 CORVADURA ST,,GRAHAM,TX,76450,Young
Garden Villa Nursing Home,525,106 DEL NORTE DR,,EL CAMPO,TX,77437,Wharton
Gardendale Rehabilitation and Nursing Center,526,1521 E RUSK ST,,JACKSONVILLE,TX,75766,Cherokee
Garland Nursing and Rehabilitation,527,321 N SHILOH RD,,GARLAND,TX,75042,Dallas
Garnet Hill Rehabilitation and Skilled Care,528,1420 MCCREARY RD,,WYLIE,TX,75098,Dallas
Garrison Geriatric Education And Care Center,529,3710 4TH ST,,LUBBOCK,TX,79415,Lubbock
Garrison Nursing Home and Rehabilitation Center,530,333 N FM 95,,GARRISON,TX,75946,Nacogdoches
Gaspards Nursing Care Center Inc,531,2689 65TH ST,,PORT ARTHUR,TX,77640,Jefferson
Gazebo Terrace Convalescent Center,532,1303 HIGHWAY 290 E,,BRENHAM,TX,77833,Washington
GAZEBO TERRACE SKILLED CARE & REHABILITATION,533,1303 HWY 290 E,,BRENHAM,TX,77833,
George H O Brien Jr Va Medical Center,534,300 W VETERANS BLVD,,BIG SPRING,TX,79720,Howard
Georgetown Nursing Rehabilitation Center,535,903 RIVER HAVEN DR,,GEORGETOWN,TX,78626,Williamson
Georgia Manor Nursing Home,536,2611 SW 46TH AVE,,AMARILLO,TX,79110,Randall
Gibson Care Center,537,931 N BROADWAY,,ASPERMONT,TX,79502,Stonewall
Giddings Residence and Rehabilitation Center,538,1181 N WILLIAMSON ST,,GIDDINGS,TX,78942,Lee
"Gilmer Nursing and Rehabilitation, LP",539,703 TITUS ST,,GILMER,TX,75644,Upshur
Gladewater Healthcare Center,540,501 AMES ST,,GLADEWATER,TX,75647,Gregg
Glen Rose Medical Center,541,1021 HOLDEN ST,,GLEN ROSE,TX,76043,Somervell
Glen Rose Nursing and Rehab Center,542,1019 HOLDEN ST,,GLEN ROSE,TX,76043,Somervell
Glenview Wellness and Rehab,543,7625 GLENVIEW DR,,RICHLAND HILLS,TX,76180,Tarrant
Golden Acres Living and Rehabilitation Center,544,2525 CENTERVILLE RD,,DALLAS,TX,75228,Dallas
Golden Age Healthcare Residence,545,704 E DOBKINS ST,,DUBLIN,TX,76446,Erath
Golden Age Nursing Home,546,2613 34TH ST,,LUBBOCK,TX,79410,Lubbock
Golden Creek Healthcare and Rehabilitation Center,547,2100 DOVE CROSSING LN,,NAVASOTA,TX,77868,Grimes
Golden Estates Rehabilitation Center,548,130 SPENCER LN,,SAN ANTONIO,TX,78201,Bexar
Golden Palms Health Center,549,2101 TREASURE HILLS BLVD,,HARLINGEN,TX,78550,Cameron
Golden Plains Community Hospital,550,100 MEDICAL DR,,BORGER,TX,79007,Hutchinson
Golden Villa Nursing Home,551,1104 S WILLIAM ST,,ATLANTA,TX,75551,Cass
Golden Years Nursing and Rehabilitation Center,552,318 CHAMBERS ST,,MARLIN,TX,76661,Falls
Goldthwaite Health and Rehab Center,553,1207 REYNOLDS ST,,GOLDTHWAITE,TX,76844,Mills
Goliad Nursing and Rehabilitation Center,554,161 N WELCH ST,,GOLIAD,TX,77963,Goliad
Gonzales Memorial Hospital,555,1110 N SARAH DEWITT DR,,GONZALES,TX,78629,Gonzales
Good Samaritan Society Denton Village,556,2500 HINKLE DR,,DENTON,TX,76201,Denton
Good Samaritan Society Lake Forest Village,557,3901 MONTECITO DR,,DENTON,TX,76210,Denton
Good Samaritan Society White Acres,558,7304 GOOD SAMARITAN CT,,EL PASO,TX,79912,El Paso
Good Shepherd Medical Center Marshall,559,811 S WASHINGTON AVE,,MARSHALL,TX,75670,Harrison
Goodall Witcher Hospital,560,101 POSEY AVE,,CLIFTON,TX,76634,Bosque
Goodall Witcher Nursing Facility Swing Bed,561,101 POSEY AVE,,CLIFTON,TX,76634,Bosque
Goose Creek Rehabilitation and Healthcare,562,1106 PARK ST,,BAYTOWN,TX,77520,Harris
Govalle Care Center,563,3101 GOVALLE AVE,,AUSTIN,TX,78702,Travis
Grace Care Center at Northpointe,564,11830 NORTHPOINTE BLVD,,TOMBALL,TX,77377,Harris
Grace Care Center of Cypress,565,9602 HUFFMEISTER RD,,HOUSTON,TX,77095,Harris
Grace Care Center of Henrietta,566,807 W BOIS D ARC ST,,HENRIETTA,TX,76365,Clay
Grace Care Center of Olney,567,1402 W ELM ST,,OLNEY,TX,76374,Young
Grace Hill Nursing and Rehabilitation,568,215 FM 161 S,,HUGHES SPRINGS,TX,75656,Cass
GRACE POINTE WELLNESS CENTER,569,2301 N OREGON ST,,EL PASO,TX,79902,El Paso
Grace Presbyterian Village,570,550 E ANN ARBOR AVE,,DALLAS,TX,75216,Dallas
Gracy Woods 2 Nursing Center,571,12042 BITTERN HOLW,,AUSTIN,TX,78758,Travis
Gracy Woods Nursing Center 1,572,12021 METRIC BLVD,,AUSTIN,TX,78758,Travis
Graham Oaks Care Center,573,1325 1ST ST,,GRAHAM,TX,76450,Young
Graham Regional Medical Center,574,1301 MONTGOMERY RD,,GRAHAM,TX,76450,Young
Granbury Care Center,575,301 S PARK ST,,GRANBURY,TX,76048,Hood
Granbury Villa Nursing Center,576,2124 PALUXY HWY,,GRANBURY,TX,76048,Hood
Grand Terrace Rehabilitation And Health Care,577,812 W HOUSTON AVE,,MCALLEN,TX,78501,Hidalgo
Grandview Nursing And Rehabilitation Center,578,301 W CRINER ST,,GRANDVIEW,TX,76050,Johnson
"Granger Villa, Inc",579,800 N COMMERCE ST,,GRANGER,TX,76530,Williamson
Granite Mesa Health Center,580,1401 MAX COPELAND DR,,MARBLE FALLS,TX,78654,Burnet
Grapevine Medical Lodge,581,1005 IRA E WOODS AVE,,GRAPEVINE,TX,76051,Tarrant
Grayson Square Health Care Center,582,815 E GRAYSON ST,,SAN ANTONIO,TX,78208,Bexar
Great Plains Nursing and Rehabilitation,583,315 E 19TH ST,,DUMAS,TX,79029,Moore
Green Valley Healthcare and Rehabilitation Center,584,6850 RUFE SNOW DR,,FORT WORTH,TX,76148,Tarrant
Greenbrier Nursing and Rehabilitation Center,585,2404 STATE HIGHWAY 155,,PALESTINE,TX,75803,Anderson
Greenbrier Nursing and Rehabilitation Center of Tyler,586,3526 W ERWIN ST,,TYLER,TX,75702,Smith
Greenhill Villas of Mount Pleasant,587,2530 GREENHILL RD,,MOUNT PLEASANT,TX,75455,Titus
Greens Nursing Center,588,505 W MAIN ST,,KENEDY,TX,78119,Karnes
Greenview Manor,589,401 OWEN LN,,WACO,TX,76710,McLennan
Greenville Gardens,590,3500 PARK ST,,GREENVILLE,TX,75401,Hunt
Greenville Health And Rehab Center,591,4910 WELLINGTON ST,,GREENVILLE,TX,75402,Hunt
Groesbeck LTC Nursing and Rehabilitation,592,607 PARKSIDE DR,,GROESBECK,TX,76642,Limestone
Groveton Nursing Home and Assisted Living,593,1020 W 1ST ST,,GROVETON,TX,75845,Trinity
Guadalupe Valley Nursing And Rehabilitation Center,594,1210 EASTWOOD DR,,SEGUIN,TX,78155,Guadalupe
Gulf Coast Medical Center,595,10141 US 59 HWY,,WHARTON,TX,77488,Wharton
Gulf Coast Medical Center Long Term Care,596,10141 US 59 HWY,,WHARTON,TX,77488,Wharton
Gulf Healthcare Center Galveston,597,3702 COVE VIEW BLVD,,GALVESTON,TX,77554,Galveston
Gulf Healthcare Center Port Arthur,598,6600 9TH AVE,,PORT ARTHUR,TX,77642,Jefferson
Gulf Pointe Plaza,599,1008 ENTERPRISE BLVD,,ROCKPORT,TX,78382,Aransas
Gulf Pointe Village,600,900 ENTERPRISE BLVD,,ROCKPORT,TX,78382,Aransas
Hacienda Oaks at Beeville,601,4713 BUSINESS 181 N,,BEEVILLE,TX,78102,Bee
Hacienda Oaks Nursing and Rehabilitation Center,602,1637 N KING ST,,SEGUIN,TX,78155,Guadalupe
"Hackberry Creek Care Center, Inc",603,805 HARRISON AVE,,MATADOR,TX,79244,Motley
Hale Center Health and Rehabilitation,604,202 W 3RD ST,,HALE CENTER,TX,79041,Hale
Hallettsville Nursing And Rehabilitation Center,605,825 W FAIRWINDS ST,,HALLETTSVILLE,TX,77964,Lavaca
Hamilton General Hospital,606,400 N BROWN ST,,HAMILTON,TX,76531,Hamilton
Hamilton General Hospital Swing Bed Unit,607,400 N BROWN ST,BLDG 1,HAMILTON,TX,76531,
Hamilton Healthcare Center,608,910 E PIERSON ST,,HAMILTON,TX,76531,Hamilton
Hamilton Hospital,609,901 W HAMILTON ST,,OLNEY,TX,76374,Young
Hamilton Nursing Home,610,205 W GENTRY ST,,HAMILTON,TX,76531,Hamilton
Hamlin Memorial Hospital,611,632 NW 2ND ST,,HAMLIN,TX,79520,Jones
Hansford County Hospital District,612,707 ROLAND ST,,SPEARMAN,TX,79081,Hansford
Hansford Manor,613,707 ROLAND ST,,SPEARMAN,TX,79081,Hansford
Happy Harbor Methodist Home,614,1106 BAYSHORE DR,,LA PORTE,TX,77571,Harris
Harbor Valley Health and Rehabilitation,615,6211 OLD PEARSALL RD,,SAN ANTONIO,TX,78242,
"Harbourview Care Center, Inc",616,300 ENTERPRISE AVE,,LEAGUE CITY,TX,77573,Galveston
Hardeman County Memorial Hospital,617,402 MERCER ST,,QUANAH,TX,79252,Hardeman
Harlingen Nursing and Rehabilitation Center,618,3810 HALE AVE,,HARLINGEN,TX,78550,Cameron
Harmonee House,619,1400 MAIN ST,,AMHERST,TX,79312,Lamb
Harris Methodist HEB Skilled Nursing Facility Unit,620,1600 HOSPITAL PKWY,,BEDFORD,TX,76022,Tarrant
Harvest Communities on Airline,621,10110 AIRLINE DR,,HOUSTON,TX,77037,Harris
Haskell Healthcare Center,622,1504 N 1ST ST,,HASKELL,TX,79521,Haskell
Haskell Memorial Hospital,623,1 AVENUE N,,HASKELL,TX,79521,Haskell
Haven Care Nursing and Rehabilitation Center,624,111 RUTHLYNN DR,,LONGVIEW,TX,75605,Gregg
Hays Nursing and Rehabilitation Center,625,1900 MEDICAL PKWY,,SAN MARCOS,TX,78666,Hays
HEALTHSOUTH Dallas Transitional Unit,626,2124 RESEARCH ROW,,DALLAS,TX,75235,Dallas
HealthSouth Rehabilitation Central Texas,627,1400 HESTERS CROSSING RD,,ROUND ROCK,TX,78681,Williamson
Hearne Healthcare Center,628,1101 W BROWN ST,,HEARNE,TX,77859,Robertson
Heart of Texas Health Care and Rehabilitation Corpus Christi,629,4130 SANTA ELENA ST,,CORPUS CHRISTI,TX,78405,Nueces
Heart Of Texas Healthcare System,630,2008 9TH RD,,BRADY,TX,76825,McCulloch
Hearthstone Health Center,631,401 OAKWOOD BLVD,,ROUND ROCK,TX,78681,Williamson
Heartwod R and Healthcare Center of Taylor,632,2704 N MAIN ST,,TAYLOR,TX,76574,Williamson
Hemphill Care Center,633,HIGHWAY 83 W,,HEMPHILL,TX,75948,Sabine
Hemphill County Hospital,634,1020 S 4TH ST,,CANADIAN,TX,79014,Hemphill
Henderson Health and Rehabilitation Center,635,1010 W MAIN ST,,HENDERSON,TX,75652,Rusk
Henderson Memorial Hospital Long Term Care Unit,636,300 WILSON ST,,HENDERSON,TX,75652,Rusk
Hendrick Medical Center Long Term Care Unit,637,1900 PINE ST,,ABILENE,TX,79601,Taylor
Hereford Nursing and Rehabilitation Center,638,231 KINGWOOD ST,,HEREFORD,TX,79045,Deaf Smith
Hereford Regional Medical Center,639,540 W 15TH ST,,HEREFORD,TX,79045,Deaf Smith
Heritage at Longview Healthcare and Rehabilitation,640,112 RUTHLYNN DR,,LONGVIEW,TX,75605,Gregg
Heritage at Turner Park,641,820 SMALL ST,,GRAND PRAIRIE,TX,75050,Dallas
Heritage Convalescent Center,642,1009 CLYDE ST,,AMARILLO,TX,79106,Potter
Heritage Gardens Healthcare Center,643,2135 DENTON DR,,CARROLLTON,TX,75006,Dallas
Heritage House,644,751 HERITAGE LN,,EAGLE LAKE,TX,77434,Colorado
Heritage House Nursing and Rehabilitation,645,407 N COLLEGE,,ROSEBUD,TX,76570,Falls
Heritage House of Keller,646,1150 WHITLEY RD,,KELLER,TX,76248,Tarrant
Heritage House of Marshall Healthcare and Rehabilitation Center,647,5915 ELYSIAN FIELDS RD,,MARSHALL,TX,75672,Harrison
Heritage House Of Paris,648,150 47TH ST SE,,PARIS,TX,75462,Lamar
HERITAGE HOUSES AT PARIS REHAB & NURSING,649,150 S.E. 47TH STREET,,PARIS,TX,75462,
Heritage Manor of Canton,650,673 W COLLEGE ST,,CANTON,TX,75103,Van Zandt
Heritage Nursing and Rehabilitation,651,5437 EISENHAUER RD,,SAN ANTONIO,TX,78218,Bexar
Heritage Oaks Nursing and Rehabilitation Center,652,5301 UNIVERSITY AVE,,LUBBOCK,TX,79413,Lubbock
Heritage Oaks Residence and Rehabilitation Center,653,1112 GIBBINS RD,,ARLINGTON,TX,76011,Tarrant
HERITAGE OAKS RETIREMENT VILLAGE,654,3002 W 2ND AVE,,CORSICANA,TX,75110,
Heritage Oaks West Retirement Village,655,3300 W 2ND AVE,,CORSICANA,TX,75110,Navarro
Heritage Park of Katy Nursing and Rehabilitation,656,6001 GEORGE BUSH DR,,KATY,TX,77493,Harris
Heritage Park Rehabilitation and Skilled Nursing Center,657,2806 REAL ST,,AUSTIN,TX,78722,Travis
Heritage Place Nursing And Rehabilitation,658,605 W MULBERRY ST,,DECATUR,TX,76234,Wise
Heritage Plaza Nursing Center,659,600 W 52ND ST,,TEXARKANA,TX,75503,Bowie
Heritage Saint Joseph Gardens,660,1401 S MAIN ST,,FORT WORTH,TX,76104,Tarrant
Heritage Trails Nursing and Rehabilitation Center,661,301 LINCOLN PARK DR,,CLEBURNE,TX,76033,Johnson
Heritage Villa Nursing and Rehabilitation,662,310 E LAWRENCE ST,,DAYTON,TX,77535,Liberty
Hico Nursing and Rehabilitation Center,663,712 RAILROAD ST,,HICO,TX,76457,Hamilton
HIGH HOPE CARE CENTER OF BRENHAM,664,401 EAST BLUE BELL ROAD,,BRENHAM,TX,77833,
High Hope Care Center of Brenham,665,401 E BLUE BELL RD,,BRENHAM,TX,77833,Washington
Highland Hills Nursing Home,666,500 E SAINT JOHNS AVE,,AUSTIN,TX,78752,Travis
Highland Meadows Health and Rehab,667,1870 JOHN KING BLVD,,ROCKWALL,TX,75032,Rockwall
Highland Meadows Health and Rehabilitation,668,1870 S JOHN KING BLVD,,ROCKWALL,TX,75032,
Highland Nursing Center,669,5819 PECAN VALLEY DR,,SAN ANTONIO,TX,78223,Bexar
Highland Park Care Center,670,8861 FULTON ST,,HOUSTON,TX,77022,Harris
Highland Pines Nursing Home and Rehab Center,671,1100 N 4TH ST,,LONGVIEW,TX,75601,Gregg
Hill Country Care Center,672,111 HOSPITAL DR,,JUNCTION,TX,76849,Kimble
Hill Country Care Healthcare and Rehabilitation,673,1505 W HIGHWAY 290,,DRIPPING SPRINGS,TX,78620,Hays
Hill Country Health Care Center,674,507 E GREEN ST,,LLANO,TX,78643,Llano
Hill Country Memorial Hospital,675,1020 S STATE HIGHWAY 16,,FREDERICKSBURG,TX,78624,Gillespie
Hill Country Rehabilitation and Nursing Center,676,810 INDUSTRIAL AVE,,COPPERAS COVE,TX,76522,Coryell
Hill Regional Hospital,677,101 CIRCLE DR,,HILLSBORO,TX,76645,Hill
"Hillcrest Nursing and Rehabilitation, LP",678,300 E BROWN ST,,WYLIE,TX,75098,Dallas
Hillside Heights Rehabilitation Suites,679,6650 S SONCY RD,,AMARILLO,TX,79119,Randall
Hillside Medical Lodge,680,300 S HIGHWAY 36 BYP N,,GATESVILLE,TX,76528,Coryell
HILLTOP HAVEN,681,308 E COLLEGE ST,,GUNTER,TX,75058,
Hilltop Park Rehabilitation and Care Center,682,970 HILLTOP DR,,WEATHERFORD,TX,76086,Parker
Hilltop Village Nursing and Rehabilitation Center,683,1400 HILLTOP RD,,KERRVILLE,TX,78028,Kerr
Hillview Manor Nursing And Rehabilitation Center,684,1110 RICE ST,,GOLDTHWAITE,TX,76844,Mills
Hogan Clark Nursing and Rehabilitation Center,685,3203 SAGE ST,,MIDLAND,TX,79705,Midland
"Holiday Hill, Inc",686,245 STATE HIGHWAY 153,,COLEMAN,TX,76834,Coleman
Holiday Nursing And Rehabilitation,687,280 MOFFITT DR,,CENTER,TX,75935,Shelby
"Holiday Pines Nursing and Rehabilitation, LP",688,1201 CARDINAL DR,,WOODVILLE,TX,75979,Tyler
Holly Hall,689,2000 HOLLY HALL ST,,HOUSTON,TX,77054,Harris
Hollymead,690,4101 LONG PRAIRIE RD,,FLOWER MOUND,TX,75028,Denton
Home Place Manor Healthcare Center,691,425 SW AVENUE F,,HAMLIN,TX,79520,Jones
Homestead Nursing And Rehabilitation Of Baird,692,224 E 6TH ST,,BAIRD,TX,79504,Callahan
"Homestead Nursing and Rehabilitation of Collinsville, LLC",693,501 N MAIN ST,,COLLINSVILLE,TX,76233,Grayson
"Homestead Nursing and Rehabilitation of Gorman, LLC",694,425 ROOSEVELT AVE,,GORMAN,TX,76454,Eastland
"Homestead Nursing and Rehabilitation of Hillsboro, LLC",695,1725 OLD BRANDON RD,,HILLSBORO,TX,76645,Hill
"Homestead Nursing and Rehabilitation of Itasca, LLC",696,409 S FILES ST,,ITASCA,TX,76055,Hill
Hometown Care Center,697,220 8TH ST,,MOODY,TX,76557,McLennan
Hondo Nursing and Rehabilitation,698,3002 AVENUE Q,,HONDO,TX,78861,Medina
Honey Grove Nursing Center,699,1303 E MAIN ST,,HONEY GROVE,TX,75446,Fannin
Horizon Manor Nursing Home,700,EAST HIGHWAY 82,,NOCONA,TX,76255,Montague
Hospitality House,701,804 W 16TH ST,,MT PLEASANT,TX,75455,Titus
Houston County Nursing Home,702,100 NE LOOP 304,,CROCKETT,TX,75835,Houston
Houston Methodist Baytown Hospital,703,4401 GARTH RD,,BAYTOWN,TX,77521,Harris
Houston Methodist Clear Lake Hospital,704,18300 HOUSTON METHODIST DR,,HOUSTON,TX,77058,Harris
Houston Methodist Hospital,705,6565 FANNIN ST,,HOUSTON,TX,77030,Harris
Houston Northwest Medical Center Long Term Care Unit,706,710 FM 1960 RD,,HOUSTON,TX,77073,Harris
"Houston Nursing and Rehabilitation, LP",707,4225 DENMARK ST,,HOUSTON,TX,77016,Harris
HOUSTON TRANSITIONAL CARE,708,8550 JASON ST,,HOUSTON,TX,77074,
Huebner Creek Health and Rehabilitation Center,709,8306 HUEBNER RD,,SAN ANTONIO,TX,78240,Bexar
Huguley Memorial Hospital Long Term Care Unit,710,11801 SOUTH FWY,,BURLESON,TX,76028,Johnson
Humble Healthcare Center,711,93 ISAACKS RD,,HUMBLE,TX,77338,Harris
Humble Skill Care Home,712,18903 S MEMORIAL DR,,HUMBLE,TX,77338,Harris
Hunt Regional Medical Center,713,2800 STATE HIGHWAY 24,,COMMERCE,TX,75428,Hunt
Hunt Regional Medical Center Transitional Care Unit,714,4215 JOE RAMSEY BLVD E,,GREENVILLE,TX,75401,Hunt
Huntington Healthcare And Rehabilitation,715,220 E ASH ST,,HUNTINGTON,TX,75949,Angelina
Huntsville Healthcare Center,716,2628 MILAM ST,,HUNTSVILLE,TX,77340,Walker
Huntsville Memorial Hospital Long Term Care Unit,717,110 MEMORIAL HOSPITAL DR,,HUNTSVILLE,TX,77340,Walker
Hurst Plaza Nursing and Rehabilitation,718,215 E PLAZA BLVD,,HURST,TX,76053,Tarrant
Icare Rehabilitation Hospital,719,3100 PETERS COLONY RD,,FLOWER MOUND,TX,75022,Denton
"Ideal Care Providers, Inc",720,2203 WHIRLAWAY DR,,STAFFORD,TX,77477,Fort Bend
IHS of Sherman,721,505 N FM 1417,,SHERMAN,TX,75092,Grayson
Immanuels Healthcare,722,4515 VILLAGE CREEK RD,,FORT WORTH,TX,76119,Tarrant
Indian Oaks Living Center,723,415 INDIAN OAKS DR,,HARKER HEIGHTS,TX,76548,Bell
Inspiration Hills Rehabilitation Center,724,1939 BANDERA RD,,SAN ANTONIO,TX,78228,Bexar
Integrated Health Services of Terrell,725,1800 N FRANCES ST,,TERRELL,TX,75160,Kaufman
Interlochen Health and Rehabilitation Center,726,2645 W RANDOL MILL RD,,ARLINGTON,TX,76012,Tarrant
Iowa Park Healthcare Center,727,1109 N 3RD ST,,IOWA PARK,TX,76367,Wichita
Iraan General Hospital District,728,600 HIGHWAY 349 N,,IRAAN,TX,79744,Pecos
Irving Care Center,729,619 N BRITAIN RD,,IRVING,TX,75061,Dallas
"Irving Nursing and Rehabilitation, LP",730,619 N BRITAIN RD,,IRVING,TX,75061,Dallas
Isle At Kingwood,731,24025 KINGWOOD PLACE DR,,KINGWOOD,TX,77339,Harris
Isle At Watercrest,732,4091 EASTCHESTER DR,,BRYAN,TX,77802,Brazos
Isle At Watercrest,733,200 E DEBBIE LN,,MANSFIELD,TX,76063,Tarrant
Jacinto City Healthcare Center,734,1405 HOLLAND ST,,HOUSTON,TX,77029,Harris
Jackson County Hospital,735,1013 S WELLS ST,,EDNA,TX,77957,Jackson
Jacksonville Healthcare Center,736,305 BONITA ST,,JACKSONVILLE,TX,75766,Cherokee
JASPER NURSING AND REHABILITATION LP,737,350 SPRINGHILL RD,,JASPER,TX,75951,
"Jasper Nursing and Rehabilitation, LP",738,350 SPRINGHILL ST,,JASPER,TX,75951,Jasper
Jefferson Nursing and Rehabilitation Center,739,3840 POINTE PKWY,,BEAUMONT,TX,77706,Jefferson
Jeffrey Place Healthcare Center,740,820 JEFFREY ST,,WACO,TX,76710,McLennan
John Knox Village Med Center,741,1300 S BORDER AVE,,WESLACO,TX,78596,Hidalgo
John Paul II Nursing Home,742,209 S 3RD ST,,KENEDY,TX,78119,Karnes
John Peter Smith Hospital Transitional Care Unit,743,1500 S MAIN ST,,FORT WORTH,TX,76104,Tarrant
Karnes City Health Rehabilitation and Nursing Center,744,209 COUNTRY CLUB DR,,KARNES CITY,TX,78118,Karnes
Katyville Health Care Center,745,5129 E 5TH ST,,KATY,TX,77493,Harris
Kaufman Healthcare Center,746,3001 S HOUSTON ST,,KAUFMAN,TX,75142,Kaufman
"Keeneland Nursing and Rehabilitation, LP",747,700 S BOWIE DR,,WEATHERFORD,TX,76086,Parker
Keller Oaks Healthcare Center,748,8703 DAVIS BLVD,,KELLER,TX,76248,Tarrant
Kemp Care,749,1351 S ELM ST,,KEMP,TX,75143,Henderson
Kendall House Wellness and Rehabilitation,750,1050 GRAND BLVD,,BOERNE,TX,78006,Kendall
Kenedy Manor,751,7882 S HIGHWAY 181,,KENEDY,TX,78119,Karnes
Kennedy Health And Rehab,752,504 N JOHN REDDITT DR,,LUFKIN,TX,75904,Angelina
Kent County Nursing Home,753,1443 N MAIN ST,,JAYTON,TX,79528,Kent
Kerens Care Center,754,809 NE 4TH ST,,KERENS,TX,75144,Navarro
Kermit Healthcare Center,755,2000 SCHOOL ST,,KERMIT,TX,79745,Winkler
Kerrville Va Medical Center Swing Bed,756,3600 MEMORIAL BLVD,,KERRVILLE,TX,78028,
Kilgore Health and Rehabilitation,757,2700 S HENDERSON BLVD,,KILGORE,TX,75662,Gregg
KILLEEN NURSING and REHABILITATION,758,5000 THAYER DR,,KILLEEN,TX,76549,
Kimble Hospital,759,349 REID RD,,JUNCTION,TX,76849,Kimble
Kindred Hospital Dallas,760,9525 GREENVILLE AVE,,DALLAS,TX,75243,Dallas
Kindred Hospital Houston Medical Center,761,6441 MAIN ST,,HOUSTON,TX,77030,Harris
Kings Daughters Hospital Skilled Nursing Facility,762,1901 SW H K DODGEN LOOP,,TEMPLE,TX,76502,Bell
Kings Manor Methodist Home,763,400 RANGER ST,,HEREFORD,TX,79045,Deaf Smith
Kingsland Hills Care Center,764,3727 W RANCH ROAD 1431,,KINGSLAND,TX,78639,Llano
Kingsville Nursing and Rehabilitation Center,765,3130 S BRAHMA BLVD,,KINGSVILLE,TX,78363,Kleberg
Kirkland Court Health and Rehabilitation,766,1601 KIRKLAND DR,,AMARILLO,TX,79106,Potter
Kirkwood Manor Nursing and Rehab Center,767,2590 LOOP 337,,NEW BRAUNFELS,TX,78130,Comal
"Kleberg County Nursing and Rehabilitation, LP",768,316 GENERAL CAVAZOS BLVD,,KINGSVILLE,TX,78363,Kleberg
Knights Nursing and Rehabilitation Center,769,1241 W MARSHALL HOWARD BLVD,,LITTLEFIELD,TX,79339,Lamb
Knopp Healthcare and Rehabilitation,770,1208 N LLANO ST,,FREDERICKSBURG,TX,78624,Gillespie
KNOPP NURSING & REHAB CENTER INC,771,202 BILLIE DR,,FREDERICKSBURG,TX,78624,
Knopp Nursing and Rehabilitation,772,202 BILLIE DR,,FREDERICKSBURG,TX,78624,
Knox County Hospital District,773,701 SE 5TH ST,,KNOX CITY,TX,79529,Knox
Kountze Nursing Center,774,604 FM 1293 RD,,KOUNTZE,TX,77625,Hardin
Kruse Village,775,1700 E STONE ST,,BRENHAM,TX,77833,Washington
La Bahia Nursing And Rehabilitation,776,225 E WARD ST,,GOLIAD,TX,77963,Goliad
La Dora Nursing and Rehab Center,777,1960 BEDFORD RD,,BEDFORD,TX,76021,Tarrant
La Hacienda de Paz Rehabilitation and Care Center,778,3333 BOB ROGERS DR,,EAGLE PASS,TX,78852,
LA HACIENDA NURSING HOME INC,779,4410 E HWY 44,,SAN DIEGO,TX,78384,
LA HACIENDA REHABILITATION & HEALTH CARE CENTER,780,3730 W. OREM DRIVE,,HOUSTON,TX,77045,
La Vida Serena Nursing and Rehabilitation,781,711 KINGS WAY,,DEL RIO,TX,78840,Val Verde
La Villa Rehabilitation and Healthcare Center,782,3007 N NAVARRO ST,,VICTORIA,TX,77901,Victoria
Lake Arthur Place,783,4225 LAKE ARTHUR DR,,PORT ARTHUR,TX,77642,Jefferson
Lake Granbury Medical Center,784,1310 PALUXY RD,,GRANBURY,TX,76048,Hood
Lake Jackson Healthcare Center,785,413 GARLAND DR,,LAKE JACKSON,TX,77566,Brazoria
"Lake Lodge Nursing and Rehabilitation, LP",786,3800 MARINA DR,,FORT WORTH,TX,76135,Tarrant
Lake Pointe Medical Center Long Term Care Unit,787,6800 SCENIC DR,,ROWLETT,TX,75088,Dallas
Lake Village Nursing and Rehabilitation Center,788,169 LAKE PARK RD,,LEWISVILLE,TX,75057,Denton
Lake Worth Nursing and Rehabilitation,789,4220 WELLS DR,,FORT WORTH,TX,76135,Tarrant
"Lakeridge LTC Partners, Inc",790,4403 74TH ST,,LUBBOCK,TX,79424,Lubbock
Lakeshore Village Healthcare Center,791,2320 LAKE SHORE DR,,WACO,TX,76708,McLennan
Lakeside Nursing And Rehabilitation Center,792,8707 LAKESIDE PKWY,,SAN ANTONIO,TX,78245,Bexar
Lakeside Rehabilitation and Care Center,793,4306 24TH ST,,LUBBOCK,TX,79410,Lubbock
Lakewest Rehabilitation And Healthcare Center,794,2450 BICKERS ST,,DALLAS,TX,75212,Dallas
Lakewood Village Health Care Center,795,5100 RANDOL MILL RD,,FORT WORTH,TX,76112,Tarrant
Lamb Healthcare Center,796,1500 S SUNSET AVE,,LITTLEFIELD,TX,79339,Lamb
Lamesa Healthcare Center,797,1818 N 7TH ST,,LAMESA,TX,79331,Dawson
Lampasas Nursing And Rehabilitation Center,798,611 N BROAD ST,,LAMPASAS,TX,76550,Lampasas
Lampstand Nursing And Rehabilitation,799,2001 E 29TH ST,,BRYAN,TX,77802,Brazos
Lamun-Lusk-Sanchez Texas State Veterans Home,800,1809 N US HIGHWAY 87,,BIG SPRING,TX,79720,Howard
Lancaster Nursing and Rehabilitation Center,801,1515 N ELM ST,,LANCASTER,TX,75134,Dallas
Landmark At Plano,802,1621 COIT RD,,PLANO,TX,75075,Collin
Landmark Of Amarillo,803,5601 PLUM CREEK DR,,AMARILLO,TX,79124,Potter
LANDMARK OF PLANO REHABILITATION AND NURSING CENTER LLC,804,1621 COIT RD,,PLANO,TX,75075,
Laporte Healthcare Center,805,208 S UTAH ST,,LA PORTE,TX,77571,Harris
Laredo Medical Center,806,1700 E SAUNDERS ST,,LAREDO,TX,78041,Webb
Laredo Nursing and Rehabilitation Center,807,1701 TOURNAMENT TRAIL DR,,LAREDO,TX,78041,Webb
"Laredo Specialty Hospital, Inc",808,2005 E BUSTAMANTE ST,,LAREDO,TX,78041,Webb
Laredo Transitional Care,809,2005 E BUSTAMANTE ST,,LAREDO,TX,78041,Webb
Larkspur Transitional Care,810,201 S JOHN REDDITT DR,,LUFKIN,TX,75904,Angelina
LAS ALTURAS NURSING AND TRANSITIONAL CARE,811,4301 N BARTLETT AVE,,LAREDO,TX,78041,
Las Brisas Rehabilitation and Wellness Suites,812,3421 STORY RD W,,IRVING,TX,75038,
Las Colinas of Westover,813,9738 WESTOVER HILLS BLVD,,SAN ANTONIO,TX,78251,Bexar
LAS COLINAS OF WESTOVER REHABILITATION CENTER,814,9738 WESTOVER HILLS BLVD,,SAN ANTONIO,TX,78251,
Las Palmas Nursing and Rehabilitation Center,815,1301 E QUEBEC AVE,,MCALLEN,TX,78503,Hidalgo
Las Palmas Skilled Nursing and Rehabilitation,816,369 MARS DR,,COTULLA,TX,78014,La Salle
LAS VENTANAS DE SOCORRO,817,10064 ALAMEDA AVE,,SOCORRO,TX,79927,
Laurel Court,818,3830 MUSTANG RD,,ALVIN,TX,77511,Brazoria
Laurenwood Nursing and Rehabilitation,819,330 W CAMP WISDOM RD,,DUNCANVILLE,TX,75116,Dallas
Lavaca Hospital District,820,1400 N TEXANA ST,,HALLETTSVILLE,TX,77964,Lavaca
Lawrence Street Healthcare Center,821,615 LAWRENCE ST,,TOMBALL,TX,77375,Harris
LBJ Hospital,822,5656 KELLEY ST,,HOUSTON,TX,77026,Harris
LBJ Medical Center,823,206 HALEY RD,,JOHNSON CITY,TX,78636,Blanco
LE REVE REHABILITATION and MEMORY CARE,824,3309 DILIDO RD,,DALLAS,TX,75228,
Legacy at Jacksonville,825,810 BELLAIRE ST,,JACKSONVILLE,TX,75766,Cherokee
Legacy Nursing And Rehabilitation,826,2817 KENT ST,,BRYAN,TX,77802,Brazos
Legacy Rehabilitation and Living,827,4033 SW 51ST AVE,,AMARILLO,TX,79109,Randall
Legend Healthcare and Rehabilitation Euless,828,900 WESTPARK WAY,,EULESS,TX,76040,Tarrant
Legend Healthcare and Rehabilitation Greenville,829,2300 JACK FINNEY BLVD,,GREENVILLE,TX,75402,Hunt
Legend Healthcare and Rehabilitation Paris,830,520 8TH ST SE,,PARIS,TX,75460,Lamar
Legend Oaks Healthcare And Rehabilitation,831,2468 FM 1101,,NEW BRAUNFELS,TX,78130,Comal
LEGEND OAKS HEALTHCARE AND REHABILITATION - WEST,832,222 BERTETTI DR,,SAN ANTONIO,TX,78227,
Legend Oaks Healthcare and Rehabilitation Center,833,8902 WEST RD,,HOUSTON,TX,77064,Harris
Legend Oaks Healthcare and Rehabilitation Center,834,2003 W HUTCHINS PL,,SAN ANTONIO,TX,78224,Bexar
Legend Oaks Healthcare and Rehabilitation Ennis,835,1400 MEDICAL CENTER DR,,ENNIS,TX,75119,Ellis
Legend Oaks Healthcare and Rehabilitation Garland,836,2625 BELT LINE RD,,GARLAND,TX,75044,Dallas
Legend Oaks Healthcare and Rehabilitation- Garland,837,2625 BELT LINE RD,,GARLAND,TX,75044,
Legend Oaks Healthcare and Rehabilitation Gladewater,838,1201 FARM ROAD 2685,,GLADEWATER,TX,75647,Gregg
Legend Oaks Healthcare and Rehabilitation North Austin,839,11020 DESSAU RD,,AUSTIN,TX,78754,Travis
Legend Oaks Healthcare and Rehabilitation of East Houston,840,15880 WALLISVILLE RD,,HOUSTON,TX,77049,Harris
Legend Oaks Healthcare And Rehabilitation Of Fort Worth,841,4240 GOLDEN TRIANGLE BLVD,,FORT WORTH,TX,76244,Tarrant
Legend Oaks Healthcare And Rehabilitation Of North Houston,842,12921 MISTY WILLOW DR,,HOUSTON,TX,77070,Harris
Legend Oaks Healthcare And Rehabilitation Waxahachie,843,151 COUNTRY MEADOWS BLVD,,WAXAHACHIE,TX,75165,Ellis
Legend Oaks Healthcare and Rehabilitation West San Antonio,844,222 BERTETTI DR,,SAN ANTONIO,TX,78227,
Legend Oaks Rehabilitation And Healthcare Of Kyle,845,1640 FAIRWAY,,KYLE,TX,78640,Hays
Legend West Rehab Healthcare and Rehabilitation,846,222 BERTETTI DR,,SAN ANTONIO,TX,78227,Bexar
Leon Valley Care Center,847,6518 SAMARITAN DR,,SAN ANTONIO,TX,78238,Bexar
Leonard Manor,848,902 E HACKBERRY ST,,LEONARD,TX,75452,Fannin
Levelland Nursing and Rehabilitation Center,849,210 WEST AVE,,LEVELLAND,TX,79336,Hockley
Lexington Medical Lodge,850,2000 W AUDIE MURPHY PKWY,,FARMERSVILLE,TX,75442,Collin
Lexington Place Nursing and Rehabilitation Center,851,1661 W YOAKUM AVE,,ARANSAS PASS,TX,78336,San Patricio
Lexington Place Nursing And Rehabilitation Center Of Nacogdoches,852,611 SW STALLINGS DR,,NACOGDOCHES,TX,75964,Nacogdoches
Lexington Place Nursing and Rehabilitation Center Richland Hills,853,7146 BAKER BLVD,,RICHLAND HILLS,TX,76118,Tarrant
Liberty Dayton Regional Medical Center,854,1353 N TRAVIS ST,,AMES,TX,77575,Liberty
Liberty Health Care Center,855,1206 N TRAVIS ST,,LIBERTY,TX,77575,Liberty
Life Care Center of Haltom,856,2936 MARKUM DR,,FORT WORTH,TX,76117,Tarrant
Life Care Center of Plano,857,3800 W PARK BLVD,,PLANO,TX,75075,Collin
Life Center Specialty Hospital,858,1111 GALLAGHER DR,,SHERMAN,TX,75090,Grayson
Lillian M Hudspeth Memorial Hospital,859,308 HUDSPETH ST,,SONORA,TX,76950,Sutton
Limestone Medical Center,860,701 MCCLINTIC DR,,GROESBECK,TX,76642,Limestone
Lindale Healthcare Center,861,215 MARGARET ST,,LINDALE,TX,75771,Smith
Lindan Park Rehabilitation And Nursing Center,862,1510 N PLANO RD,,RICHARDSON,TX,75081,Dallas
Littlefield Hospitality House,863,1609 W WAYLON JENNINGS BLVD,,LITTLEFIELD,TX,79339,Lamb
Live Oak Medical Center,864,618 LIVE OAK ST,,BLANCO,TX,78606,Blanco
"Live Oak Nursing Center, LP",865,2951 HIGHWAY 281,,GEORGE WEST,TX,78022,Live Oak
Llano Nursing and Rehabilitation Center,866,800 W HAYNIE ST,,LLANO,TX,78643,Llano
Lockney Health and Rehabilitation Center,867,401 N MAIN ST,,LOCKNEY,TX,79241,Floyd
Longhorn Village,868,12001 LONGHORN PKWY,,AUSTIN,TX,78732,Travis
LONGLEAF MEADOWS HEALTHCARE CENTER,869,16044 COUNTY ROAD 165,,TYLER,TX,75703,
Longmeadow Healthcare Center,870,120 MEADOW VIEW DR,,JUSTIN,TX,76247,Denton
Longview Hill Nursing and Rehabilitation Center,871,3201 N 4TH ST,,LONGVIEW,TX,75605,Gregg
Longview Regional Medical Center,872,2901 4TH ST,,LONGVIEW,TX,75605,Gregg
Longview Regional Medical Center Skilled Nursing Unit,873,2901 4TH ST,,LONGVIEW,TX,75605,Gregg
Los Arcos del Norte Care Center,874,11169 SEAN HAGGERTY,,EL PASO,TX,79934,
"Lubbock Health Care Center, LP",875,4120 22ND PL,,LUBBOCK,TX,79410,Lubbock
Lubbock Hospitality House Nursing and Rehabilitation Center,876,4710 SLIDE RD,,LUBBOCK,TX,79414,Lubbock
Lubbock Ltc Nursing And Rehabilitation,877,2400 QUAKER AVE,,LUBBOCK,TX,79410,Lubbock
Lufkin Nursing Center,878,2313 N RAGUET ST,,LUFKIN,TX,75904,Angelina
Luling Care Center,879,501 W AUSTIN ST,,LULING,TX,78648,Caldwell
Lutheran Sunset Ministry,880,1800 W 9TH ST,,CLIFTON,TX,76634,Bosque
Lynn County Hospital District,881,2600 LOCKWOOD ST,,TAHOKA,TX,79373,Lynn
Lynnhaven Nursing Center and Rehab Center,882,3030 FIG ST,,CORPUS CHRISTI,TX,78404,Nueces
Lynwood Nursing And Rehabilitation,883,803 S ALAMO RD,,LEVELLAND,TX,79336,Hockley
Lytle Nursing Home,884,15366 OAK ST,,LYTLE,TX,78052,Atascosa
Mabank Nursing Home,885,110 W TROUPE ST,,MABANK,TX,75147,Kaufman
MADISON MEDICAL RESORT,886,5001 OFFICE PARK DRIVE,,ODESSA,TX,79762,
Madison Medical Resort,887,5001 OFFICE PARK,,ODESSA,TX,79762,Ector
Madison Saint Joseph Health Center,888,100 W CROSS ST,,MADISONVILLE,TX,77864,Madison
Madisonville Care Center,889,411 E COLLARD ST,,MADISONVILLE,TX,77864,Madison
"Maggie Johnsons Nursing Center, Inc",890,3406 E 17TH ST,,AUSTIN,TX,78721,Travis
"Magnified Health and Rehab of Anderson, LLC",891,1115 ANDERSON ST,,COLLEGE STATION,TX,77840,Brazos
Magnolia Living and Rehabilitation,892,1105 N MAGNOLIA AVE,,LULING,TX,78648,Caldwell
Magnolia Manor,893,4400 GULF AVE,,GROVES,TX,77619,Jefferson
Magnolia Place,894,510 E BONHAM ST,,JEFFERSON,TX,75657,Marion
Magnolia Place Health Care,895,1620 MAGNOLIA ST,,LIBERTY,TX,77575,Liberty
Magnolia Place Skilled Nursing And Rehab,896,1307 MARTIN LUTHER KING DR,,JEFFERSON,TX,75657,Marion
Mainland Medical Center Skilled Nursing Facility,897,6801 EMMETT F LOWRY EXPY,,TEXAS CITY,TX,77591,Galveston
"Manda Ann Convalescent Home, Inc",898,7441 COFFEE ST,,HOUSTON,TX,77033,Harris
"Manor Park, Inc",899,2208 N LOOP 250 W,,MIDLAND,TX,79707,Midland
Mansfield Medical Lodge,900,301 N MILLER RD,,MANSFIELD,TX,76063,Tarrant
Mansfield Nursing and Rehabilitation Center,901,1402 E BROAD ST,,MANSFIELD,TX,76063,Tarrant
Marianist Residence,902,520 FORDHAM AVESTE 105,,SAN ANTONIO,TX,78228,
Marine Creek Health and Rehabilitation Center,903,3600 ANGLE AVE,,FORT WORTH,TX,76106,Tarrant
Marshall Manor Nursing and Rehabilitation Center,904,1007 S WASHINGTON AVE,,MARSHALL,TX,75670,Harrison
Marshall Manor West,905,207 W MERRITT ST,,MARSHALL,TX,75670,Harrison
Martin County Hospital,906,600 E INTERSTATE 20,,STANTON,TX,79782,Martin
Mason Convalescent Care Center,907,110 W COLLEGE AVE,,MASON,TX,76856,Mason
Mason Creek Transitional Care of Katy,908,21727 PROVINCIAL BLVD,,KATY,TX,77450,Harris
MATADOR HEALTH AND REHABILITATION CENTER,909,805 HARRISON AVE,,MATADOR,TX,79244,
Matagorda House Healthcare Center At The Legacy Campus,910,700 12TH ST,,BAY CITY,TX,77414,Matagorda
Matagorda Nursing and Rehabilitation Center,911,4521 AVENUE F,,BAY CITY,TX,77414,Matagorda
Matlock Place Health and Rehabilitation Center,912,7100 MATLOCK RD,,ARLINGTON,TX,76002,Tarrant
Maverick Nursing and Rehabilitation Center,913,3106 BOB ROGERS DR,,EAGLE PASS,TX,78852,Maverick
Mayfield Care Center,914,328 W MAYFIELD BLVD,,SAN ANTONIO,TX,78221,Bexar
McAllen Medical Center Skilled Nursing Unit,915,301 WEST EXPY,# 83,MCALLEN,TX,78503,Hidalgo
Mcallen Nursing Center,916,600 N CYNTHIA ST,,MCALLEN,TX,78501,Hidalgo
McAllen Transitional Care Center,917,2109 S K ST,,MCALLEN,TX,78503,Hidalgo
McCamey Convalescent Center,918,2500 HIGHWAY 305 S,,MCCAMEY,TX,79752,Upton
McCamey Hospital,919,2500 HIGHWAY 305 S,,MCCAMEY,TX,79752,Upton
"McCullough Hall Nursing Center, Inc",920,603 SW 24TH ST,,SAN ANTONIO,TX,78207,Bexar
McGee Nursing Home,921,615 S 8TH AVE,,TEAGUE,TX,75860,Freestone
McKinney Healthcare and Rehabilitation Center,922,253 ENTERPRISE DR,,MCKINNEY,TX,75069,Collin
McLane Childrens Hospital Scott and White,923,1901 SW H K DODGEN LOOP,,TEMPLE,TX,76502,Bell
McLean Care Center,924,605 W 7TH ST,,MCLEAN,TX,79057,Gray
Meadow Lake Health Center,925,16044 COUNTY ROAD 165,,TYLER,TX,75703,
Meadowbrook Care Center,926,632 WINDSOR WAY,,VAN ALSTYNE,TX,75495,Grayson
Medical Arts Hospital,927,2200 N BRYAN AVE,,LAMESA,TX,79331,Dawson
Medical Center at Terrell Skilled Nursing Facility,928,502 W COLLEGE ST,,TERRELL,TX,75160,Kaufman
Medical Center Hospital Long Term Care Unit,929,500 W 4TH ST,,ODESSA,TX,79761,Ector
Medical Center Nursing Home,930,10 MEDICAL CENTER DR,,CLARENDON,TX,79226,Donley
Medical Center of Mesquite Long Term Care Unit,931,1011 N GALLOWAY AVE,,MESQUITE,TX,75149,Dallas
Medical Center of Plano Long Term Care Unit,932,3901 W 15TH ST,,PLANO,TX,75075,Collin
Medical City Dallas Hospital Long Term Care Unit,933,7777 FOREST LN,,DALLAS,TX,75230,Dallas
Medical City Weatherford,934,713 E ANDERSON ST,,WEATHERFORD,TX,76086,Parker
Medina Regional Hospital,935,3100 AVENUE E,,HONDO,TX,78861,Medina
Medina Valley Health and Rehabilitation Center,936,913 US HIGHWAY 90 W,,CASTROVILLE,TX,78009,Medina
"MedStar Care Center, Inc",937,1747 E HEMPSTEAD ST,,GIDDINGS,TX,78942,Lee
Mel-Haven Convalescent Home,938,901 E 16TH AVE,,CORSICANA,TX,75110,Navarro
Memorial City Health and Rehabilitation Center,939,1341 BLALOCK RD,,HOUSTON,TX,77055,Harris
Memorial Health Care Center,940,212 NW 10TH ST,,SEMINOLE,TX,79360,Gaines
Memorial Hermann Baptist Beaumont and Orange Hospital Long Term Care Unit,941,608 STRICKLAND DR,FL 2,ORANGE,TX,77630,Orange
Memorial Hermann Baptist Hospital of Southeast Texas Long Term Care Unit,942,3080 COLLEGE ST,,BEAUMONT,TX,77701,Jefferson
Memorial Hermann Hospital Skilled Nursing Unit,943,6411 FANNIN ST,,HOUSTON,TX,77030,Harris
Memorial Hermann Memorial City Medical Center,944,921 GESSNER RD,,HOUSTON,TX,77024,Harris
Memorial Hermann Southwest Hospital,945,7600 BEECHNUT ST,,HOUSTON,TX,77074,Harris
Memorial Hermann Southwest Skilled Nursing Unit,946,7600 BEECHNUT ST,FL 8,HOUSTON,TX,77074,Harris
Memorial Hermann Spring Shadows Pines,947,3033 GESSNER RD,FL 1,HOUSTON,TX,77080,Harris
Memorial Hospital,948,209 NW 8TH ST,,SEMINOLE,TX,79360,Gaines
Memorial Medical Center,949,815 N VIRGINIA ST,,PORT LAVACA,TX,77979,Calhoun
Memorial Medical Nursing Center,950,307 W CYPRESS ST,,SAN ANTONIO,TX,78212,Bexar
Memorial Nursing and Rehabilitation Center,951,224 E 2ND ST,,DUMAS,TX,79029,Moore
Memphis Convalescent Center,952,1415 N 18TH ST,,MEMPHIS,TX,79245,Hall
Menard Manor,953,100 GAY ST,,MENARD,TX,76859,Menard
Mercy Nursing Home,954,3901 LOS ANGELES ST,,HOUSTON,TX,77026,Harris
Meridian Care,955,7181 CRESTWAY RD,,SAN ANTONIO,TX,78239,Bexar
Meridian Care of Alice,956,219 N KING ST,,ALICE,TX,78332,Jim Wells
Meridian Care Of Hebbronville,957,606 W GRUY ST,,HEBBRONVILLE,TX,78361,Jim Hogg
Meridian Care of Monte Vista,958,616 W RUSSELL PL,,SAN ANTONIO,TX,78212,Bexar
Meridian Of Temple,959,4312 S 31ST ST,,TEMPLE,TX,76502,Bell
Merkel Nursing Center,960,1704 N 1ST,,MERKEL,TX,79536,Taylor
Mesa Hills Specialty Hospital,961,2311 N OREGON ST,,EL PASO,TX,79902,El Paso
Mesa Springs Retirement Village,962,7171 BUFFALO GAP RD,,ABILENE,TX,79606,Taylor
Mesa Vista Health Center,963,5756 N KNOLL,,SAN ANTONIO,TX,78240,Bexar
"Mesquite Tree Nursing Center, LP",964,434 PAZA DR,,MESQUITE,TX,75149,Dallas
Mesquite Village Healthcare Centre,965,825 W KEARNEY ST,,MESQUITE,TX,75149,Dallas
Methodist Hospital Skilled Nursing Unit,966,6447 MAIN ST,,HOUSTON,TX,77030,Harris
Methodist Hospital South,967,1905 HIGHWAY 97 E,,JOURDANTON,TX,78026,Atascosa
Methodist Medical Center Transitional Care Unit,968,1441 N BECKLEY AVE,,DALLAS,TX,75203,Dallas
"Metroplex Nursing and Rehabilitation, LP",969,658 SW 3RD ST,,GRAND PRAIRIE,TX,75051,Dallas
Mexia LTC Nursing and Rehabilitation,970,601 TERRACE LN,,MEXIA,TX,76667,Limestone
Michael E DeBakey VA Medical Center,971,2002 HOLCOMBE BLVD,,HOUSTON,TX,77030,Harris
Mid Valley Nursing And Rehabilitation,972,601 N MILE 2 W,,MERCEDES,TX,78570,Hidalgo
Mid-Jefferson Hospital,973,2630 HIGHWAY 365,,NEDERLAND,TX,77627,Jefferson
Midland Medical Lodge,974,3000 MOCKINGBIRD,,MIDLAND,TX,79705,Midland
MIDLOTHIAN HEALTHCARE CENTER,975,900 GEORGE HOPPER RD,,MIDLOTHIAN,TX,76065,Ellis
Midwestern Healthcare Center,976,601 MIDWESTERN PKWY E,,WICHITA FALLS,TX,76302,Wichita
Millbrook Healthcare and Rehabilitation Center,977,1850 W PLEASANT RUN RD,,LANCASTER,TX,75146,Dallas
Mineola Healthcare Residence,978,716 MIMOSA DR,,MINEOLA,TX,75773,Wood
Mineral Wells Nursing and Rehabilitation,979,316 SW 25TH AVE,,MINERAL WELLS,TX,76067,Palo Pinto
Mira Vista Court,980,7021 BRYANT IRVIN RD,,FORT WORTH,TX,76132,Tarrant
Mirador,981,5857 TIMBERGATE DR,,CORPUS CHRISTI,TX,78414,Nueces
Mission Care Center,982,6150 SOUTH LOOP E,,HOUSTON,TX,77087,Harris
Mission Manor Healthcare Residence,983,501 YATES ST,,MOUNT VERNON,TX,75457,Franklin
Mission Nursing and Rehabilitation,984,1010 MACARTHUR ST,,CUERO,TX,77954,DeWitt
Mission Nursing and Rehabilitation Center,985,1013 S BRYAN RD,,MISSION,TX,78572,Hidalgo
Mission Oaks Care Center,986,1518 S SAM RAYBURN FWY,,SHERMAN,TX,75090,Grayson
Mission Ridge Nursing And Rehabilitation,987,401 SWIFT ST,,REFUGIO,TX,78377,Refugio
MISSION VALLEY NURSING AND TRANSITIONAL CARE,988,1200 S BRYAN RD,,MISSION,TX,78572,
Mitchell County Hospital District,989,997 W INTERSTATE 20,,COLORADO CITY,TX,79512,Mitchell
Mitchell County Nursing and Rehabilitation Center,990,1941 CHESTNUT ST,,COLORADO CITY,TX,79512,Mitchell
Modern Senior Living,991,3808 S CENTRAL EXPY,,DALLAS,TX,75215,Dallas
Monahans Managed Care Center,992,1200 W 15TH ST,,MONAHANS,TX,79756,Ward
Monarch Pavilion Rehabilitation,993,6825 HARRY HINES BLVD,,DALLAS,TX,75235,Dallas
"Monte Siesta Nursing and Rehabilitation, LP",994,4501 DUDMAR DR,,AUSTIN,TX,78735,Travis
Montebello Wellness Center,995,12350 WOOD BAYOU DR,,HOUSTON,TX,77013,Harris
Monument Hill Nursing And Rehabilitation Center,996,120 STATE LOOP 92,,LA GRANGE,TX,78945,Fayette
Moores Nursing Home,997,618 QUITMAN ST,,PITTSBURG,TX,75686,Camp
Morningside at The Meadows Health Care,998,2201 ST CLOUD,,SAN ANTONIO,TX,78228,
Morningside Manor Health Care,999,602 BABCOCK RD,,SAN ANTONIO,TX,78201,Bexar
Morningside Ministries at the Chandler Estate,1000,1502 HOWARD ST,,SAN ANTONIO,TX,78212,Bexar
Mother of Perpetual Help Nursing Home,1001,519 E MADISON ST,,BROWNSVILLE,TX,78520,Cameron
"MOUNT MORIAH HEALTH AND REHABILITATION, LLC",1002,355 FM 83 W,,HEMPHILL,TX,75948,
Mountain View Health And Rehabilitation,1003,1600 MURCHISON DR,,EL PASO,TX,79902,El Paso
Mountain View Lodge,1004,2009 VIRGINIA AVE,,BIG SPRING,TX,79720,Howard
Mountain Villa Skilled Nursing Facility,1005,2729 PORTER AVE,,EL PASO,TX,79930,El Paso
MRC Creekside,1006,1433 VETERANS MEMORIAL PKWY,,HUNTSVILLE,TX,77340,Walker
MRC Edgewater Retirement Community,1007,2228 SEAWALL BLVD,,GALVESTON,TX,77550,Galveston
Muenster Health and Rehabilitation,1008,711 W DIVISION ST,,MUENSTER,TX,76252,Cooke
Muenster Memorial Hospital Swing Bed,1009,605 N MAPLE ST,,MUENSTER,TX,76252,Cooke
Mulberry Manor,1010,1670 W LINGLEVILLE RD,,STEPHENVILLE,TX,76401,Erath
Muleshoe Area Medical Center,1011,708 S 1ST ST,,MULESHOE,TX,79347,Bailey
Mullican Care Center,1012,105 N MAIN,,SAVOY,TX,75479,Fannin
Munday Nursing Center,1013,421 W F ST,,MUNDAY,TX,76371,Knox
Mustang Creek Estates Of Keller,1014,675 RAPP RD,,KELLER,TX,76248,
Mystic Park Nursing and Rehabilitation Center,1015,8503 MYSTIC PARK,,SAN ANTONIO,TX,78254,Bexar
Nacogdoches Convalescent Center,1016,3305 NORTH ST,,NACOGDOCHES,TX,75965,Nacogdoches
Nacogdoches Memorial Hospital,1017,1204 N MOUND ST,,NACOGDOCHES,TX,75961,Nacogdoches
Navarro Regional Hospital,1018,3201 W STATE HIGHWAY 22,,CORSICANA,TX,75110,Navarro
Navarro Regional Hospital Transitional Care Unit,1019,3201 W STATE HIGHWAY 22,,CORSICANA,TX,75110,Navarro
Navasota Nursing And Rehabilitation,1020,1405 E WASHINGTON AVE,,NAVASOTA,TX,77868,Grimes
Nazareth Living Care Center,1021,1475 RAYNOLDS ST,,EL PASO,TX,79903,El Paso
Nesbit Living and Recovery Center,1022,1215 ASHBY ST,,SEGUIN,TX,78155,Guadalupe
New Boston Healthcare Center,1023,210 RICE ST,,NEW BOSTON,TX,75570,Bowie
"New Era Nursing and Rehabilitation, LLP",1024,3510 SHERMAN ST,,HOUSTON,TX,77003,Harris
New Hope Manor,1025,1623 W NEW HOPE DR,,CEDAR PARK,TX,78613,Williamson
Nix Health Care System,1026,414 NAVARRO ST,,SAN ANTONIO,TX,78205,Bexar
Nix Medical Center,1027,414 NAVARRO ST,,SAN ANTONIO,TX,78205,Bexar
Nocona General Hospital,1028,100 PARK RD,,NOCONA,TX,76255,Montague
Nocona Nursing Home,1029,306 CAROLYN RD,,NOCONA,TX,76255,Montague
"Nolan Nursing and Rehabilitation, LP",1030,705 NE GEORGIA AVE,,SWEETWATER,TX,79556,Nolan
Normandy Terrace Healthcare and Rehabilitation Center,1031,841 RICE RD,,SAN ANTONIO,TX,78220,Bexar
NORTH HOUSTON TRANSITIONAL CARE,1032,9814 GRANT RD,,HOUSTON,TX,77070,
North Park Health and Rehabilitation Center,1033,1720 N MCDONALD ST,,MC KINNEY,TX,75071,Collin
"North Pointe Nursing and Rehabilitation, LP",1034,7804 VIRGIL ANTHONY BLVD,,WATAUGA,TX,76148,Tarrant
North Runnels Hospital,1035,7821 STATE HIGHWAY 153,,WINTERS,TX,79567,Runnels
North Texas Medical Center,1036,1900 HOSPITAL BLVD,,GAINESVILLE,TX,76240,Cooke
Northeast Medical Center Hospital Long Term Care Unit,1037,18951 N MEMORIAL DR,,HUMBLE,TX,77338,Harris
Northeast Rehabilitation Center,1038,603 CORINNE DR,,SAN ANTONIO,TX,78218,Bexar
Northern Oaks Living and Rehabilitation Center,1039,2722 OLD ANSON RD,,ABILENE,TX,79603,Taylor
Northgate Health and Rehabilitation Center,1040,5757 N KNOLL,,SAN ANTONIO,TX,78240,Bexar
Northgate Plaza Nursing and Rehabilitation Center,1041,2101 W NORTHGATE DR,,IRVING,TX,75062,Dallas
Northway Health Care Center,1042,5329 NORTH FWY,,HOUSTON,TX,77022,Harris
Northwest Health and Rehabilitation Center,1043,17600 CALI DR,,HOUSTON,TX,77090,Harris
Northwood Healthcare Center,1044,1109 NORTHWOOD DR,,MARBLE FALLS,TX,78654,Burnet
Oak Grove Nursing Home,1045,6230 WARREN ST,,GROVES,TX,77619,Jefferson
"Oak Manor Nursing and Rehabilitation, LP",1046,2901 STERLING HART DR,,COMMERCE,TX,75428,Hunt
Oak Manor Nursing Home,1047,1200 FERGUSON ST,,NACOGDOCHES,TX,75961,Nacogdoches
Oak Parks Nursing and Rehabilitation Center,1048,7302 OAK MANOR DR,,SAN ANTONIO,TX,78229,Bexar
Oak Ridge Manor,1049,2501 MORRIS SHEPPARD DR,,BROWNWOOD,TX,76801,Brown
Oak Village Healthcare,1050,204 OAK DR S,,LAKE JACKSON,TX,77566,Brazoria
Oakbend Medical Center Skilled Nursing Facility,1051,1705 JACKSON ST,FL 1,RICHMOND,TX,77469,Fort Bend
Oakbrook Healthcare Center,1052,107 STACY DR,,WHITEHOUSE,TX,75791,Smith
Oakcrest Nursing And Rehab Center,1053,9808 CROFFORD LN,,AUSTIN,TX,78724,Travis
"Oakland Manor Nursing Center, LP",1054,1400 N MAIN ST,,GIDDINGS,TX,78942,Lee
Oakmont Healthcare and Rehabilitation Center of Katy,1055,1525 TULL DR,,KATY,TX,77449,Harris
Oakmont Healthcare and Rehabilitation of Humble,1056,8450 WILL CLAYTON PKWY,,HUMBLE,TX,77338,Harris
Oaks At White Settlement,1057,8001 WESTERN HILLS BLVD,,FORT WORTH,TX,76108,Tarrant
Oaks Nursing Center,1058,507 W JACKSON ST,,BURNET,TX,78611,Burnet
"Oakview Healthcare Residence, Ltd",1059,506 HICKORY AVE,,HUBBARD,TX,76648,Hill
Oakwood Manor Nursing Home,1060,225 S MAIN ST,,VIDOR,TX,77662,Orange
"Oakwood Nursing and Rehabilitation, LP",1061,301 W RANDOL MILL RD,,ARLINGTON,TX,76011,Tarrant
Oasis Nursing and Rehabilitation Center,1062,9001 N LOOP DR,,EL PASO,TX,79907,El Paso
Ochiltree General Hospital,1063,3101 GARRETT DR,,PERRYTON,TX,79070,Ochiltree
Odd Fellow and Rebekah Nursing and Rehab Center,1064,2300 S OAK GROVE RD,,ENNIS,TX,75119,Ellis
Olin E Teague Veterans Medical Center,1065,1901 VETERANS MEMORIAL DRIVE,,TEMPLE,TX,76508,Bell
Olney Healthcare Center,1066,1302 W PAYNE ST,,OLNEY,TX,76374,Young
Omaha Healthcare Center,1067,205 GILES ST,,OMAHA,TX,75571,Morris
One Heartland San Antonio Wellness And Rehabilitation,1068,1 HEARTLAND DR,,SAN ANTONIO,TX,78247,Bexar
Onion Creek Nursing And Rehabilitation Center,1069,1700 ONION CREEK PKWY,,AUSTIN,TX,78748,Travis
OnPointe Transitional Care at Texas Health Arlington Memorial Hospital,1070,800 W RANDOL MILL RD,6TH FLOOR SOUTH TOWER,ARLINGTON,TX,76012,
OnPointe Transitional Care at Texas Health Presbyterian Hospital Dallas,1071,8200 WALNUT HILL LN,,DALLAS,TX,75231,Dallas
Orange Villa Nursing and Rehabilitation,1072,510 3RD ST,,ORANGE,TX,77630,Orange
Otto Kaiser Memorial Hospital,1073,3349 S HIGHWAY 181,,KENEDY,TX,78119,Karnes
Overton Healthcare Center,1074,1110 STATE HIGHWAY 135 S,,OVERTON,TX,75684,Rusk
PADUCAH NURSING CENTER,1075,800 SEVENTH ST,,PADUCAH,TX,79248,
Paducah Nursing Center,1076,800 7TH ST,,PADUCAH,TX,79248,Cottle
Palacios Community Medical Center,1077,311 GREEN AVE,,PALACIOS,TX,77465,Matagorda
Palacios Healthcare Center,1078,1414 4TH ST,,PALACIOS,TX,77465,Matagorda
Palestine Healthcare Center,1079,1816 TILE FACTORY RD,,PALESTINE,TX,75803,Anderson
Palestine Regional Medical Center,1080,2900 S LOOP 256,,PALESTINE,TX,75801,Anderson
Palma Real Nursing Center,1081,1220 LOOP 459,,MATHIS,TX,78368,San Patricio
"Palo Duro Nursing and Rehabilitation, LP",1082,1931 MEDI PARK DR,,AMARILLO,TX,79106,Potter
Palo Duro Nursing Home,1083,405 S COLLINS ST,,CLAUDE,TX,79019,Armstrong
Palo Pinto General Hospital,1084,400 SW 25TH AVE,,MINERAL WELLS,TX,76067,Palo Pinto
Palo Pinto Nursing Center and Rehabilitation,1085,200 SW 25TH AVE,,MINERAL WELLS,TX,76067,Palo Pinto
Palomino Place,1086,3160 GUS THOMASSON RD,,MESQUITE,TX,75150,
Pam Specialty Hospital Of Luling,1087,200 MEMORIAL DR,,LULING,TX,78648,Caldwell
Pampa Nursing Center,1088,1321 W KENTUCKY AVE,,PAMPA,TX,79065,Gray
Pampa Regional Medical Center,1089,1 MEDICAL PLZ,,PAMPA,TX,79065,Gray
Pampa Regional Medical Center Extended Care Unit,1090,1 MEDICAL PLZ,,PAMPA,TX,79065,Gray
Panola Nursing and Rehabilitation Center,1091,501 COTTAGE RD,,CARTHAGE,TX,75633,Panola
Paradigm At First Colony,1092,4710 LEXINGTON BLVD,,MISSOURI CITY,TX,77459,Fort Bend
Paradigm At Woodwind Lakes,1093,7215 WINDFERN RD,,HOUSTON,TX,77040,Harris
Paris Health Care Center,1094,610 DESHONG DR,,PARIS,TX,75460,Lamar
"Paris Skilled Nursing Facility, Inc",1095,820 CLARKSVILLE ST,FL 7,PARIS,TX,75460,Lamar
Park Bend Sn Health Center,1096,2122 PARK BEND DR,,AUSTIN,TX,78758,Travis
Park Highland Nursing Center,1097,711 LUCAS DR,,ATHENS,TX,75751,Henderson
Park Manor Bee Cave,1098,14058 BEE CAVE PKWY,,AUSTIN,TX,78738,Travis
Park Manor Health Care And Rehabilitation,1099,207 E PARKERVILLE RD,,DESOTO,TX,75115,Dallas
Park Manor of Conroe,1100,1600 GRAND LAKE DR,,CONROE,TX,77304,Montgomery
Park Manor of Cyfair,1101,11001 CRESCENT MOON DR,,HOUSTON,TX,77064,Harris
Park Manor of Cypress Station,1102,420 LANTERN BEND DR,,HOUSTON,TX,77090,Harris
Park Manor of Humble,1103,19424 MCKAY DR,,HUMBLE,TX,77338,Harris
Park Manor of McKinney,1104,1801 PEARSON AVE,,MCKINNEY,TX,75069,Collin
Park Manor of Quail Valley,1105,2350 FM 1092 RD,,MISSOURI CITY,TX,77459,Fort Bend
Park Manor of The Woodlands,1106,1014 WINDSOR LAKES BLVD,,THE WOODLANDS,TX,77384,Montgomery
Park Manor of Tomball,1107,250 SCHOOL ST,,TOMBALL,TX,77375,Harris
Park Manor of Westchase,1108,11910 RICHMOND AVE,,HOUSTON,TX,77082,Harris
Park Manor South Belt,1109,11902 RESOURCE PKWY,,HOUSTON,TX,77089,Harris
Park Place Health Care Center,1110,121 FM 971,,GEORGETOWN,TX,78626,Williamson
Park Place Manor,1111,810 E 13TH AVE,,BELTON,TX,76513,Bell
Park Place Nursing,1112,2450 E 5TH ST,,TYLER,TX,75701,Smith
Park Place Retirement Home,1113,101 FM 971,,GEORGETOWN,TX,78626,Williamson
PARK PLAZA,1114,1201 MCLENNAN AVE,,MART,TX,76664,
Park Plaza,1115,1201 E MCLENNAN AVE,,MART,TX,76664,McLennan
Park Plaza Hospital Long Term Care Unit,1116,1313 HERMANN DR,FL 3,HOUSTON,TX,77004,Harris
Park Plaza Nursing and Rehabilitation,1117,2210 HOWARD ST,,SAN ANGELO,TX,76901,Tom Green
Park Plaza Nursing Home,1118,1244 STATE PARK RD,,WHITNEY,TX,76692,Hill
Park Terrace,1119,505 S SYLVAN AVE,,PALESTINE,TX,75801,Anderson
Park Valley Inn Health Center,1120,17751 PARK VALLEY DR,,ROUND ROCK,TX,78681,Williamson
Park View Care Center,1121,3301 VIEW ST,,FORT WORTH,TX,76103,Tarrant
Park View Nursing and Rehabilitation,1122,3200 PARKWAY RD,,BIG SPRING,TX,79720,Howard
Park View Nursing Care Center,1123,1100 W AVENUE J,,MULESHOE,TX,79347,Bailey
Parklane West,1124,2 TOWERS PARK LN,,SAN ANTONIO,TX,78209,Bexar
Parkview Hospital,1125,901 SWEETWATER ST,,WHEELER,TX,79096,Wheeler
Parkview Manor Nursing and Rehabilitation,1126,206 N SMITH ST,,WEIMAR,TX,78962,Colorado
Parkview Nursing And Rehabilitation Center,1127,1501 S MAIN ST,,LOCKHART,TX,78644,Caldwell
Parkview Regional Hospital,1128,600 S BONHAM ST,,MEXIA,TX,76667,Limestone
Parkway Place,1129,1321 PARK BAYOU DR,,HOUSTON,TX,77077,Harris
Parkwood Healthcare Community,1130,2600 PARKVIEW LN,,BEDFORD,TX,76022,Tarrant
Parkwood In The Pines,1131,902 HILL ST,,LUFKIN,TX,75904,Angelina
Parkwood Place Healthcare Center,1132,300 N BYNUM ST,,LUFKIN,TX,75904,Angelina
Parmer Medical Center,1133,1307 CLEVELAND AVE,,BLACK,TX,79035,Parmer
Parsons House,1134,808 GUADALUPE ST,,KERRVILLE,TX,78028,Kerr
Pasadena Care Center,1135,4006 VISTA RD,,PASADENA,TX,77504,Harris
Pathways Memory Care At Villa Toscana,1136,2930 CYPRESS GROVE MEADOW DR,,HOUSTON,TX,77014,Harris
Patriot Heights San Antonio,1137,5000 FAWN MDWS,,SAN ANTONIO,TX,78240,Bexar
Patriot Rehabilitation And Wellness Center,1138,11490 GATEWAY N BLVD,,EL PASO,TX,79934,
Peach Tree Place,1139,315 W ANDERSON ST,,WEATHERFORD,TX,76086,Parker
Pearl Nordan Care Center,1140,200 S FULTON ST,,DALLAS,TX,75214,Dallas
Pearl Nordan Care Center Of Juliette Fowler Communities,1141,1260 ABRAMS RD,,DALLAS,TX,75214,Dallas
Pearsall Nursing and Rehabilitation Center South,1142,320 S ASH ST,,PEARSALL,TX,78061,Frio
Pearsall Skilled Nursing and Rehabilitation Center,1143,169 MEDICAL DR,,PEARSALL,TX,78061,Frio
Pebble Creek Nursing Center,1144,11608 SCOTT SIMPSON DR,,EL PASO,TX,79936,El Paso
Pecan Manor Nursing And Rehabilitation,1145,413 MANSFIELD CARDINAL RD,,KENNEDALE,TX,76060,Tarrant
Pecan Tree Rehab and Healthcare Center,1146,1900 E CALIFORNIA ST,,GAINESVILLE,TX,76240,Cooke
Pecan Valley Healthcare Residence,1147,1405 W STOREY ST,,SAN SABA,TX,76877,San Saba
Pecan Valley Rehabilitation And Healthcare Center,1148,3838 E SOUTHCROSS BLVD,,SAN ANTONIO,TX,78222,Bexar
Pecos County Memorial Hospital,1149,387 W INTERSTATE 10,,FORT STOCKTON,TX,79735,Pecos
Pennsylvania Rehab,1150,901 PENNSYLVANIA AVE,,FORT WORTH,TX,76104,Tarrant
Permian Regional Medical Center,1151,720 HOSPITAL DR,,ANDREWS,TX,79714,Andrews
Permian Residential Care Center,1152,1601 NE MUSTANG DR,,ANDREWS,TX,79714,Andrews
Petal Hill Nursing and Rehabilitation Center,1153,900 S BAXTER AVE,,TYLER,TX,75701,Smith
Peterson Regional Medical Center Skilled Nursing Facility,1154,551 HILL COUNTRY DR,,KERRVILLE,TX,78028,Kerr
Pflugerville Care Center,1155,521 S HEATHERWILDE BLVD,,PFLUGERVILLE,TX,78660,Travis
Pflugerville Nursing and Rehabilitation Center,1156,104 REX KERWIN CT,,PFLUGERVILLE,TX,78660,Travis
Pharr Nursing Home,1157,204 S CASA RD,,PHARR,TX,78577,Hidalgo
Pilot Point Care Center,1158,208 N PRAIRIE ST,,PILOT POINT,TX,76258,Denton
Pine Arbor,1159,705 HIGHWAY 418 W,,SILSBEE,TX,77656,Hardin
Pine Crest Nursing Home,1160,2612 WILLIAMS ST,,NACOGDOCHES,TX,75964,Nacogdoches
Pine Forest Nursing and Rehabilitation Center,1161,11025 VOTH RD,,BEAUMONT,TX,77713,Jefferson
Pine Grove,1162,246 HALEY DR,,CENTER,TX,75935,Shelby
"Pine Ridge Health Care, LLP",1163,1620 HIGHWAY 59 LOOP N,,LIVINGSTON,TX,77351,Polk
Pine Shadow Retreat,1164,23450 PINE SHADOW LN,,PORTER,TX,77365,
Pine Shadow Retreat,1165,23450 PINE SHADOWS LN,,PORTER,TX,77365,Montgomery
Pine Tree Lodge Nursing Center,1166,2711 PINE TREE RD,,LONGVIEW,TX,75604,Gregg
Pinecrest Nursing and Rehabilitation Center,1167,3505 OLD JACKSONVILLE RD,,TYLER,TX,75701,Smith
Pinecrest Retirement Community,1168,1302 TOM TEMPLE DR,,LUFKIN,TX,75904,Angelina
Pinehurst Nursing and Rehabilitation,1169,3000 CARDINAL ST,,ORANGE,TX,77630,Orange
Pittsburg Nursing Center,1170,123 PECAN BLVD,,PITTSBURG,TX,75686,Camp
Plains Memorial Hospital,1171,310 W HALSELL ST,,DIMMITT,TX,79027,Castro
Plainview Healthcare Center,1172,2510 W 24TH ST,,PLAINVIEW,TX,79072,Hale
Plano Surgical Hospital,1173,2301 MARSH LN,,PLANO,TX,75093,Collin
Pleasant Manor Health and Rehabilitation Center,1174,3650 S INTERSTATE HIGHWAY 35 E,,WAXAHACHIE,TX,75165,Ellis
Pleasant Springs Healthcare Center,1175,2003 N EDWARDS AVE,,MOUNT PLEASANT,TX,75455,Titus
Pleasant Valley Healthcare and Rehabilitation Center,1176,1525 PLEASANT VALLEY RD,,GARLAND,TX,75040,Dallas
Ponderosa Nursing and Rehabilitation,1177,12520 FM 1840,,DE KALB,TX,75559,Bowie
Port Lavaca Nursing and Rehabilitation Center,1178,524 VILLAGE RD,,PORT LAVACA,TX,77979,Calhoun
Post Nursing and Rehabilitation Center,1179,605 W 7TH ST,,POST,TX,79356,Garza
Poteet Manor,1180,329 SCHOOL DR,,POTEET,TX,78065,Atascosa
Prairie Acres Rehabilitation And Nursing Friona Heritage Estates,1181,201 E 15TH ST,,FRIONA,TX,79035,Parmer
Prairie Estates,1182,1350 MAIN ST,,FRISCO,TX,75033,Collin
Prairie House Living Center,1183,1301 MESA DR,,PLAINVIEW,TX,79072,Hale
Premont Rehab and Nursing Center,1184,431 NW 3RD ST,,PREMONT,TX,78375,Jim Wells
Presbyterian Hospital of Dallas Long Term Care Unit,1185,8200 WALNUT HILL LN,,DALLAS,TX,75231,Dallas
"Presbyterian Manor, Inc",1186,4600 TAFT BLVD,,WICHITA FALLS,TX,76308,Wichita
Presbyterian Village North,1187,8600 SKYLINE DR,,DALLAS,TX,75243,Dallas
Prestonwood Rehabilitation and Nursing Center,1188,2460 MARSH LN,,PLANO,TX,75093,Collin
Promise Skilled Nursing Facility of Wichita Falls,1189,1101 GRACE ST,,WICHITA FALLS,TX,76301,Wichita
Providence Memorial Hospital Skilled Nursing Facility,1190,2001 N OREGON ST,,EL PASO,TX,79902,El Paso
Providence Park of Tyler,1191,5505 NEW COPELAND RD,,TYLER,TX,75703,Smith
Quality Care of Waco,1192,2501 MAPLE AVE,,WACO,TX,76707,McLennan
Quanah Nursing Center,1193,1106 W 14TH ST,,QUANAH,TX,79252,Hardeman
Quentin Mease Community Hospital,1194,3601 N MACGREGOR WAY,,HOUSTON,TX,77004,Harris
Quentin Mease Community Hospital Long Term Care Unit,1195,3601 N MACGREGOR WAY,,HOUSTON,TX,77004,Harris
Querencia at Barton Creek,1196,2500 BARTON CREEK BLVD,,AUSTIN,TX,78735,Travis
Ralls Nursing Home,1197,1111 AVENUE P,,RALLS,TX,79357,Crosby
Rambling Oaks Courtyard Extensive Care Community,1198,112 BARNETT DR,,HIGHLAND VILLAGE,TX,75077,Denton
Ranger Care Center,1199,460 W MAIN ST,,RANGER,TX,76470,Eastland
Rankin County Hospital District,1200,1611 SPUR 576,,RANKIN,TX,79778,Upton
RAPID RECOVERY CENTER OF FORT WORTH,1201,6301 OAKMONT BLVD,,FORT WORTH,TX,76132,
Rapid Recovery Center Of Waco,1202,5801 CROSSLAKE PKWY,,WACO,TX,76712,
Rayburn Health Care and Rehabilitation,1203,144 BULLDOG AVE,,JASPER,TX,75951,Jasper
Reagan Hospital District,1204,1300 N MAIN AVE,,BIG LAKE,TX,76932,Reagan
Reagan Memorial,1205,1300 N MAIN AVE,,BIG LAKE,TX,76932,Reagan
Red Oak Health And Rehabilitation Center,1206,101 REESE DR,,RED OAK,TX,75154,Ellis
Red River Healthcare Center,1207,319 PARIS RD,,BOGATA,TX,75417,Red River
Redbud Retreat,1208,102 FLOYD ST,,NAPLES,TX,75568,Morris
Reeves County Hospital District,1209,2323 TEXAS ST,,PECOS,TX,79772,Reeves
Refugio County Memorial Hospital,1210,107 SWIFT ST,,REFUGIO,TX,78377,Refugio
Refugio Manor Skilled Nursing and Rehabilitation Center,1211,201 SWIFT ST,,REFUGIO,TX,78377,Refugio
Regal Nursing and Rehabilitation Center,1212,1000 E AVENUE J,,LAMPASAS,TX,76550,Lampasas
Regency Manor Healthcare Center,1213,3011 W ADAMS AVE,,TEMPLE,TX,76504,Bell
"Regency Manor Nursing and Rehabilitation, LP",1214,1615 11TH ST,,FLORESVILLE,TX,78114,Wilson
Regency Village,1215,409 GREENE ST,,WEBSTER,TX,77598,Harris
Regent Care Center at Medical Center,1216,3935 MEDICAL DR,,SAN ANTONIO,TX,78229,Bexar
Regent Care Center of El Paso,1217,10880 EDGEMERE BLVD,,EL PASO,TX,79935,El Paso
Regent Care Center of Kingwood,1218,23775 KINGWOOD PLACE DR,,KINGWOOD,TX,77339,Harris
Regent Care Center of Laredo,1219,7001 MCPHERSON RD,,LAREDO,TX,78041,Webb
Regent Care Center of League City,1220,2620 W WALKER ST,,LEAGUE CITY,TX,77573,Galveston
Regent Care Center of Oakwell Farms,1221,8501 LAURENS LN,,SAN ANTONIO,TX,78218,Bexar
Regent Care Center of San Marcos,1222,1351 SADLER DR,,SAN MARCOS,TX,78666,Hays
Regent Care Center of the Woodlands,1223,10450 GOSLING RD,,THE WOODLANDS,TX,77381,Montgomery
Regent Care Center of Woodway,1224,7801 WOODWAY DR,,WACO,TX,76712,McLennan
Regent Care Center San Antonio,1225,16400 BLANCO RD,,SAN ANTONIO,TX,78232,Bexar
Remarkable Healthcare Of Dallas,1226,3350 BONNIE VIEW RD,,DALLAS,TX,75216,Dallas
"REMARKABLE HEALTHCARE OF DALLAS, LP",1227,3350 BONNIE VIEW ROAD,,DALLAS,TX,75216,
REMARKABLE HEALTHCARE OF FORT WORTH,1228,6649 N RIVERSIDE DR,,FORT WORTH,TX,76137,
Remarkable Healthcare Of Fort Worth Lp,1229,6649 N RIVERSIDE DR,,FORT WORTH,TX,76137,Tarrant
Remarkable Healthcare Of Prestonwood,1230,4501 PLANO PKWY,,CARROLLTON,TX,75010,Denton
Remarkable Healthcare Of Seguin,1231,1339 EASTWOOD DR,,SEGUIN,TX,78155,Guadalupe
Remington Transitional Care of Richardson,1232,1350 E LOOKOUT DR,,RICHARDSON,TX,75082,Dallas
REMINGTON TRANSITIONAL CARE OF SAN ANTONIO,1233,5423 HAMILTON WOLFE RD,,SAN ANTONIO,TX,78229,Bexar
Renaissance Care Center,1234,1400 BLACK HILL DR,,GAINESVILLE,TX,76240,Cooke
Renaissance Park Multi Care Center,1235,4252 BRYANT IRVIN RD,,BENBROOK,TX,76109,Tarrant
Renaissance Park MultiCare Center,1236,4252 BRYANT IRVIN RD,,FORT WORTH,TX,76109,
Renaissance Villa,1237,700 DYER ST,,ROCKDALE,TX,76567,Milam
Resort Lodge,1238,401 NW 4TH ST,,MINERAL WELLS,TX,76067,Palo Pinto
Retama Manor Nursing Center Alice,1239,606 COYOTE TRL,,ALICE,TX,78332,Jim Wells
Retama Manor Nursing Center Corpus Christi North,1240,2322 MORGAN AVE,,CORPUS CHRISTI,TX,78405,Nueces
Retama Manor Nursing Center Edinburg,1241,1505 S CLOSNER BLVD,,EDINBURG,TX,78539,Hidalgo
Retama Manor Nursing Center Harlingen,1242,820 CAMELOT DR,,HARLINGEN,TX,78550,Cameron
Retama Manor Nursing Center Jourdanton,1243,1504 E STATE HIGHWAY 97,,JOURDANTON,TX,78026,Atascosa
Retama Manor Nursing Center Laredo South,1244,1100 GALVESTON ST,,LAREDO,TX,78040,Webb
Retama Manor Nursing Center Laredo West,1245,1200 E LANE ST,,LAREDO,TX,78040,Webb
Retama Manor Nursing Center McAllen,1246,900 S 12TH ST,,MCALLEN,TX,78501,Hidalgo
Retama Manor Nursing Center Pleasanton North,1247,404 W GOODWIN ST,,PLEASANTON,TX,78064,Atascosa
Retama Manor Nursing Center Pleasanton South,1248,905 W OAKLAWN RD,,PLEASANTON,TX,78064,Atascosa
Retama Manor Nursing Center Raymondville,1249,1700 S EXPRESSWAY 77,,RAYMONDVILLE,TX,78580,Willacy
Retama Manor Nursing Center Rio Grande City,1250,400 PETE DIAZ JR AVE,,RIO GRANDE CITY,TX,78582,Starr
Retama Manor Nursing Center San Antonio North,1251,501 OGDEN ST,,SAN ANTONIO,TX,78212,Bexar
Retama Manor Nursing Center San Antonio West,1252,636 CUPPLES RD,,SAN ANTONIO,TX,78237,Bexar
Retama Manor Nursing Home,1253,721 S AIRPORT DR,,WESLACO,TX,78596,Hidalgo
Retama Manor South,1254,3103 E AIRLINE RD,,VICTORIA,TX,77901,Victoria
Reunion Plaza Healthcare and Rehabilitation,1255,1401 RICE RD,,TYLER,TX,75703,Smith
Reunion Plaza Senior Care Center,1256,1401 HAMPTON RD,,TEXARKANA,TX,75503,Bowie
Rice Medical Center,1257,600 S AUSTIN RD,,EAGLE LAKE,TX,77434,Colorado
Rice Springs Care Home,1258,1302 N 1ST ST,,HASKELL,TX,79521,Haskell
Riceland Medical Center,1259,538 BROADWAY,,WINNIE,TX,77665,Chambers
Richland Hills Nursing and Rehabilitation Center,1260,3109 KINGS CT,,FORT WORTH,TX,76118,Tarrant
Richmond Health Care Center,1261,705 JACKSON ST,,RICHMOND,TX,77469,Fort Bend
RIDGECREST HEALTHCARE AND REHABILITATION CENTER,1262,561 E RIDGECREST RD,,FORNEY,TX,75126,
Ridgecrest Healthcare And Rehabilitation Center,1263,561 RIDGECREST RD,,FORNEY,TX,75126,Kaufman
Ridgecrest Retirement Center,1264,1900 W STATE HIGHWAY 6,,WOODWAY,TX,76712,McLennan
Ridgeview Rehabilitation and Skilled Nursing,1265,206 WALLS DR,,CLEBURNE,TX,76033,Johnson
Ridgmar Medical Lodge,1266,6600 LANDS END CT,,FORT WORTH,TX,76116,Tarrant
Rio Grande City Nursing and Rehabilitation Center,1267,2530 CENTRAL PALM DR,,RIO GRANDE CITY,TX,78582,Starr
Rising Star Nursing Center,1268,411 S MILLER ST,,RISING STAR,TX,76471,Eastland
River City Care Center,1269,921 NOLAN ST,,SAN ANTONIO,TX,78202,Bexar
River Hills Health and Rehabilitation Center,1270,2090 BANDERA HWY,,KERRVILLE,TX,78028,Kerr
River Oaks Health and Rehabilitation Center,1271,2416 NW 18TH ST,,FORT WORTH,TX,76106,Tarrant
River Ridge Nursing And Rehabilitation,1272,3922 W RIVER DR,,CORPUS CHRISTI,TX,78410,Nueces
River Valley Health and Rehabilitation Center,1273,1907 REFINERY RD,,GAINESVILLE,TX,76240,Cooke
Rivercrest Nursing and Rehabilitation,1274,120 WARDEN LN,,SAN MARCOS,TX,78666,Hays
Riverside Rehabilitation and Health Care Center,1275,6801 E RIVERSIDE DR,,AUSTIN,TX,78741,Travis
Riverview Nursing And Rehabilitation,1276,1102 RIVER RD,,BOERNE,TX,78006,Kendall
Riverwood Healthcare and Rehabilitation,1277,600 BACON ST,,MADISONVILLE,TX,77864,Madison
Robert Lee Care Center,1278,307 W 8TH ST,,ROBERT LEE,TX,76945,Coke
Robstown Nursing And Rehabilitation Center,1279,603 E AVENUE J,,ROBSTOWN,TX,78380,Nueces
Rock Creek Health and Rehabilitation,1280,1414 COLLEGE ST,,SULPHUR SPRINGS,TX,75482,Hopkins
"Rock Haven Nursing Home, Inc",1281,401 SE STALLINGS DR,,NACOGDOCHES,TX,75964,Nacogdoches
Rockdale Hospital,1282,1700 BRAZOS AVE,,ROCKDALE,TX,76567,Milam
Rockdale Residence and Rehabilitation Center,1283,222 S FM 487,,ROCKDALE,TX,76567,Milam
Rockport Coastal Care Center,1284,1004 S YOUNG ST,,ROCKPORT,TX,78382,Aransas
Rockport Nursing And Rehabilitation Center,1285,1902 FM 3036,,ROCKPORT,TX,78382,Aransas
Rockwall Nursing Care Center,1286,206 STORRS ST,,ROCKWALL,TX,75087,Rockwall
Rolling Meadows,1287,3006 MCNIEL AVE,,WICHITA FALLS,TX,76309,Wichita
Rolling Plains Memorial Hospital,1288,200 E ARIZONA AVE,,SWEETWATER,TX,79556,Nolan
ROLLINGBROOK REHABILITATION AND HEALTHCARE CENTER,1289,750 ROLLINGBROOK DR,,BAYTOWN,TX,77521,
Rollins Brook Community Hospital,1290,608 N KEY AVE,,LAMPASAS,TX,76550,Lampasas
Roscoe Healthcare Center,1291,201 CYPRESS ST,,ROSCOE,TX,79545,Nolan
Rose Haven Retreat,1292,200 LIVE OAK DR,,ATLANTA,TX,75551,Cass
Rose Trail Nursing And Rehabilitation Center,1293,930 S BAXTER AVE,,TYLER,TX,75701,Smith
"Rosenberg Health and Rehabilitation Center, LP",1294,1419 MAHLMANN ST,,ROSENBERG,TX,77471,Fort Bend
Rosewood Rehabilitation and Care Center,1295,7700 MESQUITE PASS,,CONVERSE,TX,78109,Bexar
Rotan Healthcare Center,1296,711 E 5TH ST,,ROTAN,TX,79546,Fisher
Rowlett Health and Rehabilitation Center,1297,9300 LAKEVIEW PKWY,,ROWLETT,TX,75088,Dallas
Royal Manor East,1298,9101 PANTHERWAY,,WACO,TX,76712,McLennan
Royal Manor Health Center,1299,9114 ROYAL LN,,WACO,TX,76712,McLennan
Royal Oaks Residence and Rehabilitation Center,1300,2939 WOODLAND PARK DR,,HOUSTON,TX,77082,Harris
Royse City Health and Rehabilitation Center,1301,901 W INTERSTATE 30,,ROYSE CITY,TX,75189,Rockwall
Runningwater Draw Care Center,1302,800 W 13TH ST,,OLTON,TX,79064,Lamb
Sabine County Hospital,1303,2301 HIGHWAY 83 W,,HEMPHILL,TX,75948,Sabine
Sagebrook Health Center,1304,901 DISCOVERY BLVD,,CEDAR PARK,TX,78613,Williamson
Sagecrest Alzheimers Care Center,1305,438 E HOUSTON HARTE EXPY,,SAN ANGELO,TX,76903,
Saint Anns Nursing Home,1306,125 SAINT ANNS DR,,PANHANDLE,TX,79068,Carson
SAINT ANTHONY'S CARE CENTER,1307,7501 BAGBY AVE,,WACO,TX,76712,
Saint Catherine Center,1308,300 W STATE HIGHWAY 6,,WACO,TX,76712,McLennan
Saint Dominic Village,1309,2409 HOLCOMBE BLVD,,HOUSTON,TX,77021,Harris
Saint Francis Nursing Home,1310,630 W WOODLAWN AVE,,SAN ANTONIO,TX,78212,Bexar
Saint James House of Baytown,1311,5800 W BAKER RD,,BAYTOWN,TX,77520,Harris
Saint Joseph Medical Center Skilled Nursing Facility,1312,1401 ST JOSEPH PKWY,,HOUSTON,TX,77002,Harris
Saint Joseph Regional Health Center,1313,2801 FRANCISCAN DR,,BRYAN,TX,77802,Brazos
Saint Marks Medical Center,1314,1 SAINT MARKS PL,,LA GRANGE,TX,78945,Fayette
Saint Paul Professional Care Center Inc,1315,1950 RECORD CROSSING RD,,DALLAS,TX,75235,Dallas
Saint Teresa Nursing and Rehabilitation Center,1316,10350 MONTANA AVE,,EL PASO,TX,79925,El Paso
San Antonio Residence and Rehabilitation Center,1317,7703 BRIARIDGE DR,,SAN ANTONIO,TX,78230,Bexar
SAN GABRIEL REHABILITATION AND CARE CENTER,1318,4100 COLLEGE PARK DR,,ROUND ROCK,TX,78665,
San Gabriel Rehabilitation and Care Center,1319,4100 COLLEGE PARK DR,,ROUND ROCK,TX,78665,
SAN GABRIEL REHABILITATION AND CARE CENTER,1320,4100 COLLEGE PARK DR,,ROUND ROCK,TX,78665,
San Jacinto Manor Skilled Nursing And Rehab,1321,206 W P ST,,DEER PARK,TX,77536,Harris
San Jacinto Methodist Hospital Alexander Campus,1322,1700 JAMES BOWIE DR,,BAYTOWN,TX,77520,Harris
San Jacinto Methodist Hospital Skilled Nursing Facility Alexander Campus,1323,1700 JAMES BOWIE DR,,BAYTOWN,TX,77520,Harris
San Jose Nursing Center,1324,406 SHARMAIN PL,,SAN ANTONIO,TX,78221,Bexar
"San Juan Nursing Home, Inc",1325,300 N NEBRASKA AVE,,SAN JUAN,TX,78589,Hidalgo
San Marcos Rehabilitation and Healthcare Center,1326,1600 N INTERSTATE 35,,SAN MARCOS,TX,78666,Hays
San Pedro Manor,1327,515 W ASHBY PL,,SAN ANTONIO,TX,78212,Bexar
San Rafael Nursing and Rehabilitation Center,1328,3050 SUNNYBROOK RD,,CORPUS CHRISTI,TX,78415,Nueces
San Remo,1329,3550 N SHILOH RD,,RICHARDSON,TX,75082,Dallas
"San Saba Nursing Home, Inc",1330,608 S EDGEWOOD ST,,SAN SABA,TX,76877,San Saba
Sandy Lake Rehabilitation and Care Center,1331,1410 E SANDY LAKE RD,,COPPELL,TX,75019,Dallas
Santa Fe Health and Rehabilitation Center,1332,1205 SANTA FE DR,,WEATHERFORD,TX,76086,Parker
Sarah Roberts French Home,1333,1315 TEXAS AVE,,SAN ANTONIO,TX,78201,Bexar
Scc At Hunters Pond Rehabilitation And Healthcare Center,1334,9903 HUNTERS POND,,SAN ANTONIO,TX,78224,Bexar
Scenic Mountain Medical Center,1335,1601 W 11TH PL,,BIG SPRING,TX,79720,Howard
Schleicher County Medical Center,1336,104 N US HIGHWAY 277,,ELDORADO,TX,76936,Schleicher
Schleicher County Medical Center,1337,102 N US HIGHWAY 277,,ELDORADO,TX,76936,Schleicher
Schulenburg Regency Nursing Center,1338,111 COLLEGE ST,,SCHULENBURG,TX,78956,Fayette
Scott and White Center for Rehabilitative Medicine,1339,3000 HERRING AVE,,WACO,TX,76708,McLennan
Scott and White Memorial Hospital Skilled Nursing Unit STC4,1340,2401 S 31ST ST,,TEMPLE,TX,76508,Bell
"Seabreeze Nursing and Rehabilitation, LP",1341,6602 MEMORIAL DR,,TEXAS CITY,TX,77591,Galveston
Sedona Trace Health and Wellness,1342,8324 CAMERON RD,,AUSTIN,TX,78754,
Senior Care at Stephenville,1343,2601 NORTHWEST LOOP,,STEPHENVILLE,TX,76401,Erath
Senior Care At The Homestead Of Denison,1344,1101 REBA MACENTIRE LN,,DENISON,TX,75020,Grayson
Senior Care Beltline Health and Rehabilitation,1345,106 BELT LINE RD,,GARLAND,TX,75040,Dallas
Senior Care Brownwood,1346,2700 MEMORIAL PARK DR,,BROWNWOOD,TX,76801,Brown
Senior Care Center At Valley Grande Manor,1347,901 WILDROSE LN,,BROWNSVILLE,TX,78520,Cameron
Senior Care Center of Marlandwood East,1348,1511 MARLANDWOOD RD,,TEMPLE,TX,76502,Bell
Senior Care Centers Green Oaks,1349,3033 W GREEN OAKS BLVD,,ARLINGTON,TX,76016,Tarrant
Senior Care Centers Regency House,1350,3745 SUMMER CREST DR,,SAN ANGELO,TX,76901,Tom Green
Senior Care Denton Post Acute Care,1351,2244 BRINKER RD,,DENTON,TX,76208,Denton
Senior Care Edinburg Health And Rehabilitation,1352,4503 S SUGAR RD,,EDINBURG,TX,78539,Hidalgo
Senior Care Health and Rehabilitation Center,1353,910 MIDWESTERN PKWY,,WICHITA FALLS,TX,76302,Wichita
Senior Care Health and Rehabilitation Center,1354,2108 15TH ST,,BRIDGEPORT,TX,76426,Wise
Senior Care Health and Rehabilitation Center,1355,701 BENNETT RD,,DECATUR,TX,76234,Wise
Senior Care Health and Rehabilitation Dallas,1356,2815 MARTIN LUTHER KING JR BLVD,,DALLAS,TX,75215,Dallas
Senior Care Of Corpus Christi Assisted Living Facility,1357,202 FORTUNE DR,,CORPUS CHRISTI,TX,78405,Nueces
Senior Care of Crowley,1358,920 FM 1187 E,,CROWLEY,TX,76036,Tarrant
Senior Care of Crowley,1359,920 E FM 1187,,CROWLEY,TX,76036,
SENIOR CARE OF EDINBURG,1360,4503 S SUGAR RD,,EDINBURG,TX,78539,
Senior Care of Harbor Lakes,1361,1300 E 2ND ST,,GRANBURY,TX,76048,Hood
Senior Care of Hewitt,1362,8836 MARS DR,,HEWITT,TX,76643,McLennan
Senior Care of Holland Lake,1363,1201 HOLLAND LAKE DR,,WEATHERFORD,TX,76086,Parker
Senior Care of Marlandwood West,1364,1700 MARLANDWOOD RD,,TEMPLE,TX,76502,Bell
Senior Care Of Meadow Creek,1365,4343 OAK GROVE BLVD,,SAN ANGELO,TX,76904,Tom Green
Senior Care of San Angelo,1366,5455 KNICKERBOCKER RD,,SAN ANGELO,TX,76904,Tom Green
Senior Care Of Weston Inn,1367,2505 S 37TH ST,,TEMPLE,TX,76504,Bell
Senior Care Of Windcrest,1368,8800 FOURWINDS DR,,SAN ANTONIO,TX,78239,Bexar
Senior Care of Wurzbach,1369,8300 WURZBACH RD,,SAN ANTONIO,TX,78229,Bexar
Senior Care Stallings Court Nursing and Rehabilitation,1370,4616 NE STALLINGS DR,,NACOGDOCHES,TX,75965,Nacogdoches
Senior Rehabilitation and Skilled Nursing Center,1371,8825 LAMPLIGHTER LN,,PORT ARTHUR,TX,77642,Jefferson
"Senior Suite Care and Rehabilitation, LLC",1372,983 N TEXAS ST,,EMORY,TX,75440,Rains
Senior Village Nursing Home,1373,3101 S MAIN ST,,PERRYTON,TX,79070,Ochiltree
Seton Edgar B Davis Hospital,1374,130 HAYS ST,,LULING,TX,78648,Caldwell
Seton Edgar B Davis Long Term Care Unit,1375,130 HAYS ST,,LULING,TX,78648,Caldwell
Seton Highland Lakes Hospital,1376,3201 S WATER ST,,BURNET,TX,78611,Burnet
Seton Medical Center Austin,1377,1201 W 38TH ST,,AUSTIN,TX,78705,Travis
Seton Skilled Subacute Care Program,1378,1201 W 38TH ST,,AUSTIN,TX,78705,Travis
Settlers Ridge Care Center,1379,1280 SETTLERS RDG,,CELINA,TX,75009,Collin
"Seven Acres Jewish Senior Care Services, Inc",1380,6200 N BRAESWOOD BLVD,,HOUSTON,TX,77074,Harris
Seven Oaks Nursing and Rehabilitation,1381,901 SEVEN OAKS RD,,BONHAM,TX,75418,Fannin
Seymour Hospital,1382,200 STADIUM DR,,RED SPRINGS,TX,76380,Baylor
Seymour Rehabilitation and Healthcare,1383,1110 WESTVIEW DR,,SEYMOUR,TX,76380,Baylor
Shady Acres Nursing and Rehabilitation Center,1384,405 SHADY ACRE LN,,NEWTON,TX,75966,Newton
Shady Oak Nursing and Rehabilitation Center,1385,101 S LANCASTER ST,,MOULTON,TX,77975,Lavaca
Shady Shores,1386,355 FM 83 W,,HEMPHILL,TX,75948,
Shamrock General Hospital,1387,1000 S MAIN ST,,SHAMROCK,TX,79079,Wheeler
Shannon Medical Center,1388,120 E HARRIS AVE,,SAN ANGELO,TX,76903,Tom Green
SHANNON MEDICAL CENTER,1389,2018 PULLIAM,,SAN ANGELO,TX,76903,
Shannon Skilled Nursing Facility,1390,2018 PULLIAM ST,,SAN ANGELO,TX,76905,Tom Green
Sharpview Residents and Rehab,1391,7505 BELLERIVE DR,,HOUSTON,TX,77036,Harris
Sheridan Medical Lodge,1392,1119 S RED RIVER EXPY,,BURKBURNETT,TX,76354,Wichita
Shiner Nursing and Rehabilitation Center,1393,1213 N AVENUE B,,SHINER,TX,77984,Lavaca
Shinnery Oaks Community,1394,711 W BROADWAY ST,,DENVER CITY,TX,79323,Yoakum
Shoreline Healthcare Center,1395,1201 GREGORY ST,,TAFT,TX,78390,San Patricio
"Sienna Nursing and Rehabilitation, LP",1396,2510 W 8TH ST,,ODESSA,TX,79763,Ector
Sierra Providence Physical Rehabilitation Hospital,1397,1740 CURIE DR,,EL PASO,TX,79902,El Paso
Signature Pointe on the Lake,1398,14655 PRESTON RD,,DALLAS,TX,75254,Dallas
Silsbee Convalescent Center,1399,1105 HIGHWAY 418 W,,SILSBEE,TX,77656,Hardin
"Silsbee Oaks Health Care, LLP",1400,920 E AVENUE L,,SILSBEE,TX,77656,Hardin
Silver Creek Manor,1401,9014 TIMBER PATH,,SAN ANTONIO,TX,78250,Bexar
Silver Pines Nursing And Rehabilitation Center,1402,503 OLD AUSTIN HWY,,BASTROP,TX,78602,Bastrop
Silver Tree Nursing and Rehabilitation Center,1403,930 FM 3009,,SCHERTZ,TX,78154,Guadalupe
Silverado Hermann Park Memory Care,1404,5600 CHENEVERT ST,,HOUSTON,TX,77004,Harris
Silverado Senior Living Turtle Creek,1405,3611 DICKASON AVE,,DALLAS,TX,75219,Dallas
Silverspring Health And Rehabilitation Center,1406,1690 N TREADAWAY BLVD,,ABILENE,TX,79601,Taylor
Simpson Place Assisted Living,1407,3922 SIMPSON ST,,DALLAS,TX,75246,Dallas
Skilled Care at Mexia,1408,501 E SUMPTER ST,,MEXIA,TX,76667,Limestone
Skyline Nursing Center,1409,3326 BURGOYNE ST,,DALLAS,TX,75233,Dallas
Slaton Care Center,1410,630 S 19TH ST,,SLATON,TX,79364,Lubbock
Smiths Nursing Home,1411,300 W CROCKETT ST,,WOLFE CITY,TX,75496,Hunt
Snyder Healthcare Center,1412,5311 BIG SPRING HWY,,SNYDER,TX,79549,Scurry
Snyder Oaks Care Center,1413,210 37TH ST,,SNYDER,TX,79549,Scurry
Solara Hospital McAllen,1414,301 W EXPRESSWAY 83,,MCALLEN,TX,78503,Hidalgo
Solera at West Houston,1415,2101 GREENHOUSE RD,,HOUSTON,TX,77084,Harris
Songbird Lodge,1416,2500 SONG BIRD CIR,,BROWNWOOD,TX,76801,Brown
Sonterra Health Center,1417,18514 SONTERRA PL,,SAN ANTONIO,TX,78258,Bexar
Sorrento Continuing Care Center,1418,2739 BABCOCK RD,,SAN ANTONIO,TX,78229,Bexar
South Austin Hospital Long Term Care Unit,1419,901 W BEN WHITE BLVD,,AUSTIN,TX,78704,Travis
South Park Rehabilitation Nursing Center,1420,3115 MCARDLE RD,,CORPUS CHRISTI,TX,78415,Nueces
South Place Nursing Center,1421,150 GIBSON RD,,ATHENS,TX,75751,Henderson
South Plains Healthcare Center,1422,1101 E LAKE ST,,BROWNFIELD,TX,79316,Terry
Southaven Nursing Center,1423,5300 UNIVERSITY HILLS BLVD,,DALLAS,TX,75241,Dallas
Southbrooke Manor Nursing and Rehabilitation Center,1424,1401 W MAIN ST,,EDNA,TX,77957,Jackson
Southeast Nursing and Rehabilitation Center,1425,4302 E SOUTHCROSS BLVD,,SAN ANTONIO,TX,78222,Bexar
Southern Manor Nursing Home,1426,4320 19TH ST,,LUBBOCK,TX,79407,Lubbock
Southern Specialty Rehab and Nursing Center,1427,4320 19TH ST,,LUBBOCK,TX,79407,Lubbock
Southfield Healthcare Center,1428,802 FRESA RD,,PASADENA,TX,77502,Harris
Southland Rehabilitation and Healthcare Center,1429,501 N MEDFORD DR,,LUFKIN,TX,75901,Angelina
Southpark Meadows Nursing and Rehabilitation Center,1430,9801 S 1ST ST,,AUSTIN,TX,78748,Travis
Southwest Nursing and Rehabilitation Center,1431,5300 ALTAMESA BLVD,,FORT WORTH,TX,76133,Tarrant
Southwest Parkway Nursing Center,1432,2400 SOUTHWEST PKWY,,WICHITA FALLS,TX,76308,Wichita
Southwest Regional Skilled Nursing Center,1433,1409 9TH ST,,LUBBOCK,TX,79401,Lubbock
"Southwood Care Center, LP",1434,3759 VALLEY VIEW RD,,AUSTIN,TX,78704,Travis
Spanish Meadows Nursing and Rehabilitation,1435,1480 KATY FLEWELLEN RD,,KATY,TX,77494,Harris
Spanish Meadows Of Brownsville,1436,440 RUBEN TORRES SR BLVD,,BROWNSVILLE,TX,78520,Cameron
SPJST Senior Living,1437,248 WISTERIA LN,,EL CAMPO,TX,77437,Wharton
SPJST Skilled Nursing and Rehabilitation Needville,1438,8611 MAIN ST,,NEEDVILLE,TX,77461,Fort Bend
SPJST Skilled Nursing and Rehabilitation Taylor,1439,1810 OLD GRANGER,,TAYLOR,TX,76574,Williamson
Spring Branch Healthcare Center,1440,8955 LONG POINT RD,,HOUSTON,TX,77055,Harris
SPRING BRANCH HEALTHCARE CENTER,1441,8955 LONG POINT RD,,HOUSTON,TX,77055,
Spring Branch Medical Center Long Term Care Unit,1442,8850 LONG POINT RD,,HOUSTON,TX,77055,Harris
Spring Branch Transitional Care Center,1443,1615 HILLENDAHL BLVD,,HOUSTON,TX,77055,Harris
"Spring Oaks Nursing and Rehabilitation, LP",1444,901 CENTRAL TEXAS EXPY,,LAMPASAS,TX,76550,Lampasas
SSC San Diego La Paloma Operating Company LP,1445,138 S FM 1329,,SAN DIEGO,TX,78384,Duval
St Giles Nursing And Rehabilitation Center,1446,950 CAMINO DEL REY,,EL PASO,TX,79927,El Paso
Stamford Health Center,1447,1601 COLUMBIA ST,,STAMFORD,TX,79553,Jones
Stamford Residence and Rehabilitation Center,1448,1003 COLUMBIA ST,,STAMFORD,TX,79553,Jones
"Stanton Nursing and Rehabilitation, LP",1449,1100 W BROADWAY,,STANTON,TX,79782,Martin
Stephens Memorial Hospital,1450,200 S GENEVA ST,,BRECKENRIDGE,TX,76424,Stephens
Stephenville Nursing Home,1451,2311 W WASHINGTON ST,,STEPHENVILLE,TX,76401,Erath
Sterling County Nursing Home,1452,309 5TH ST,,STERLING CITY,TX,76951,Sterling
Sterling Oaks Rehabilitation,1453,25150 LAKECREST MANOR DR,,KATY,TX,77493,Harris
Stevens Nursing and Rehabilitation,1454,106 KAHN ST,,HALLETTSVILLE,TX,77964,Lavaca
Stevens Nursing Home,1455,204 WALTER ST,,YOAKUM,TX,77995,Lavaca
Stillhouse Rehabilitation and Healthcare Center,1456,2900 STILLHOUSE RD,,PARIS,TX,75462,Lamar
Stockdale Residence And Rehabilitation Center,1457,300 W SALMON ST,,STOCKDALE,TX,78160,Wilson
Stone Oak Care Center,1458,505 MADISON OAK DR,,SAN ANTONIO,TX,78258,Bexar
Stonebriar Nursing and Rehabilitation Center,1459,110 E LIVE OAK ST,,AUSTIN,TX,78704,Travis
Stonebridge Sn Health Center,1460,11127 CIRCLE DR,,AUSTIN,TX,78736,Travis
Stonegate Nursing Center,1461,4201 STONEGATE BLVD,,FORT WORTH,TX,76109,Tarrant
STONEMERE REHABILITATION CENTER,1462,11855 LEBANON ROAD,,FRISCO,TX,75035,
"Stonemere Rehabilitation Center, LLC",1463,11855 LEBANON RD,,FRISCO,TX,75035,Collin
Stonewall Memorial Hospital,1464,821 N BROADWAY ST,,ASPERMONT,TX,79502,Stonewall
Sugar Land Health Care Center,1465,333 MATLAGE WAY,,SUGAR LAND,TX,77478,Fort Bend
Sulphur Springs Health and Rehabilitation Center,1466,411 AIRPORT RD,,SULPHUR SPRINGS,TX,75482,Hopkins
Sulphur Springs Nursing Home,1467,301 OAK AVE,,SULPHUR SPRINGS,TX,75482,Hopkins
Summer Meadows,1468,301 HOLLYBROOK DR,,LONGVIEW,TX,75605,Gregg
Summit Nursing And Rehabilitation Of San Augustine,1469,902 E MAIN ST,,SAN AUGUSTINE,TX,75972,San Augustine
"Sun View Care and Rehabilitation Center, LLC",1470,903 LEAHY ST,,SAN ANTONIO,TX,78221,Bexar
Sundance Inn Health Center,1471,2034 SUNDANCE PKWY,,NEW BRAUNFELS,TX,78130,Comal
Sunflower Park Health Care,1472,1803 E STATE HIGHWAY 243,,KAUFMAN,TX,75142,Kaufman
"Sunny Springs Nursing and Rehab, Inc",1473,1200 JACKSON ST N,,SULPHUR SPRINGS,TX,75482,Hopkins
Sunrise Nursing and Rehabilitation Center,1474,50 BRIGGS ST,,SAN ANTONIO,TX,78224,Bexar
Sunshine Nursing Home,1475,295 E HUMBLE RD,,NEW LONDON,TX,75682,Rusk
SUNVIEW CARE & REHAB CENTER LLC,1476,903 LEAHY ST,,SAN ANTONIO,TX,78221,
"Sure Home Health Services, Llc",1477,9696 SKILLMAN ST,STE 295,DALLAS,TX,75243,Dallas
Sweeny Community Hospital,1478,305 N MCKINNEY ST,,SWEENY,TX,77480,Brazoria
Sweeny House,1479,109 N MCKINNEY ST,,SWEENY,TX,77480,Brazoria
Sweetwater Healthcare Center,1480,1600 JOSEPHINE ST,,SWEETWATER,TX,79556,Nolan
Swisher Memorial Hospital District,1481,539 SE 2ND ST,,TULIA,TX,79088,Swisher
Sycamore Care Center,1482,921 W CANNON ST,,FORT WORTH,TX,76104,Tarrant
Tahoka Care Center,1483,1829 S 7TH ST,,TAHOKA,TX,79373,Lynn
Taylor Care Center,1484,212 E LAKE DR,,TAYLOR,TX,76574,Williamson
Teague Nursing and Rehabilitation,1485,884 US HIGHWAY 84 W,,TEAGUE,TX,75860,Freestone
Temple Healthcare Services,1486,5913 CHEYENNE WAY,,FRISCO,TX,75034,Collin
TERRA BELLA HEALTH AND WELLNESS SUITES,1487,12262 CITYSCAPE AVE,,HOUSTON,TX,77047,
Terrace West Nursing And Rehabilitation,1488,2800 N MIDLAND DR,,MIDLAND,TX,79707,Midland
Terrell Healthcare Center,1489,204 W NASH ST,,TERRELL,TX,75160,Kaufman
Terry Haven Nursing and Rehabilitation,1490,424 HIGHWAY 67 W,,MOUNT VERNON,TX,75457,Franklin
"Texan Nursing and Rehab of Gladewater, LLC",1491,300 MONEY ST,,GLADEWATER,TX,75647,Gregg
Texan Nursing and Rehabilitation Center,1492,224 SAINT LOUIS ST,,PLAINVIEW,TX,79072,Hale
Texan Nursing and Rehabilitation of Gonzales,1493,3428 MOULTON RD,,GONZALES,TX,78629,Gonzales
Texas City Geriatric Healthcare Center,1494,519 9TH AVE N,,TEXAS CITY,TX,77590,Galveston
Texas Health Harris Methodist Stephenville Hospital,1495,411 N BELKNAP ST,,STEPHENVILLE,TX,76401,Erath
Texas Masonic Retirement Center,1496,1501 W DIVISION ST,,ARLINGTON,TX,76012,Tarrant
Texhoma Christian Care Center,1497,300 LOOP 11,,WICHITA FALLS,TX,76306,Wichita
Texoma Healthcare Center,1498,1000 US HIGHWAY 82 E,,SHERMAN,TX,75090,Grayson
The Arbors,1499,1910 MEDI PARK DR,,AMARILLO,TX,79106,Potter
"The Arbors Healthcare and Rehabilitation, Inc",1500,1884 LOOP 343,,RUSK,TX,75785,Cherokee
The Atrium of Bellmead,1501,2401 DEVELOPMENT BLVD,,BELLMEAD,TX,76705,McLennan
The Atrium Rehabilitation Center,1502,7602 LOUIS PASTEUR DR,,SAN ANTONIO,TX,78229,Bexar
The Bartlett Rehab Skilled Care And Assisted Living,1503,221 BARTLETT DR,,EL PASO,TX,79912,El Paso
The Belmont at Twin Creeks,1504,999 RAINTREE CIR,,ALLEN,TX,75013,Collin
The Bradford at Brookside,1505,301 W PARK,,LIVINGSTON,TX,77351,Polk
The Broadmoor at Creekside Park,1506,5665 CREEKSIDE FOREST DRIVE,,THE WOODLANDS,TX,77389,Harris
THE BROADMOOR AT CREEKSIDE PARK,1507,5665 CREEKSIDE FOREST DRIVE,,THE WOODLANDS,TX,77389,
The Buckingham,1508,8580 WOODWAY DR,,HOUSTON,TX,77063,Harris
The Carlyle at Stonebridge Park,1509,170 STONEBRIDGE LN,,SOUTHLAKE,TX,76092,Tarrant
THE CENTER AT GRANDE,1510,3219 E GRANDE BLVD,,TYLER,TX,75707,
THE CENTER AT PARMER,1511,13800 N FM 620 RD,,AUSTIN,TX,78717,
The Colonnades at Reflection Bay,1512,12001 SHADOW CREEK PKWY,,PEARLAND,TX,77584,Brazoria
The Concierge,1513,2310 ELDRIDGE PKWY,,HOUSTON,TX,77077,Harris
The Courtyard Rehabilitation and Healthcare Center,1514,3401 E AIRLINE RD,,VICTORIA,TX,77901,Victoria
The Courtyards at Pasadena,1515,4048 RED BLUFF RD,,PASADENA,TX,77503,Harris
The Craig Senior Living,1516,5500 SW 9TH AVE,,AMARILLO,TX,79106,Potter
The Crescent,1517,11353 SUGAR PARK LN,,SUGAR LAND,TX,77478,Fort Bend
THE CROSSINGS,1518,255 N EGRET BAY BLVD,,LEAGUE CITY,TX,77573,
The Enclave,1519,18803 HARDY OAK BLVD,,SAN ANTONIO,TX,78258,Bexar
The Forum at Lincoln Heights,1520,311 W NOTTINGHAM DR,,SAN ANTONIO,TX,78209,Bexar
The Forum at Memorial Woods,1521,777 N POST OAK RD,,HOUSTON,TX,77024,Harris
The Forum at Park Lane,1522,7827 PARK LN,,DALLAS,TX,75225,Dallas
The Gardens Of Bellaire,1523,4620 BELLAIRE BLVD,,BELLAIRE,TX,77401,Harris
The Grace Care Center of Katy,1524,23553 W FERNHURST DR,,KATY,TX,77494,Harris
The Hallmark,1525,4718 HALLMARK DR,,HOUSTON,TX,77056,Harris
The Harrison at Heritage,1526,4600 HERITAGE TRACE PKWY,,FORT WORTH,TX,76244,Tarrant
THE HEALTHCARE RESORT OF PLANO,1527,3325 W PLANO PKWY,,PLANO,TX,75075,Collin
The Heights of Alamo,1528,1214 S ALAMO RD,,ALAMO,TX,78516,
The Heights of Atascosa,1529,1855 W GOODWIN ST,,PLEASANTON,TX,78064,Atascosa
The Heights Of Bulverde,1530,384 HARMONY HLS,,BULVERDE,TX,78070,Comal
The Heights of Gonzales,1531,701 N SARAH DEWITT DR,,GONZALES,TX,78629,Gonzales
The Heights of North Houston,1532,303 HOLLOW TREE LN,,HOUSTON,TX,77090,Harris
The Heights of Tomball,1533,27840 JOHNSON RD,,TOMBALL,TX,77375,Harris
The Heights of Tyler,1534,2650 ELKTON TRL,,TYLER,TX,75703,Smith
The Heights on Huebner,1535,10127 HUEBNER RD,,SAN ANTONIO,TX,78240,Bexar
The Heights on Valley Ranch,1536,23200 VALLEY RANCH PKWY,,PORTER,TX,77365,
The Heritage Nursing Home,1537,1026 E GOODE ST,,QUITMAN,TX,75783,Wood
"The Highlands Guest Care Center, Llc",1538,9009 FOREST LN,,DALLAS,TX,75243,Dallas
The Hillcrest of North Dallas,1539,18648 HILLCREST RD,,DALLAS,TX,75252,Dallas
The Hills Nursing and Rehabilitation Center,1540,201 E THOMPSON ST,,DECATUR,TX,76234,Wise
The Hilltop on Main,1541,1015 N MAIN,,MERIDIAN,TX,76665,Bosque
The Holmgreen Center at Trinity Towers,1542,317 N CARANCAHUA ST,,CORPUS CHRISTI,TX,78401,Nueces
THE HOMESTEAD OF DENISON,1543,1101 REBA MCENTIRE LN,,DENISON,TX,75020,
The Homestead of Sherman,1544,1000 SARA SWAMY DR,,SHERMAN,TX,75090,Grayson
The Hospitals Of Providence Memorial Campus,1545,2001 N OREGON ST,,EL PASO,TX,79902,El Paso
The Isle At Cedar Ridge,1546,2200 S LAKELINE BLVD,,CEDAR PARK,TX,78613,Williamson
The Isle at Cedar Ridge Skilled Nursing,1547,2200 S LAKELINE BLVD,,CEDAR PARK,TX,78613,Williamson
The Lakes at Texas City,1548,424 TARPEY RD,,TEXAS CITY,TX,77591,Galveston
The Landing At Watermere,1549,201 WATERMERE DR,,SOUTHLAKE,TX,76092,Tarrant
THE LANDING AT WATERMERE,1550,201 WATERMERE DRIVE,,SOUTHLAKE,TX,76092,
"The Leaves, Inc",1551,1230 W SPRING VALLEY RD,,RICHARDSON,TX,75080,Dallas
The Legacy at Town Creek,1552,2212 W REAGAN ST,,PALESTINE,TX,75801,Anderson
The Legacy Willow Bend,1553,6101 OHIO DR,,PLANO,TX,75024,Collin
The Lennwood Nursing and Rehabilitation,1554,8017 W VIRGINIA DR,,DALLAS,TX,75237,Dallas
The Living Center of Childress,1555,1610 AVENUE G NW,,CHILDRESS,TX,79201,Childress
The Lodge at Bear Creek,1556,3729 IRA E WOODS AVE,,GRAPEVINE,TX,76051,
The Madison on Marsh,1557,2245 MARSH LN,,CARROLLTON,TX,75006,Dallas
The Manor at Seagoville,1558,2416 ELIZABETH LN,,SEAGOVILLE,TX,75159,Dallas
"The Manor Healthcare Residence, Ltd",1559,831 TEHUACANA HWY,,MEXIA,TX,76667,Limestone
The Meadows,1560,110 CHICKTOWN RD,,GATESVILLE,TX,76528,Coryell
The Meadows Health and Rehabilitation Center,1561,8383 MEADOW RD,,DALLAS,TX,75231,Dallas
The Medical Resort at Bay Area,1562,4900 E SAM HOUSTON PKWY S,,PASADENA,TX,77505,Harris
The Medical Resort at Pearland,1563,3406 BUSINESS CENTER DR,,PEARLAND,TX,77584,
The Medical Resort at Sugar Land,1564,1803 WESCOTT AVE,,SUGAR LAND,TX,77479,
The Medical Resort at Sugar Land,1565,1803 WESTCOTT AVE,,SUGAR LAND,TX,77479,Fort Bend
The Medical Resort At Willowbrook,1566,13220 BRETON RIDGE ST,,HOUSTON,TX,77070,Harris
The Medical Resort at Woodlands,1567,24854 CATHEDRAL LAKES PKWY,,SPRING,TX,77386,
The Melrose,1568,1501 W 29TH ST,,TYLER,TX,75702,Smith
The Meridian,1569,2228 SEAWALL BLVD,,GALVESTON,TX,77550,Galveston
The MonteVista at Coronado,1570,1575 BELVIDERE ST,,EL PASO,TX,79912,El Paso
The Oaks at Beaumont,1571,4195 MILAM ST,,BEAUMONT,TX,77707,Jefferson
The Oaks at Brookshire,1572,710 HIGHWAY 359 S,,BROOKSHIRE,TX,77423,Waller
The Oaks At Radford Hills Healthcare Center,1573,725 MEDICAL DR,,ABILENE,TX,79601,Taylor
"The Palms Nursing and Rehabilitation, LP",1574,5607 EVERHART RD,,CORPUS CHRISTI,TX,78411,Nueces
The Park in Plano,1575,3208 THUNDERBIRD LN,,PLANO,TX,75075,Collin
The Parks Senior Living,1576,111 PARKS VILLAGE DR,,ODESSA,TX,79765,Ector
The Pavilion At Creekwood,1577,2100 CANNON DR,,MANSFIELD,TX,76063,Tarrant
THE PHOENIX POST ACUTE,1578,519 9TH AVE N,,TEXAS CITY,TX,77590,Galveston
The Plaza at Edgemere Health Service,1579,8502 EDGEMERE RD,,DALLAS,TX,75225,Dallas
The Plaza at Lubbock,1580,4910 EMORY ST,,LUBBOCK,TX,79416,Lubbock
The Plaza at Richardson,1581,1301 RICHARDSON DR,,RICHARDSON,TX,75080,Dallas
"The Rehabilitation and Wellness Centre of Dallas, LLC",1582,4200 LIVE OAK ST,,DALLAS,TX,75204,Dallas
The Renaissance at Kessler Park,1583,2428 BAHAMA DR,,DALLAS,TX,75211,Dallas
The Reserve at Richardson,1584,1610 RICHARDSON DR,,RICHARDSON,TX,75080,
The Resort at Texas City,1585,1720 N LOGAN ST,,TEXAS CITY,TX,77590,Galveston
The Rio at Mainland Center,1586,1011 MAINLAND CENTER DR,,TEXAS CITY,TX,77591,Galveston
The Rio At Mission Trails,1587,6211 S NEW BRAUNFELS AVE,,SAN ANTONIO,TX,78223,Bexar
The Rosewood Retirement Community,1588,5700 E CENTRAL TEXAS EXPY,,KILLEEN,TX,76543,Bell
The Skilled Nursing Center at Tomball,1589,605 HOLDERRIETH BLVD,,TOMBALL,TX,77375,Harris
The Solana Vintage Park,1590,19929 CHASEWOOD PARK DR,,HOUSTON,TX,77070,
The Springs Healthcare and Rehabilitation,1591,1500 COTTONWOOD CREEK TRL,,CEDAR PARK,TX,78613,Williamson
The Springs Nursing Center,1592,704 TAYLOR ST,,HUGHES SPRINGS,TX,75656,Cass
The Stayton at Museum Way,1593,2501 MUSEUM WAY,,FORT WORTH,TX,76107,Tarrant
The Terrace at Denison,1594,1300 MEMORIAL DR,,DENISON,TX,75020,Grayson
The Villa at Marbridge,1595,2504 BLISS SPILLAR RD,,MANCHACA,TX,78652,Travis
The Villa at Mountain View,1596,2918 DUNCANVILLE RD,,DALLAS,TX,75211,Dallas
The Villa At Texarkana,1597,4920 ELIZABETH ST,,TEXARKANA,TX,75503,Bowie
"The Village at Gleannloch Farms, Inc",1598,9505 NORTHPOINTE BLVD,,SPRING,TX,77379,Harris
The Village at Incarnate Word,1599,4707 BROADWAY ST,,SAN ANTONIO,TX,78209,
The Village at Incarnate Word,1600,4707 BROADWAY ST,,SAN ANTONIO,TX,78209,Bexar
The Village at Richardson,1601,1111 ROCKINGHAM DR,,RICHARDSON,TX,75080,Dallas
The Vintage Health Care Center,1602,205 N BONNIE BRAE ST,,DENTON,TX,76201,Denton
The Waterton Healthcare and Rehabilitation,1603,2875 SHILOH RD,,TYLER,TX,75703,Smith
The Wesleyan at Scenic,1604,2001 SCENIC DR,,GEORGETOWN,TX,78626,Williamson
The Westbury Place,1605,5201 S WILLOW DR,,HOUSTON,TX,77035,Harris
The Woodlands Healthcare Center,1606,4650 S PANTHER CREEK DR,,SPRING,TX,77381,Montgomery
"Three Rivers Nursing Home, LLC",1607,1717 45TH ST,,THREE RIVERS,TX,78071,Live Oak
Throckmorton County Memorial Hospital,1608,802 N MINTER AVE,,THROCKMORTON,TX,76483,Throckmorton
Throckmorton County Nursing Home,1609,1000 N MINTER AVE,,THROCKMORTON,TX,76483,Throckmorton
TimberRidge Health and Rehabilitation Center,1610,315 W GIBSON ST,,JASPER,TX,75951,Jasper
Timberwood Nursing and Rehabilitation Center,1611,4001 US HIGHWAY 59 N,,LIVINGSTON,TX,77351,Polk
Timberwood Nursing and Rehabilitation Center,1612,4001 N HIGHWAY 59,,LIVINGSTON,TX,77351,
TITUS REGIONAL MEDICAL CENTER,1613,2001 N JEFFERSON,,MOUNT PLEASANT,TX,75455,
Titus Regional Medical Center Long Term Care,1614,2001 N JEFFERSON AVE,,MOUNT PLEASANT,TX,75455,Titus
TMC Bonham Hospital,1615,504 LIPSCOMB ST,,BONHAM,TX,75418,Fannin
"Tomball Nursing Center, Inc",1616,815 PEACH ST,,TOMBALL,TX,77375,Harris
Tomball Regional Medical Center,1617,605 HOLDERRIETH BLVD,,TOMBALL,TX,77375,Harris
Towers Nursing Home,1618,372 HILL RD,,SMITHVILLE,TX,78957,Bastrop
Town and Country Manor,1619,625 N MAIN ST,,BOERNE,TX,78006,Kendall
Town East Rehabilitation and Healthcare Center,1620,3617 O HARE DR,,MESQUITE,TX,75150,Dallas
Town Hall Estates Health Care Facility Arlington,1621,824 W MAYFIELD RD,,ARLINGTON,TX,76015,Tarrant
Town Hall Estates Health Care Facility Keene,1622,207 S OLD BETSY RD,,KEENE,TX,76059,Johnson
Town Hall Estates Health Care Facility Whitney,1623,101 N SAN MARCOS ST,,WHITNEY,TX,76692,Hill
Town Hall Estates Rehabilitation and Nursing Center,1624,300 HAPPY LN,,HILLSBORO,TX,76645,Hill
Town Park Convalescent Center,1625,5925 ALMEDA RD,,HOUSTON,TX,77004,Harris
Trail Lake Nursing and Rehabilitation,1626,7100 TRAIL LAKE DR,,FORT WORTH,TX,76123,Tarrant
Traymore Nursing Center,1627,4315 HOPKINS AVE,,DALLAS,TX,75209,Dallas
Treasure Hills Healthcare and Rehabilitation Center,1628,2204 PEASE ST,,HARLINGEN,TX,78550,Cameron
Treemont Health Care Center,1629,2501 WESTERLAND DR,,HOUSTON,TX,77063,Harris
Treemont Healthcare and Rehabilitation Center,1630,5550 HARVEST HILL RD,STE 500,DALLAS,TX,75230,Dallas
Treviso Transitional Care,1631,1154 E HAWKINS PKWY,,LONGVIEW,TX,75605,Gregg
TREVISO TRANSITIONAL CARE,1632,1154 E HAWKINS PKWY,,LONGVIEW,TX,75605,
Trinity Care Center,1633,1000 E MAIN ST,,ROUND ROCK,TX,78664,Williamson
Trinity Healthcare Residence,1634,8001 WESTERN HILLS BLVD,,FORT WORTH,TX,76108,
"Trinity Nursing And Rehabilitation Of Burleson, Lp",1635,600 MAPLE AVE,,BURLESON,TX,76028,Johnson
"Trinity Nursing and Rehabilitation of Comfort, LP",1636,615 FALTIN RD,,COMFORT,TX,78013,Kendall
"Trinity Nursing and Rehabilitation of Diboll, LP",1637,900 S TEMPLE DR,,DIBOLL,TX,75941,Angelina
Trinity Nursing and Rehabilitation of Granbury,1638,600 REUNION CT,,GRANBURY,TX,76048,Hood
Trinity Of Italy Nursing And Rehabilitation,1639,220 DAVENPORT,,ITALY,TX,76651,Ellis
"Trinity of Winnsboro, LLC",1640,502 E COKE RD,,WINNSBORO,TX,75494,Wood
TRINITY REHABILITATION and HEALTHCARE CENTER,1641,314 E CAROLINE ST,,TRINITY,TX,75862,
Trinity Terrace Retirement Community,1642,1600 TEXAS ST,,FORT WORTH,TX,76102,Tarrant
TriStar Care Center,1643,619 W LIVE OAK ST,,FREDERICKSBURG,TX,78624,Gillespie
TRISUN CARE CENTER LAKESIDE,1644,8707 LAKESIDE PARKWAY,,SAN ANTONIO,TX,78245,
Trisun Care Center Northeast El Paso,1645,11169 SEAN HAGGERTY DR,,EL PASO,TX,79934,El Paso
TRISUN CARE CENTER- NORTHEAST EL PASO,1646,11169 SEAN HAGGERTY,,EL PASO,TX,79934,
TRISUN Care Center Sinton,1647,936 W 4TH ST,,SINTON,TX,78387,San Patricio
TRISUN CARE CENTER-CORSICANA,1648,3210 W HWY 22,,CORSICANA,TX,75110,
Trucare Living Centers,1649,2265 S SYCAMORE ST,,PALESTINE,TX,75801,Anderson
Trucare Living Centers Columbus,1650,1511 MONTEZUMA ST,,COLUMBUS,TX,78934,Colorado
Trucare Living Centers Selma,1651,16550 RETAMA PKWY,,SELMA,TX,78154,
Truman Smith Childrens Care Center,1652,2200 W UPSHUR AVE,# 80,GLADEWATER,TX,75647,Gregg
Tulia Health and Rehabilitation Center,1653,714 S AUSTIN AVE,,TULIA,TX,79088,Swisher
Tuscany Village Skilled Nursing And Rehabilitation,1654,2750 MILLER RANCH RD,,PEARLAND,TX,77584,Brazoria
Tutor Nursing Home,1655,119 S 33RD ST,,TEMPLE,TX,76504,Bell
Twilight Nursing And Rehabilitation Center,1656,3001 W 4TH AVE,,CORSICANA,TX,75110,Navarro
Twilight Nursing Home,1657,205 S WEST ST,,BANGS,TX,76823,Brown
Twin Lakes Rehabilitation and Care Center,1658,451 S EL CAMINO XING,,SAN AUGUSTINE,TX,75972,San Augustine
Twin Oaks Health and Rehabilitation,1659,1123 N BOLTON ST,,JACKSONVILLE,TX,75766,Cherokee
Twin Oaks Manor,1660,112 PIONEER DR,,BOOKER,TX,79005,Lipscomb
Twin Pines North Nursing And Rehabilitation Center,1661,1301 MALLETTE DR,,VICTORIA,TX,77904,Victoria
Twin Pines Nursing and Rehabilitation Center,1662,3301 E MOCKINGBIRD LN,,VICTORIA,TX,77904,Victoria
University Park Nursing and Rehabilitation,1663,4511 CORONADO AVE,,WICHITA FALLS,TX,76310,Wichita
University Place Retirement Community and Nursing Center,1664,7480 BEECHNUT ST,,HOUSTON,TX,77074,Harris
Ussery Roan Texas State Veterans Home,1665,1020 TASCOSA RD,,AMARILLO,TX,79124,Potter
Ut Health Carthage,1666,409 COTTAGE RD,,CARTHAGE,TX,75633,Panola
Ut Health Henderson,1667,300 WILSON ST,,HENDERSON,TX,75652,Rusk
Ut Health Pittsburg,1668,2701 US HIGHWAY 271 N,,PITTSBURG,TX,75686,Camp
Ut Health Quitman,1669,117 N WINNSBORO ST,,QUITMAN,TX,75783,Wood
Uvalde Healthcare and Rehabilitation Center,1670,535 N PARK ST,,UVALDE,TX,78801,Uvalde
Uvalde Memorial Hospital,1671,1025 GARNER FIELD RD,,UVALDE,TX,78801,Uvalde
VA North Texas Health Care System Sam Rayburn Memorial Veterans Center,1672,1201 E 9TH ST,,BONHAM,TX,75418,Fannin
Val Verde Nursing and Rehabilitation Center,1673,100 HERRMANN DR,,DEL RIO,TX,78840,Val Verde
Val Verde Regional Medical Center,1674,801 N BEDELL AVE,,DEL RIO,TX,78840,Val Verde
Valley Baptist Medical Center Brownsville,1675,1040 W JEFFERSON ST,,BROWNSVILLE,TX,78520,Cameron
VALLEY FAIR LODGE,1676,1541 CHESTNUT ST,,COLORADO CITY,TX,79512,
Valley Grande Manor,1677,1212 S BRIDGE AVE,,WESLACO,TX,78596,Hidalgo
"Valley Mills Nursing and Rehabilitation, LP",1678,101 W AVENUE E,,VALLEY MILLS,TX,76689,Bosque
Valley View Care Center,1679,101 LIBERTY LN,,ANSON,TX,79501,Jones
Van Health Care Center,1680,169 S OAK ST,,VAN,TX,75790,Van Zandt
VENTANA BY BUCKNER,1681,8301 N CENTRAL EXPY,,DALLAS,TX,75225,
Veranda Rehabilitation and Healthcare,1682,4301 S EXPRESSWAY 83,,HARLINGEN,TX,78550,Cameron
Vernon Care Center,1683,4401 COLLEGE DR,,VERNON,TX,76384,Wilbarger
VIBRALIFE OF EL PASO,1684,3421 JOE BATTLE BLVD,,EL PASO,TX,79936,
"Vibralife Of Katy, Llc",1685,1222 PARK WEST GREEN DR,,KATY,TX,77493,Harris
Victoria Gardens of Allen,1686,310 S JUPITER RD,,ALLEN,TX,75002,Collin
Victoria Gardens of Frisco,1687,10700 ROLATER RD,,FRISCO,TX,75035,Collin
Victoria Residence and Rehabilitation Center,1688,114 MEDICAL DR,,VICTORIA,TX,77904,Victoria
Vidor Health and Rehabilitation Center,1689,470 MOORE DR,,VIDOR,TX,77662,Orange
Villa Haven Health and Rehabilitation Center,1690,300 S JACKSON ST,,BRECKENRIDGE,TX,76424,Stephens
Villa Toscana at Cypress Woods,1691,15015 CYPRESS WOOD MEDICAL DR,,HOUSTON,TX,77014,Harris
Village Creek Nursing Center,1692,3825 VILLAGE CREEK RD,,FORT WORTH,TX,76119,Tarrant
Village Creek Rehabilitation and Nursing Center,1693,705 N MAIN ST,,LUMBERTON,TX,77657,Hardin
Village Healthcare and Rehabilitation,1694,615 N WARE RD,,MCALLEN,TX,78501,Hidalgo
Village Manor Nursing Home,1695,503 N COLLEGE,,QUITMAN,TX,75783,Wood
Villages of Lake Highlands,1696,8615 LULLWATER DR,,DALLAS,TX,75238,Dallas
Villages On Macarthur,1697,3443 N MACARTHUR BLVD,,IRVING,TX,75062,Dallas
Vista Del Mar Health and Rehabilitation,1698,1314 3RD ST,,CORPUS CHRISTI,TX,78404,Nueces
Vista Hills Health Care Center,1699,1599 LOMALAND DR,,EL PASO,TX,79935,El Paso
Vista Living Of Vernon,1700,4301 HOSPITAL DR,,VERNON,TX,76384,Wilbarger
Vista Nursing And Rehabilitation Center,1701,4300 VISTA RD,,PASADENA,TX,77504,Harris
Vista Ridge Nursing and Rehabilitation Center,1702,700 E VISTA RIDGE MALL DR,,LEWISVILLE,TX,75067,Denton
VIVIANS NURSING HOME,1703,508 N TAYLOR,,AMARILLO,TX,79107,
Vivians Nursing Home,1704,508 N TAYLOR ST,,AMARILLO,TX,79107,Potter
Vosswood Nursing Center,1705,815 S VOSS RD,,HOUSTON,TX,77057,Harris
Wadley Regional Medical Center,1706,1000 PINE ST,,TEXARKANA,TX,75501,Bowie
Walnut Place,1707,5515 GLEN LAKES DR,,DALLAS,TX,75231,Dallas
Ward Memorial Hospital,1708,406 S GARY AVE,,MONAHANS,TX,79756,Ward
Ware Living Center,1709,400 SW 14TH AVE,,AMARILLO,TX,79101,Potter
WARM SPRINGS REHABILITATION HOSPITAL OF SAN ANTONI,1710,5101 MEDICAL DR,,SAN ANTONIO,TX,78229,
Warm Springs Rehabilitation Hospital of San Antonio,1711,5101 MEDICAL DR,,SAN ANTONIO,TX,78229,Bexar
Warm Springs Rehabilitation Hospital of San Antonio,1712,5101 MEDICAL DR,,SAN ANTONIO,TX,78229,Bexar
Warm Springs Rehabilitation Hospital Of San Antonio,1713,5101 MEDICAL DR,,SAN ANTONIO,TX,78229,Bexar
Warm Springs Rehabilitation Hospital of Westover Hills,1714,10323 STATE HIGHWAY 151,,SAN ANTONIO,TX,78251,
Waterton Plaza At Cowhorn Creek,1715,5524 COWHORN CREEK RD,,TEXARKANA,TX,75503,Bowie
WATKINS LOGAN TEXAS STATE VETERANS HOME,1716,11466 HONOR LN,,TYLER,TX,78701,
WATKINS-LOGAN-GARRISON TEXAS STATE VETERAN'S HOME,1717,11466 HONOR LANE,,TYLER,TX,75708,
Weatherford Healthcare Center,1718,521 W 7TH ST,,WEATHERFORD,TX,76086,Parker
Webster Residence and Rehabilitation Center,1719,750 N TEXAS AVE,,WEBSTER,TX,77598,Harris
Wedgewood Nursing Home,1720,6621 DAN DANCIGER RD,,FORT WORTH,TX,76133,Tarrant
"Wellington Care Center, Inc",1721,1506 CHILDRESS ST,,WELLINGTON,TX,79095,Collingsworth
Wellington Oaks Nursing and Rehabilitation,1722,701 SAINT LOUIS AVE,,FORT WORTH,TX,76104,Tarrant
Wellington Rehabilitation and Healthcare,1723,1802 S 31ST ST,,TEMPLE,TX,76504,Bell
Wells Ltc Nursing And Rehabilitation,1724,46 MAY ST,,WELLS,TX,75976,Cherokee
Weslaco Nursing and Rehabilitation Center,1725,422 E 18TH ST,,WESLACO,TX,78596,Hidalgo
Wesley Court Senior Living,1726,2617 ANTILLEY RD,,ABILENE,TX,79606,Taylor
Wesley Woods Health and Rehabilitation,1727,1700 WOODGATE DR,,WACO,TX,76712,McLennan
West Houston Medical Center Skilled Nursing Unit,1728,12141 RICHMOND AVE,,HOUSTON,TX,77082,Harris
West Houston Rehabilitation and Healthcare Center,1729,13428 BISSONNET ST,,HOUSTON,TX,77083,Harris
West Janisch Health Care Center,1730,617 JANISCH RD,,HOUSTON,TX,77018,Harris
West Oaks Nursing and Rehab Center,1731,3625 GREEN CREST DR,,HOUSTON,TX,77082,Harris
West Oaks Nursing And Rehabilitation Center,1732,3200 W SLAUGHTER LN,,AUSTIN,TX,78748,Travis
WEST PLACE NURSING CENTER,1733,8579 STATE HWY 31 W,,ATHENS,TX,75751,
West Place Nursing Center,1734,8579 STATE HIGHWAY 31 W,,ATHENS,TX,75751,Henderson
"West Rest Haven, Inc",1735,503 MEADOW DR,,WEST,TX,76691,McLennan
"West Side Campus of Care, LP",1736,1950 S LAS VEGAS TRL,,FORT WORTH,TX,76108,Tarrant
Westchase Health and Rehabilitation Center,1737,8820 TOWN PARK DR,,HOUSTON,TX,77036,Harris
Western Hills Healthcare Residence,1738,400 OLD SIDNEY RD,,COMANCHE,TX,76442,Comanche
Westhaven Nursing Center,1739,1617 W CANNON ST,,FORT WORTH,TX,76104,Tarrant
Westminster Manor Health Care Center,1740,4200 JACKSON AVE,,AUSTIN,TX,78731,Travis
Westover Hills Rehabilitation and Healthcare Center,1741,9922 STATE HIGHWAY 151,,SAN ANTONIO,TX,78251,Bexar
"Westridge Nursing Center and Rehabilitation, LP",1742,1241 WESTRIDGE AVE,,LANCASTER,TX,75146,Dallas
Westview Manor and Rehabilitation Center,1743,414 JOHNSON DR,,MC GREGOR,TX,76657,McLennan
Westward Trails Rehabilitation and Health Care Center,1744,3001 WESTWARD DR,,NACOGDOCHES,TX,75964,Nacogdoches
Westwood Nursing and Rehabilitation,1745,1204 W NOBLE ST,,TROUP,TX,75789,Smith
Wharton Nursing and Rehabilitation Center,1746,1220 SUNNY LN,,WHARTON,TX,77488,Wharton
"Wheeler Nursing and Rehabilitation, LP",1747,1000 S KIOWA ST,,WHEELER,TX,79096,Wheeler
Whispering Oaks Rehab and Nursing Center,1748,105 HOSPITAL DR,,CUERO,TX,77954,DeWitt
Whispering Pines Lodge,1749,2131 ALPINE RD,,LONGVIEW,TX,75601,Gregg
Whispering Pines Nursing And Rehabilitation,1750,910 S BEECH ST,,WINNSBORO,TX,75494,Wood
Whisperwood Nursing and Rehabilitation Center,1751,5502 4TH ST,,LUBBOCK,TX,79416,Lubbock
White River Care Center,1752,905 E HILL ST,,SPUR,TX,79370,Dickens
White Settlement Nursing Center,1753,7820 SKYLINE PARK DR,,WHITE SETTLEMENT,TX,76108,Tarrant
Whitehall Nursing Center,1754,1116 E LOOP 304,,CROCKETT,TX,75835,Houston
Whitesboro Nursing and Rehabilitation Center,1755,1204 SHERMAN DR,,WHITESBORO,TX,76273,Grayson
Wilbarger General Hospital,1756,920 HILLCREST DR,,VERNON,TX,76384,Wilbarger
Will O Bell Nursing Home,1757,412 N DALTON ST,,BARTLETT,TX,76511,Bell
William R Courtney State Veterans Home,1758,1424 MARTIN LUTHER KING JR LN,,TEMPLE,TX,76504,Bell
Williamsburg Village Healthcare Campus,1759,940 YORK DR,,DESOTO,TX,75115,Dallas
"Willis Nursing And Rehabilitation, Lp",1760,3000 N DANVILLE ST,,WILLIS,TX,77378,Montgomery
Willow Bend Nursing and Rehabilitation Center,1761,2231 US HIGHWAY 80 E,,MESQUITE,TX,75150,Dallas
WILLOW PARK REHABILITATION AND CARE CENTER,1762,300 CROWNE POINT BLVD,,WILLOW PARK,TX,76087,
Willow Rehab And Nursing,1763,1901 WHIPPORWILL LN,,KILGORE,TX,75662,Gregg
Willow Springs Health and Rehabilitation Center,1764,4934 S 7TH ST,,ABILENE,TX,79605,Taylor
Willowbrook Nursing Center,1765,227 RUSSELL BLVD,,NACOGDOCHES,TX,75965,Nacogdoches
Willowbrook Residence and Rehabilitation Center,1766,13631 ARDFIELD DR,,HOUSTON,TX,77070,Harris
Winchester Lodge Health and Rehabilitation,1767,1112 SMITH DR,,ALVIN,TX,77511,Brazoria
Windcrest Health and Rehabilitation,1768,6050 HOSPITAL DR,,ABILENE,TX,79606,Taylor
Windcrest Nursing And Rehabilitation Center,1769,210 W WINDCREST ST,,FREDERICKSBURG,TX,78624,Gillespie
WINDEMERE AT WESTOVER HILLS,1770,11106 CHRISTUS HLS,,SAN ANTONIO,TX,78251,
Windemere at Westover Hills,1771,11106 CHRISTUS HLS,,SAN ANTONIO,TX,78251,Bexar
Windmill Nursing And Rehab Center,1772,507 MARTIN LUTHER KING BLVD,,LUBBOCK,TX,79403,Lubbock
WINDMILL VILLAGE REHABILITATION AND HEALTH CARE CE,1773,507 MARTIN LUTHER KING BLVD,,LUBBOCK,TX,79403,
Windsong Care Center,1774,3400 E WALNUT ST,,PEARLAND,TX,77581,Brazoria
Windsor Arbor View,1775,218 BALTIC AVE,,EDINBURG,TX,78539,Hidalgo
Windsor Atrium,1776,1814 ATRIUM PLACE DR,,HARLINGEN,TX,78550,Cameron
Windsor Calallen,1777,4162 WILDCAT DR,,CORPUS CHRISTI,TX,78410,Nueces
Windsor Gardens,1778,2535 W PLEASANT RUN RD,,LANCASTER,TX,75146,Dallas
"Windsor Healthcare Residence, Ltd",1779,1025 W YEAGUA ST,,GROESBECK,TX,76642,Limestone
Windsor Houston,1780,6920 W T C JESTER BLVD,,HOUSTON,TX,77091,Harris
Windsor Mission Oaks Nursing And Rehabilitation Center,1781,3030 ROOSEVELT AVE,,SAN ANTONIO,TX,78214,Bexar
Windsor Nursing And Rehabilitation Center Of Corpus Christi,1782,3030 FIG ST,,CORPUS CHRISTI,TX,78404,Nueces
Windsor Nursing and Rehabilitation Center of Duval,1783,5301 DUVAL RD,,AUSTIN,TX,78727,Travis
Windsor Nursing And Rehabilitation Center Of Seguin,1784,1219 EASTWOOD DR,,SEGUIN,TX,78155,Guadalupe
Windsor Place Nursing Center,1785,507 E W M WATSON BLVD,,DAINGERFIELD,TX,75638,Morris
Windsor Quail Valley Post Acute Healthcare Center,1786,3640 HAMPTON DR,,MISSOURI CITY,TX,77459,Fort Bend
Windsor Rehabilitation And Health Care Center,1787,250 W BRITISH FLYING SCHOOL BLVD,,TERRELL,TX,75160,Kaufman
Winfield Healthcare,1788,1108 E LOOP 304,,CROCKETT,TX,75835,Houston
Winkler County Memorial Hospital,1789,821 JEFFEE DR,,KERMIT,TX,79745,Winkler
Winnie L Nursing and Rehabilitation,1790,2104 N KARNES AVE,,CAMERON,TX,76520,Milam
Winterhaven Healthcare Residence,1791,6534 STUEBNER AIRLINE RD,,HOUSTON,TX,77091,Harris
Winters Healthcare Residence,1792,506 VAN NESS ST,,WINTERS,TX,79567,Runnels
Winters Park Nursing and Rehabilitation Center,1793,3737 N GARLAND AVE,,GARLAND,TX,75040,Dallas
Wisteria Place Nursing and Rehabilitation,1794,3202 S WILLIS ST,,ABILENE,TX,79605,Taylor
WJ Mangold Memorial Hospital,1795,320 N MAIN ST,,LOCKNEY,TX,79241,Floyd
Wood Memorial Nursing Center,1796,320 GREENVILLE AVE,,MINEOLA,TX,75773,Wood
Woodlake Nursing Home,1797,603 E PLANTATION DR,,CLUTE,TX,77531,Brazoria
Woodland Heights Medical Center,1798,505 S JOHN REDDITT DR,,LUFKIN,TX,75904,Angelina
Woodland Heights Medical Center Skilled Nursing Unit,1799,505 S JOHN REDDITT DR,,LUFKIN,TX,75904,Angelina
"Woodland Manor Nursing and Rehabilitation, LP",1800,99 RIGBY OWEN RD,,CONROE,TX,77304,Montgomery
Woodland Park Nursing And Rehabilitation,1801,101 WOODLAND PARK DR,,SHEPHERD,TX,77371,San Jacinto
Woodland Springs Nursing Center,1802,1010 DALLAS ST,,WACO,TX,76704,McLennan
WOODLANDS PLACE REHABILITATION SUITES,1803,5600 WOODLANDS TRL,,DENISON,TX,75020,
Woodridge Health and Rehabilitation,1804,1500 AUTUMN DR,,GRAPEVINE,TX,76051,Tarrant
Woodridge Nursing and Rehabilitation Center,1805,8810 LONG POINT RD,,HOUSTON,TX,77055,Harris
Woodridge Nursing and Rehabilitation Center,1806,600 S HILLSIDE DR,,BEEVILLE,TX,78102,Bee
Woodville Health and Rehabilitation Center,1807,102 N BEECH ST,,WOODVILLE,TX,75979,Tyler
Wooldridge Place Nursing Center,1808,7352 WOOLDRIDGE RD,,CORPUS CHRISTI,TX,78414,Nueces
Wortham Rehabilitation Center,1809,117 TWIN CIR,,WORTHAM,TX,76693,Freestone
Yoakum Community Hospital Swing Bed,1810,1200 CARL RAMERT DR,,YOAKUM,TX,77995,Lavaca
Yoakum County Hospital,1811,412 MUSTANG DR,,DENVER CITY,TX,79323,Yoakum
Yoakum Nursing and Rehabilitation Center,1812,1300 CARL RAMERT DR,,YOAKUM,TX,77995,Lavaca
Yorktown Nursing and Rehabilitation Center,1813,670 W 4TH ST,,YORKTOWN,TX,78164,DeWitt